{"id":"324425","name":"Le Neuvième Art","address":{"address_locality":"Lyon","postal_code":"69006"},"stars":"2 étoiles MICHELIN : une cuisine d’exception. Vaut le détour !","link":"https://m.lafourchette.com/api/restaurant/324425/sale-type"}
{"id":"269053","name":"Ze Kitchen Galerie","address":{"address_locality":"Paris","postal_code":"75006"},"stars":"1 étoile MICHELIN : une cuisine d’une grande finesse. Vaut l’étape !","link":"https://m.lafourchette.com/api/restaurant/269053/sale-type"}
{"id":"276775","name":"Garopapilles","address":{"address_locality":"Bordeaux","postal_code":"33000"},"stars":"1 étoile MICHELIN : une cuisine d’une grande finesse. Vaut l’étape !","link":"https://m.lafourchette.com/api/restaurant/276775/sale-type"}
{"id":"2975","name":"La Table du Gourmet","address":{"address_locality":"Riquewihr","postal_code":"68340"},"stars":"1 étoile MICHELIN : une cuisine d’une grande finesse. Vaut l’étape !","link":"https://m.lafourchette.com/api/restaurant/2975/sale-type"}
{"id":"405","name":"Maison Rostang","address":{"address_locality":"Paris","postal_code":"75017"},"stars":"2 étoiles MICHELIN : une cuisine d’exception. Vaut le détour !","link":"https://m.lafourchette.com/api/restaurant/405/sale-type"}
{"id":"5609","name":"La Chapelle Saint Martin","address":{"address_locality":"Nieul","postal_code":"87510"},"stars":"1 étoile MICHELIN : une cuisine d’une grande finesse. Vaut l’étape !","link":"https://m.lafourchette.com/api/restaurant/5609/sale-type"}
{"id":"2819","name":"Les Hautes Roches","address":{"address_locality":"Rochecorbon","postal_code":"37210"},"stars":"1 étoile MICHELIN : une cuisine d’une grande finesse. Vaut l’étape !","link":"https://m.lafourchette.com/api/restaurant/2819/sale-type"}
{"id":"317277","name":"Quinsou","address":{"address_locality":"Paris","postal_code":"75006"},"stars":"1 étoile MICHELIN : une cuisine d’une grande finesse. Vaut l’étape !","link":"https://m.lafourchette.com/api/restaurant/317277/sale-type"}
{"id":"200546","name":"Sylvestre - Hôtel Thoumieux","address":{"address_locality":"Paris","postal_code":"75007"},"stars":"2 étoiles MICHELIN : une cuisine d’exception. Vaut le détour !","link":"https://m.lafourchette.com/api/restaurant/200546/sale-type"}
{"id":"57531","name":"La Bastide de Moustiers","address":{"address_locality":"Moustiers-Sainte-Marie","postal_code":"04360"},"stars":"1 étoile MICHELIN : une cuisine d’une grande finesse. Vaut l’étape !","link":"https://m.lafourchette.com/api/restaurant/57531/sale-type"}
{"id":"9611","name":"Le Radio","address":{"address_locality":"Chamalières","postal_code":"63400"},"stars":"1 étoile MICHELIN : une cuisine d’une grande finesse. Vaut l’étape !","link":"https://m.lafourchette.com/api/restaurant/9611/sale-type"}
{"id":"30315","name":"Les Climats","address":{"address_locality":"Paris","postal_code":"75007"},"stars":"1 étoile MICHELIN : une cuisine d’une grande finesse. Vaut l’étape !","link":"https://m.lafourchette.com/api/restaurant/30315/sale-type"}
{"id":"10382","name":"Le Strasbourg","address":{"address_locality":"Bitche","postal_code":"57230"},"stars":"1 étoile MICHELIN : une cuisine d’une grande finesse. Vaut l’étape !","link":"https://m.lafourchette.com/api/restaurant/10382/sale-type"}
{"id":"65607","name":"Le Château de Sable","address":{"address_locality":"Porspoder","postal_code":"29840"},"stars":"1 étoile MICHELIN : une cuisine d’une grande finesse. Vaut l’étape !","link":"https://m.lafourchette.com/api/restaurant/65607/sale-type"}
{"id":"5487","name":"Château de Mirambeau","address":{"address_locality":"Mirambeau","postal_code":"17150"},"stars":"1 étoile MICHELIN : une cuisine d’une grande finesse. Vaut l’étape !","link":"https://m.lafourchette.com/api/restaurant/5487/sale-type"}
{"id":"31008","name":"Alcyone","address":{"address_locality":"Marseille","postal_code":"13002"},"stars":"1 étoile MICHELIN : une cuisine d’une grande finesse. Vaut l’étape !","link":"https://m.lafourchette.com/api/restaurant/31008/sale-type"}
{"id":"31795","name":"L'Auberge du Vert Mont","address":{"address_locality":"Boeschepe","postal_code":"59299"},"stars":"1 étoile MICHELIN : une cuisine d’une grande finesse. Vaut l’étape !","link":"https://m.lafourchette.com/api/restaurant/31795/sale-type"}
{"id":"3507","name":"Hostellerie de Levernois : Le Gastronomique","address":{"address_locality":"Levernois","postal_code":"21200"},"stars":"1 étoile MICHELIN : une cuisine d’une grande finesse. Vaut l’étape !","link":"https://m.lafourchette.com/api/restaurant/3507/sale-type"}
{"id":"387","name":"Le Mascaret","address":{"address_locality":"Blainville-sur-Mer","postal_code":"50560"},"stars":"1 étoile MICHELIN : une cuisine d’une grande finesse. Vaut l’étape !","link":"https://m.lafourchette.com/api/restaurant/387/sale-type"}
{"id":"18939","name":"Le Bistro des Saveurs","address":{"address_locality":"Obernai","postal_code":"67210"},"stars":"1 étoile MICHELIN : une cuisine d’une grande finesse. Vaut l’étape !","link":"https://m.lafourchette.com/api/restaurant/18939/sale-type"}
{"id":"22504","name":"L'Epuisette","address":{"address_locality":"Marseille","postal_code":"13007"},"stars":"1 étoile MICHELIN : une cuisine d’une grande finesse. Vaut l’étape !","link":"https://m.lafourchette.com/api/restaurant/22504/sale-type"}
{"id":"209577","name":"Restaurant H","address":{"address_locality":"Paris","postal_code":"75004"},"stars":"1 étoile MICHELIN : une cuisine d’une grande finesse. Vaut l’étape !","link":"https://m.lafourchette.com/api/restaurant/209577/sale-type"}
{"id":"2698","name":"Jean Luc Tartarin","address":{"address_locality":"Le Havre","postal_code":"76600"},"stars":"2 étoiles MICHELIN : une cuisine d’exception. Vaut le détour !","link":"https://m.lafourchette.com/api/restaurant/2698/sale-type"}
{"id":"69375","name":"Au Trou Gascon - Alain Dutournier","address":{"address_locality":"Paris","postal_code":"75012"},"stars":"1 étoile MICHELIN : une cuisine d’une grande finesse. Vaut l’étape !","link":"https://m.lafourchette.com/api/restaurant/69375/sale-type"}
{"id":"378","name":"Ithurria","address":{"address_locality":"Ainhoa","postal_code":"64250"},"stars":"1 étoile MICHELIN : une cuisine d’une grande finesse. Vaut l’étape !","link":"https://m.lafourchette.com/api/restaurant/378/sale-type"}
{"id":"26112","name":"Le 39V Paris - Frédéric Vardon","address":{"address_locality":"Paris","postal_code":"75008"},"stars":"1 étoile MICHELIN : une cuisine d’une grande finesse. Vaut l’étape !","link":"https://m.lafourchette.com/api/restaurant/26112/sale-type"}
{"id":"4961","name":"Ar Men Du","address":{"address_locality":"Névez","postal_code":"29920"},"stars":"1 étoile MICHELIN : une cuisine d’une grande finesse. Vaut l’étape !","link":"https://m.lafourchette.com/api/restaurant/4961/sale-type"}
{"id":"5355","name":"Auberge du Pont de Collonges - Paul Bocuse","address":{"address_locality":"Collonges-au-Mont-d'Or","postal_code":"69660"},"stars":"3 étoiles MICHELIN : une cuisine unique. Vaut le voyage !","link":"https://m.lafourchette.com/api/restaurant/5355/sale-type"}
{"id":"269931","name":"Les Jardins de L'Espadon - Ritz Paris","address":{"address_locality":"Paris","postal_code":"75001"},"stars":"1 étoile MICHELIN : une cuisine d’une grande finesse. Vaut l’étape !","link":"https://m.lafourchette.com/api/restaurant/269931/sale-type"}
{"id":"28557","name":"La Grange de Belle Eglise","address":{"address_locality":"Belle-Église","postal_code":"60540"},"stars":"1 étoile MICHELIN : une cuisine d’une grande finesse. Vaut l’étape !","link":"https://m.lafourchette.com/api/restaurant/28557/sale-type"}
{"id":"63173","name":"Fontevraud  Le Restaurant","address":{"address_locality":"Fontevraud-l'Abbaye","postal_code":"49590"},"stars":"1 étoile MICHELIN : une cuisine d’une grande finesse. Vaut l’étape !","link":"https://m.lafourchette.com/api/restaurant/63173/sale-type"}
{"id":"294745","name":"Le Fanal - Pascal Borrell","address":{"address_locality":"Banyuls-sur-Mer","postal_code":"66650"},"stars":"1 étoile MICHELIN : une cuisine d’une grande finesse. Vaut l’étape !","link":"https://m.lafourchette.com/api/restaurant/294745/sale-type"}
{"id":"6792","name":"Le Panoramique du Domaine de la Corniche","address":{"address_locality":"Rolleboise","postal_code":"78270"},"stars":"1 étoile MICHELIN : une cuisine d’une grande finesse. Vaut l’étape !","link":"https://m.lafourchette.com/api/restaurant/6792/sale-type"}
{"id":"15068","name":"Au Vieux Couvent - Alexis Albrecht","address":{"address_locality":"Rhinau","postal_code":"67860"},"stars":"1 étoile MICHELIN : une cuisine d’une grande finesse. Vaut l’étape !","link":"https://m.lafourchette.com/api/restaurant/15068/sale-type"}
{"id":"26601","name":"Restaurant Numéro 3","address":{"address_locality":"Le Tremblay-sur-Mauldre","postal_code":"78490"},"stars":"1 étoile MICHELIN : une cuisine d’une grande finesse. Vaut l’étape !","link":"https://m.lafourchette.com/api/restaurant/26601/sale-type"}
{"id":"36039","name":"Le Salon d'Hélène - Hélène Darroze","address":{"address_locality":"Paris","postal_code":"75006"},"stars":"1 étoile MICHELIN : une cuisine d’une grande finesse. Vaut l’étape !","link":"https://m.lafourchette.com/api/restaurant/36039/sale-type"}
{"id":"205737","name":"Le Violon d'Ingres - Christian Constant","address":{"address_locality":"Paris","postal_code":"75007"},"stars":"1 étoile MICHELIN : une cuisine d’une grande finesse. Vaut l’étape !","link":"https://m.lafourchette.com/api/restaurant/205737/sale-type"}
{"id":"12900","name":"Pierre Orsi","address":{"address_locality":"Lyon","postal_code":"69006"},"stars":"1 étoile MICHELIN : une cuisine d’une grande finesse. Vaut l’étape !","link":"https://m.lafourchette.com/api/restaurant/12900/sale-type"}
{"id":"44000","name":"Logis de la Cadène","address":{"address_locality":"Saint-Émilion","postal_code":"33330"},"stars":"1 étoile MICHELIN : une cuisine d’une grande finesse. Vaut l’étape !","link":"https://m.lafourchette.com/api/restaurant/44000/sale-type"}
{"id":"16363","name":"Chez Michèle","address":{"address_locality":"Languimberg","postal_code":"57810"},"stars":"1 étoile MICHELIN : une cuisine d’une grande finesse. Vaut l’étape !","link":"https://m.lafourchette.com/api/restaurant/16363/sale-type"}
{"id":"366063","name":"Château Cordeillan Bages","address":{"address_locality":"Pauillac","postal_code":"33250"},"stars":"1 étoile MICHELIN : une cuisine d’une grande finesse. Vaut l’étape !","link":"https://m.lafourchette.com/api/restaurant/366063/sale-type"}
{"id":"2828","name":"Le Chiberta - Stéphane Laruelle - Guy Savoy","address":{"address_locality":"Paris","postal_code":"75008"},"stars":"1 étoile MICHELIN : une cuisine d’une grande finesse. Vaut l’étape !","link":"https://m.lafourchette.com/api/restaurant/2828/sale-type"}
{"id":"4988","name":"Le Jardin des Remparts","address":{"address_locality":"Beaune","postal_code":"21200"},"stars":"1 étoile MICHELIN : une cuisine d’une grande finesse. Vaut l’étape !","link":"https://m.lafourchette.com/api/restaurant/4988/sale-type"}
{"id":"22878","name":"Domaine de Clairefontaine","address":{"address_locality":"Chonas-l'Amballan","postal_code":"38121"},"stars":"1 étoile MICHELIN : une cuisine d’une grande finesse. Vaut l’étape !","link":"https://m.lafourchette.com/api/restaurant/22878/sale-type"}
{"id":"78423","name":"L’Atelier de Gaztelur","address":{"address_locality":"Arcangues","postal_code":"64200"},"stars":"1 étoile MICHELIN : une cuisine d’une grande finesse. Vaut l’étape !","link":"https://m.lafourchette.com/api/restaurant/78423/sale-type"}
{"id":"73961","name":"Le George - Four Seasons Hôtel George V","address":{"address_locality":"Paris","postal_code":"75008"},"stars":"1 étoile MICHELIN : une cuisine d’une grande finesse. Vaut l’étape !","link":"https://m.lafourchette.com/api/restaurant/73961/sale-type"}
{"id":"337449","name":"Comice","address":{"address_locality":"Paris","postal_code":"75016"},"stars":"1 étoile MICHELIN : une cuisine d’une grande finesse. Vaut l’étape !","link":"https://m.lafourchette.com/api/restaurant/337449/sale-type"}
{"id":"26201","name":"Restaurant Auguste - Gaël Orieux","address":{"address_locality":"Paris","postal_code":"75007"},"stars":"1 étoile MICHELIN : une cuisine d’une grande finesse. Vaut l’étape !","link":"https://m.lafourchette.com/api/restaurant/26201/sale-type"}
{"id":"12792","name":"La Côte Saint-Jacques","address":{"address_locality":"Joigny","postal_code":"89300"},"stars":"2 étoiles MICHELIN : une cuisine d’exception. Vaut le détour !","link":"https://m.lafourchette.com/api/restaurant/12792/sale-type"}
{"id":"5020","name":"La Fourchette du Printemps - Nicolas Mouton","address":{"address_locality":"Paris","postal_code":"75017"},"stars":"1 étoile MICHELIN : une cuisine d’une grande finesse. Vaut l’étape !","link":"https://m.lafourchette.com/api/restaurant/5020/sale-type"}
{"id":"15593","name":"Bistrot de l'Oasis","address":{"address_locality":"Mandelieu-la-Napoule","postal_code":"06210"},"stars":"2 étoiles MICHELIN : une cuisine d’exception. Vaut le détour !","link":"https://m.lafourchette.com/api/restaurant/15593/sale-type"}
{"id":"77134","name":"Mickaël Féval","address":{"address_locality":"Aix-en-Provence","postal_code":"13100"},"stars":"1 étoile MICHELIN : une cuisine d’une grande finesse. Vaut l’étape !","link":"https://m.lafourchette.com/api/restaurant/77134/sale-type"}
{"id":"291883","name":"La Table de l'Alpaga","address":{"address_locality":"Megève","postal_code":"74120"},"stars":"1 étoile MICHELIN : une cuisine d’une grande finesse. Vaut l’étape !","link":"https://m.lafourchette.com/api/restaurant/291883/sale-type"}
{"id":"3592","name":"Buerehiesel - Eric Westermann","address":{"address_locality":"Strasbourg","postal_code":"67000"},"stars":"1 étoile MICHELIN : une cuisine d’une grande finesse. Vaut l’étape !","link":"https://m.lafourchette.com/api/restaurant/3592/sale-type"}
{"id":"2971","name":"Maison Kieny","address":{"address_locality":"Riedisheim","postal_code":"68400"},"stars":"1 étoile MICHELIN : une cuisine d’une grande finesse. Vaut l’étape !","link":"https://m.lafourchette.com/api/restaurant/2971/sale-type"}
{"id":"75043","name":"Prairial","address":{"address_locality":"Lyon","postal_code":"69001"},"stars":"1 étoile MICHELIN : une cuisine d’une grande finesse. Vaut l’étape !","link":"https://m.lafourchette.com/api/restaurant/75043/sale-type"}
{"id":"529","name":"Le Puits du Trésor","address":{"address_locality":"Lastours","postal_code":"11600"},"stars":"1 étoile MICHELIN : une cuisine d’une grande finesse. Vaut l’étape !","link":"https://m.lafourchette.com/api/restaurant/529/sale-type"}
{"id":"1086","name":"Le Vivier","address":{"address_locality":"L'Isle-sur-la-Sorgue","postal_code":"84800"},"stars":"1 étoile MICHELIN : une cuisine d’une grande finesse. Vaut l’étape !","link":"https://m.lafourchette.com/api/restaurant/1086/sale-type"}
{"id":"8933","name":"Les Clefs d'Argent","address":{"address_locality":"Mont-de-Marsan","postal_code":"40000"},"stars":"1 étoile MICHELIN : une cuisine d’une grande finesse. Vaut l’étape !","link":"https://m.lafourchette.com/api/restaurant/8933/sale-type"}
{"id":"6655","name":"Bistrot Gourmand Clovis","address":{"address_locality":"Tourrettes-sur-Loup","postal_code":"06140"},"stars":"1 étoile MICHELIN : une cuisine d’une grande finesse. Vaut l’étape !","link":"https://m.lafourchette.com/api/restaurant/6655/sale-type"}
{"id":"344379","name":"Astrance","address":{"address_locality":"Paris","postal_code":"75016"},"stars":"3 étoiles MICHELIN : une cuisine unique. Vaut le voyage !","link":"https://m.lafourchette.com/api/restaurant/344379/sale-type"}
{"id":"310489","name":"Le Saint-Laurent","address":{"address_locality":"Paris","postal_code":"75008"},"stars":"1 étoile MICHELIN : une cuisine d’une grande finesse. Vaut l’étape !","link":"https://m.lafourchette.com/api/restaurant/310489/sale-type"}
{"id":"287357","name":"La Palme d'Or","address":{"address_locality":"Cannes","postal_code":"06400"},"stars":"2 étoiles MICHELIN : une cuisine d’exception. Vaut le détour !","link":"https://m.lafourchette.com/api/restaurant/287357/sale-type"}
{"id":"38154","name":"L'Aromate","address":{"address_locality":"Nice","postal_code":"06000"},"stars":"1 étoile MICHELIN : une cuisine d’une grande finesse. Vaut l’étape !","link":"https://m.lafourchette.com/api/restaurant/38154/sale-type"}
{"id":"6018","name":"Le Vieux Logis","address":{"address_locality":"Trémolat","postal_code":"24510"},"stars":"1 étoile MICHELIN : une cuisine d’une grande finesse. Vaut l’étape !","link":"https://m.lafourchette.com/api/restaurant/6018/sale-type"}
{"id":"351691","name":"Restaurant Origine","address":{"address_locality":"Rouen","postal_code":"76000"},"stars":"1 étoile MICHELIN : une cuisine d’une grande finesse. Vaut l’étape !","link":"https://m.lafourchette.com/api/restaurant/351691/sale-type"}
{"id":"25701","name":"Garance","address":{"address_locality":"Paris","postal_code":"75007"},"stars":"1 étoile MICHELIN : une cuisine d’une grande finesse. Vaut l’étape !","link":"https://m.lafourchette.com/api/restaurant/25701/sale-type"}
{"id":"77571","name":"Le Domaine de Manville - La Table","address":{"address_locality":"Les Baux-de-Provence","postal_code":"13520"},"stars":"1 étoile MICHELIN : une cuisine d’une grande finesse. Vaut l’étape !","link":"https://m.lafourchette.com/api/restaurant/77571/sale-type"}
{"id":"202436","name":"Le Chateaubriand","address":{"address_locality":"Paris","postal_code":"75011"},"stars":"1 étoile MICHELIN : une cuisine d’une grande finesse. Vaut l’étape !","link":"https://m.lafourchette.com/api/restaurant/202436/sale-type"}
{"id":"416","name":"Hostellerie Bérard & spa","address":{"address_locality":"La Cadière-d'Azur","postal_code":"83740"},"stars":"1 étoile MICHELIN : une cuisine d’une grande finesse. Vaut l’étape !","link":"https://m.lafourchette.com/api/restaurant/416/sale-type"}
{"id":"27598","name":"Hôtel Restaurant Les Bories","address":{"address_locality":"Gordes","postal_code":"84220"},"stars":"1 étoile MICHELIN : une cuisine d’une grande finesse. Vaut l’étape !","link":"https://m.lafourchette.com/api/restaurant/27598/sale-type"}
{"id":"10332","name":"Le Refuge des Gourmets","address":{"address_locality":"Machilly","postal_code":"74140"},"stars":"1 étoile MICHELIN : une cuisine d’une grande finesse. Vaut l’étape !","link":"https://m.lafourchette.com/api/restaurant/10332/sale-type"}
{"id":"2714","name":"Auberge des Templiers","address":{"address_locality":"Boismorand","postal_code":"45290"},"stars":"1 étoile MICHELIN : une cuisine d’une grande finesse. Vaut l’étape !","link":"https://m.lafourchette.com/api/restaurant/2714/sale-type"}
{"id":"2970","name":"La Renaissance","address":{"address_locality":"Argentan","postal_code":"61200"},"stars":"1 étoile MICHELIN : une cuisine d’une grande finesse. Vaut l’étape !","link":"https://m.lafourchette.com/api/restaurant/2970/sale-type"}
{"id":"4977","name":"Le Saint-James - Nicolas Magie","address":{"address_locality":"Bouliac","postal_code":"33270"},"stars":"1 étoile MICHELIN : une cuisine d’une grande finesse. Vaut l’étape !","link":"https://m.lafourchette.com/api/restaurant/4977/sale-type"}
{"id":"53038","name":"Le Gabriel - La Réserve Paris","address":{"address_locality":"Paris","postal_code":"75008"},"stars":"2 étoiles MICHELIN : une cuisine d’exception. Vaut le détour !","link":"https://m.lafourchette.com/api/restaurant/53038/sale-type"}
{"id":"221","name":"Le France","address":{"address_locality":"Villers-le-Lac","postal_code":"25130"},"stars":"1 étoile MICHELIN : une cuisine d’une grande finesse. Vaut l’étape !","link":"https://m.lafourchette.com/api/restaurant/221/sale-type"}
{"id":"327881","name":"La Matelote","address":{"address_locality":"Boulogne-sur-Mer","postal_code":"62200"},"stars":"1 étoile MICHELIN : une cuisine d’une grande finesse. Vaut l’étape !","link":"https://m.lafourchette.com/api/restaurant/327881/sale-type"}
{"id":"77613","name":"Le Meurin","address":{"address_locality":"Busnes","postal_code":"62350"},"stars":"2 étoiles MICHELIN : une cuisine d’exception. Vaut le détour !","link":"https://m.lafourchette.com/api/restaurant/77613/sale-type"}
{"id":"26469","name":"Restaurant Cyril Attrazic - Chez Camillou","address":{"address_locality":"Aumont-Aubrac","postal_code":"48130"},"stars":"1 étoile MICHELIN : une cuisine d’une grande finesse. Vaut l’étape !","link":"https://m.lafourchette.com/api/restaurant/26469/sale-type"}
{"id":"26660","name":"La Vague d'Or","address":{"address_locality":"Saint-Tropez","postal_code":"83990"},"stars":"3 étoiles MICHELIN : une cuisine unique. Vaut le voyage !","link":"https://m.lafourchette.com/api/restaurant/26660/sale-type"}
{"id":"43399","name":"La Grignotière","address":{"address_locality":"Raismes","postal_code":"59590"},"stars":"1 étoile MICHELIN : une cuisine d’une grande finesse. Vaut l’étape !","link":"https://m.lafourchette.com/api/restaurant/43399/sale-type"}
{"id":"2934","name":"Auberge du Bon Laboureur","address":{"address_locality":"Chenonceaux","postal_code":"37150"},"stars":"1 étoile MICHELIN : une cuisine d’une grande finesse. Vaut l’étape !","link":"https://m.lafourchette.com/api/restaurant/2934/sale-type"}
{"id":"341313","name":"Les Jardins de l'Opéra","address":{"address_locality":"Toulouse","postal_code":"31000"},"stars":"1 étoile MICHELIN : une cuisine d’une grande finesse. Vaut l’étape !","link":"https://m.lafourchette.com/api/restaurant/341313/sale-type"}
{"id":"4294","name":"La Maison dans le Parc","address":{"address_locality":"Nancy","postal_code":"54000"},"stars":"1 étoile MICHELIN : une cuisine d’une grande finesse. Vaut l’étape !","link":"https://m.lafourchette.com/api/restaurant/4294/sale-type"}
{"id":"5727","name":"Mavrommatis","address":{"address_locality":"Paris","postal_code":"75005"},"stars":"1 étoile MICHELIN : une cuisine d’une grande finesse. Vaut l’étape !","link":"https://m.lafourchette.com/api/restaurant/5727/sale-type"}
{"id":"3303","name":"Le Relais Bernard Loiseau","address":{"address_locality":"Saulieu","postal_code":"21210"},"stars":"2 étoiles MICHELIN : une cuisine d’exception. Vaut le détour !","link":"https://m.lafourchette.com/api/restaurant/3303/sale-type"}
{"id":"3157","name":"Restaurant Gill \"Relais & Châteaux\"","address":{"address_locality":"Rouen","postal_code":"76000"},"stars":"2 étoiles MICHELIN : une cuisine d’exception. Vaut le détour !","link":"https://m.lafourchette.com/api/restaurant/3157/sale-type"}
{"id":"313905","name":"Auberge le Prieuré","address":{"address_locality":"Moirax","postal_code":"47310"},"stars":"1 étoile MICHELIN : une cuisine d’une grande finesse. Vaut l’étape !","link":"https://m.lafourchette.com/api/restaurant/313905/sale-type"}
{"id":"6448","name":"Les Bacchanales - Christophe Dufau","address":{"address_locality":"Vence","postal_code":"06140"},"stars":"1 étoile MICHELIN : une cuisine d’une grande finesse. Vaut l’étape !","link":"https://m.lafourchette.com/api/restaurant/6448/sale-type"}
{"id":"1923","name":"Agapé","address":{"address_locality":"Paris","postal_code":"75017"},"stars":"1 étoile MICHELIN : une cuisine d’une grande finesse. Vaut l’étape !","link":"https://m.lafourchette.com/api/restaurant/1923/sale-type"}
{"id":"2998","name":"Christopher Coutanceau","address":{"address_locality":"La Rochelle","postal_code":"17000"},"stars":"2 étoiles MICHELIN : une cuisine d’exception. Vaut le détour !","link":"https://m.lafourchette.com/api/restaurant/2998/sale-type"}
{"id":"66992","name":"Le Stelsia - Le Jasmin","address":{"address_locality":"Saint-Sylvestre-sur-Lot","postal_code":"47140"},"stars":"1 étoile MICHELIN : une cuisine d’une grande finesse. Vaut l’étape !","link":"https://m.lafourchette.com/api/restaurant/66992/sale-type"}
{"id":"23087","name":"Frédéric Simonin","address":{"address_locality":"Paris","postal_code":"75017"},"stars":"1 étoile MICHELIN : une cuisine d’une grande finesse. Vaut l’étape !","link":"https://m.lafourchette.com/api/restaurant/23087/sale-type"}
{"id":"18271","name":"Le Clair de la Plume","address":{"address_locality":"Grignan","postal_code":"26230"},"stars":"1 étoile MICHELIN : une cuisine d’une grande finesse. Vaut l’étape !","link":"https://m.lafourchette.com/api/restaurant/18271/sale-type"}
{"id":"10427","name":"Auberge les Morainières","address":{"address_locality":"Jongieux","postal_code":"73170"},"stars":"2 étoiles MICHELIN : une cuisine d’exception. Vaut le détour !","link":"https://m.lafourchette.com/api/restaurant/10427/sale-type"}
{"id":"275","name":"Restaurant le Meurice Alain Ducasse","address":{"address_locality":"Paris","postal_code":"75001"},"stars":"2 étoiles MICHELIN : une cuisine d’exception. Vaut le détour !","link":"https://m.lafourchette.com/api/restaurant/275/sale-type"}
{"id":"566","name":"L'Almandin","address":{"address_locality":"Saint-Cyprien","postal_code":"66750"},"stars":"1 étoile MICHELIN : une cuisine d’une grande finesse. Vaut l’étape !","link":"https://m.lafourchette.com/api/restaurant/566/sale-type"}
{"id":"29826","name":"Loiseau des Ducs","address":{"address_locality":"Dijon","postal_code":"21000"},"stars":"1 étoile MICHELIN : une cuisine d’une grande finesse. Vaut l’étape !","link":"https://m.lafourchette.com/api/restaurant/29826/sale-type"}
{"id":"62590","name":"Le Pont de l'Ouysse","address":{"address_locality":"Lacave","postal_code":"46200"},"stars":"1 étoile MICHELIN : une cuisine d’une grande finesse. Vaut l’étape !","link":"https://m.lafourchette.com/api/restaurant/62590/sale-type"}
{"id":"7784","name":"Auberge Saint Walfrid","address":{"address_locality":"Sarreguemines","postal_code":"57200"},"stars":"1 étoile MICHELIN : une cuisine d’une grande finesse. Vaut l’étape !","link":"https://m.lafourchette.com/api/restaurant/7784/sale-type"}
{"id":"2755","name":"Auberge de Clochemerle - Romain Barthe","address":{"address_locality":"Vaux-en-Beaujolais","postal_code":"69460"},"stars":"1 étoile MICHELIN : une cuisine d’une grande finesse. Vaut l’étape !","link":"https://m.lafourchette.com/api/restaurant/2755/sale-type"}
{"id":"30143","name":"L'Atelier de Joël Robuchon Saint Germain","address":{"address_locality":"Paris","postal_code":"75007"},"stars":"2 étoiles MICHELIN : une cuisine d’exception. Vaut le détour !","link":"https://m.lafourchette.com/api/restaurant/30143/sale-type"}
{"id":"7130","name":"Le Clos des Sens","address":{"address_locality":"Annecy-le-Vieux","postal_code":"74940"},"stars":"2 étoiles MICHELIN : une cuisine d’exception. Vaut le détour !","link":"https://m.lafourchette.com/api/restaurant/7130/sale-type"}
{"id":"15264","name":"Hôtel Restaurant Yoann CONTE, bord du lac","address":{"address_locality":"Veyrier-du-Lac","postal_code":"74290"},"stars":"2 étoiles MICHELIN : une cuisine d’exception. Vaut le détour !","link":"https://m.lafourchette.com/api/restaurant/15264/sale-type"}
{"id":"3521","name":"Le Candille - Le Mas Candille","address":{"address_locality":"Mougins","postal_code":"06250"},"stars":"1 étoile MICHELIN : une cuisine d’une grande finesse. Vaut l’étape !","link":"https://m.lafourchette.com/api/restaurant/3521/sale-type"}
{"id":"206163","name":"Julien Binz","address":{"address_locality":"Ammerschwihr","postal_code":"68770"},"stars":"1 étoile MICHELIN : une cuisine d’une grande finesse. Vaut l’étape !","link":"https://m.lafourchette.com/api/restaurant/206163/sale-type"}
{"id":"3485","name":"Manoir de la Boulaie - Laurent Saudeau","address":{"address_locality":"Haute-Goulaine","postal_code":"44115"},"stars":"2 étoiles MICHELIN : une cuisine d’exception. Vaut le détour !","link":"https://m.lafourchette.com/api/restaurant/3485/sale-type"}
{"id":"6482","name":"Le Vieux Pont","address":{"address_locality":"Belcastel","postal_code":"12390"},"stars":"1 étoile MICHELIN : une cuisine d’une grande finesse. Vaut l’étape !","link":"https://m.lafourchette.com/api/restaurant/6482/sale-type"}
{"id":"38822","name":"Paloma","address":{"address_locality":"Mougins","postal_code":"06250"},"stars":"2 étoiles MICHELIN : une cuisine d’exception. Vaut le détour !","link":"https://m.lafourchette.com/api/restaurant/38822/sale-type"}
{"id":"6710","name":"Les Rosiers","address":{"address_locality":"Biarritz","postal_code":"64200"},"stars":"1 étoile MICHELIN : une cuisine d’une grande finesse. Vaut l’étape !","link":"https://m.lafourchette.com/api/restaurant/6710/sale-type"}
{"id":"277471","name":"Alain Llorca","address":{"address_locality":"La Colle-sur-Loup","postal_code":"06480"},"stars":"1 étoile MICHELIN : une cuisine d’une grande finesse. Vaut l’étape !","link":"https://m.lafourchette.com/api/restaurant/277471/sale-type"}
{"id":"33786","name":"Le 1947 - Cheval Blanc Courchevel","address":{"address_locality":"La Perrière","postal_code":"73120"},"stars":"3 étoiles MICHELIN : une cuisine unique. Vaut le voyage !","link":"https://m.lafourchette.com/api/restaurant/33786/sale-type"}
{"id":"306505","name":"Le Pavillon","address":{"address_locality":"Le Touquet-Paris-Plage","postal_code":"62520"},"stars":"1 étoile MICHELIN : une cuisine d’une grande finesse. Vaut l’étape !","link":"https://m.lafourchette.com/api/restaurant/306505/sale-type"}
{"id":"23255","name":"Auberge de la Tour","address":{"address_locality":"Marcolès","postal_code":"15220"},"stars":"1 étoile MICHELIN : une cuisine d’une grande finesse. Vaut l’étape !","link":"https://m.lafourchette.com/api/restaurant/23255/sale-type"}
{"id":"201032","name":"Le 1920","address":{"address_locality":"Megève","postal_code":"74120"},"stars":"2 étoiles MICHELIN : une cuisine d’exception. Vaut le détour !","link":"https://m.lafourchette.com/api/restaurant/201032/sale-type"}
{"id":"297223","name":"Leroy's Restaurant","address":{"address_locality":"Paris","postal_code":"75006"},"stars":"1 étoile MICHELIN : une cuisine d’une grande finesse. Vaut l’étape !","link":"https://m.lafourchette.com/api/restaurant/297223/sale-type"}
{"id":"272053","name":"Divellec","address":{"address_locality":"Paris","postal_code":"75007"},"stars":"1 étoile MICHELIN : une cuisine d’une grande finesse. Vaut l’étape !","link":"https://m.lafourchette.com/api/restaurant/272053/sale-type"}
{"id":"25896","name":"Benoit - Alain Ducasse","address":{"address_locality":"Paris","postal_code":"75004"},"stars":"1 étoile MICHELIN : une cuisine d’une grande finesse. Vaut l’étape !","link":"https://m.lafourchette.com/api/restaurant/25896/sale-type"}
{"id":"7872","name":"Le Pavillon des Boulevards - Denis Franc","address":{"address_locality":"Bordeaux","postal_code":"33000"},"stars":"1 étoile MICHELIN : une cuisine d’une grande finesse. Vaut l’étape !","link":"https://m.lafourchette.com/api/restaurant/7872/sale-type"}
{"id":"203823","name":"La Passagère","address":{"address_locality":"Antibes","postal_code":"06160"},"stars":"1 étoile MICHELIN : une cuisine d’une grande finesse. Vaut l’étape !","link":"https://m.lafourchette.com/api/restaurant/203823/sale-type"}
{"id":"301377","name":"Le Chantecler - Hôtel Negresco","address":{"address_locality":"Nice","postal_code":"06000"},"stars":"2 étoiles MICHELIN : une cuisine d’exception. Vaut le détour !","link":"https://m.lafourchette.com/api/restaurant/301377/sale-type"}
{"id":"317587","name":"Pertinence","address":{"address_locality":"Paris","postal_code":"75007"},"stars":"1 étoile MICHELIN : une cuisine d’une grande finesse. Vaut l’étape !","link":"https://m.lafourchette.com/api/restaurant/317587/sale-type"}
{"id":"953","name":"La Bonne Etape","address":{"address_locality":"Château-Arnoux-Saint-Auban","postal_code":"04160"},"stars":"1 étoile MICHELIN : une cuisine d’une grande finesse. Vaut l’étape !","link":"https://m.lafourchette.com/api/restaurant/953/sale-type"}
{"id":"8601","name":"Il Carpaccio - Hôtel Royal Monceau","address":{"address_locality":"Paris","postal_code":"75008"},"stars":"1 étoile MICHELIN : une cuisine d’une grande finesse. Vaut l’étape !","link":"https://m.lafourchette.com/api/restaurant/8601/sale-type"}
{"id":"8977","name":"Shang Palace - Shangri-La Hotel, Paris","address":{"address_locality":"Paris","postal_code":"75016"},"stars":"1 étoile MICHELIN : une cuisine d’une grande finesse. Vaut l’étape !","link":"https://m.lafourchette.com/api/restaurant/8977/sale-type"}
{"id":"9228","name":"Le Baudelaire - Hôtel Le Burgundy Paris","address":{"address_locality":"Paris","postal_code":"75001"},"stars":"1 étoile MICHELIN : une cuisine d’une grande finesse. Vaut l’étape !","link":"https://m.lafourchette.com/api/restaurant/9228/sale-type"}
{"id":"5756","name":"Palm Beach","address":{"address_locality":"Ajaccio","postal_code":"20000"},"stars":"1 étoile MICHELIN : une cuisine d’une grande finesse. Vaut l’étape !","link":"https://m.lafourchette.com/api/restaurant/5756/sale-type"}
{"id":"11050","name":"Le Cloître","address":{"address_locality":"Mane","postal_code":"04300"},"stars":"1 étoile MICHELIN : une cuisine d’une grande finesse. Vaut l’étape !","link":"https://m.lafourchette.com/api/restaurant/11050/sale-type"}
{"id":"25","name":"Loiseau rive Gauche","address":{"address_locality":"Paris","postal_code":"75007"},"stars":"1 étoile MICHELIN : une cuisine d’une grande finesse. Vaut l’étape !","link":"https://m.lafourchette.com/api/restaurant/25/sale-type"}
{"id":"74933","name":"Le Clarence","address":{"address_locality":"Paris","postal_code":"75008"},"stars":"2 étoiles MICHELIN : une cuisine d’exception. Vaut le détour !","link":"https://m.lafourchette.com/api/restaurant/74933/sale-type"}
{"id":"32584","name":"L'Auberge de la Pomme","address":{"address_locality":"Les Damps","postal_code":"27340"},"stars":"1 étoile MICHELIN : une cuisine d’une grande finesse. Vaut l’étape !","link":"https://m.lafourchette.com/api/restaurant/32584/sale-type"}
{"id":"69372","name":"Carré des Feuillants - Alain Dutournier","address":{"address_locality":"Paris","postal_code":"75001"},"stars":"2 étoiles MICHELIN : une cuisine d’exception. Vaut le détour !","link":"https://m.lafourchette.com/api/restaurant/69372/sale-type"}
{"id":"18188","name":"Le Pressoir","address":{"address_locality":"Saint-Avé","postal_code":"56890"},"stars":"1 étoile MICHELIN : une cuisine d’une grande finesse. Vaut l’étape !","link":"https://m.lafourchette.com/api/restaurant/18188/sale-type"}
{"id":"4905","name":"Le Pressoir d'Argent - Le Grand Hotel - Gordon Ramsay","address":{"address_locality":"Bordeaux","postal_code":"33000"},"stars":"2 étoiles MICHELIN : une cuisine d’exception. Vaut le détour !","link":"https://m.lafourchette.com/api/restaurant/4905/sale-type"}
{"id":"8628","name":"Le Park 45","address":{"address_locality":"Cannes","postal_code":"06400"},"stars":"1 étoile MICHELIN : une cuisine d’une grande finesse. Vaut l’étape !","link":"https://m.lafourchette.com/api/restaurant/8628/sale-type"}
{"id":"2889","name":"La Marande","address":{"address_locality":"Montbellet","postal_code":"71260"},"stars":"1 étoile MICHELIN : une cuisine d’une grande finesse. Vaut l’étape !","link":"https://m.lafourchette.com/api/restaurant/2889/sale-type"}
{"id":"2185","name":"Antoine - Thibault Sombardier","address":{"address_locality":"Paris","postal_code":"75116"},"stars":"1 étoile MICHELIN : une cuisine d’une grande finesse. Vaut l’étape !","link":"https://m.lafourchette.com/api/restaurant/2185/sale-type"}
{"id":"785","name":"Lucas Carton - Julien DUMAS","address":{"address_locality":"Paris","postal_code":"75008"},"stars":"1 étoile MICHELIN : une cuisine d’une grande finesse. Vaut l’étape !","link":"https://m.lafourchette.com/api/restaurant/785/sale-type"}
{"id":"2740","name":"Le Manoir du Lys","address":{"address_locality":"Bagnoles-de-l'Orne","postal_code":"61140"},"stars":"1 étoile MICHELIN : une cuisine d’une grande finesse. Vaut l’étape !","link":"https://m.lafourchette.com/api/restaurant/2740/sale-type"}
{"id":"2788","name":"La Villa Madie - Dimitri Droisneau","address":{"address_locality":"Cassis","postal_code":"13260"},"stars":"2 étoiles MICHELIN : une cuisine d’exception. Vaut le détour !","link":"https://m.lafourchette.com/api/restaurant/2788/sale-type"}
{"id":"209193","name":"Ed.Em","address":{"address_locality":"Chassagne-Montrachet","postal_code":"21190"},"stars":"1 étoile MICHELIN : une cuisine d’une grande finesse. Vaut l’étape !","link":"https://m.lafourchette.com/api/restaurant/209193/sale-type"}
{"id":"78533","name":"Le Quincangrogne","address":{"address_locality":"Dampmart","postal_code":"77400"},"stars":"1 étoile MICHELIN : une cuisine d’une grande finesse. Vaut l’étape !","link":"https://m.lafourchette.com/api/restaurant/78533/sale-type"}
{"id":"3997","name":"Têtedoie - Christian Têtedoie","address":{"address_locality":"Lyon","postal_code":"69005"},"stars":"1 étoile MICHELIN : une cuisine d’une grande finesse. Vaut l’étape !","link":"https://m.lafourchette.com/api/restaurant/3997/sale-type"}
{"id":"7133","name":"Le Moulin du Roc","address":{"address_locality":"Champagnac-de-Belair","postal_code":"24530"},"stars":"1 étoile MICHELIN : une cuisine d’une grande finesse. Vaut l’étape !","link":"https://m.lafourchette.com/api/restaurant/7133/sale-type"}
{"id":"4904","name":"Hostellerie de Plaisance","address":{"address_locality":"Saint-Émilion","postal_code":"33330"},"stars":"2 étoiles MICHELIN : une cuisine d’exception. Vaut le détour !","link":"https://m.lafourchette.com/api/restaurant/4904/sale-type"}
{"id":"75533","name":"La Tour des Vents","address":{"address_locality":"Monbazillac","postal_code":"24240"},"stars":"1 étoile MICHELIN : une cuisine d’une grande finesse. Vaut l’étape !","link":"https://m.lafourchette.com/api/restaurant/75533/sale-type"}
{"id":"46885","name":"Le Gambetta","address":{"address_locality":"Saumur","postal_code":"49400"},"stars":"1 étoile MICHELIN : une cuisine d’une grande finesse. Vaut l’étape !","link":"https://m.lafourchette.com/api/restaurant/46885/sale-type"}
{"id":"122","name":"La Grande Cascade - Frédéric Robert","address":{"address_locality":"Paris","postal_code":"75016"},"stars":"1 étoile MICHELIN : une cuisine d’une grande finesse. Vaut l’étape !","link":"https://m.lafourchette.com/api/restaurant/122/sale-type"}
{"id":"9759","name":"Le Carrousel","address":{"address_locality":"Maringues","postal_code":"63350"},"stars":"1 étoile MICHELIN : une cuisine d’une grande finesse. Vaut l’étape !","link":"https://m.lafourchette.com/api/restaurant/9759/sale-type"}
{"id":"4546","name":"Auberge des Saints Pères","address":{"address_locality":"Aulnay-sous-Bois","postal_code":"93600"},"stars":"1 étoile MICHELIN : une cuisine d’une grande finesse. Vaut l’étape !","link":"https://m.lafourchette.com/api/restaurant/4546/sale-type"}
{"id":"35146","name":"L'Atelier de Joël Robuchon Etoile","address":{"address_locality":"Paris","postal_code":"75008"},"stars":"1 étoile MICHELIN : une cuisine d’une grande finesse. Vaut l’étape !","link":"https://m.lafourchette.com/api/restaurant/35146/sale-type"}
{"id":"5497","name":"La Scène - Prince de Galles","address":{"address_locality":"Paris","postal_code":"75008"},"stars":"1 étoile MICHELIN : une cuisine d’une grande finesse. Vaut l’étape !","link":"https://m.lafourchette.com/api/restaurant/5497/sale-type"}
{"id":"5935","name":"Le Grand Cerf","address":{"address_locality":"Villers-Allerand","postal_code":"51500"},"stars":"1 étoile MICHELIN : une cuisine d’une grande finesse. Vaut l’étape !","link":"https://m.lafourchette.com/api/restaurant/5935/sale-type"}
{"id":"51875","name":"L'Auberge Tiegezh","address":{"address_locality":"Guer","postal_code":"56380"},"stars":"1 étoile MICHELIN : une cuisine d’une grande finesse. Vaut l’étape !","link":"https://m.lafourchette.com/api/restaurant/51875/sale-type"}
{"id":"15413","name":"Les Trois Dômes - Christian Lherm","address":{"address_locality":"Lyon","postal_code":"69002"},"stars":"1 étoile MICHELIN : une cuisine d’une grande finesse. Vaut l’étape !","link":"https://m.lafourchette.com/api/restaurant/15413/sale-type"}
{"id":"5619","name":"Restaurant Stéphane Derbord","address":{"address_locality":"Dijon","postal_code":"21000"},"stars":"1 étoile MICHELIN : une cuisine d’une grande finesse. Vaut l’étape !","link":"https://m.lafourchette.com/api/restaurant/5619/sale-type"}
{"id":"77626","name":"Alliance","address":{"address_locality":"Paris","postal_code":"75005"},"stars":"1 étoile MICHELIN : une cuisine d’une grande finesse. Vaut l’étape !","link":"https://m.lafourchette.com/api/restaurant/77626/sale-type"}
{"id":"73740","name":"La Rotonde - Domaine le Lyon Vert","address":{"address_locality":"La Tour-de-Salvagny","postal_code":"69890"},"stars":"1 étoile MICHELIN : une cuisine d’une grande finesse. Vaut l’étape !","link":"https://m.lafourchette.com/api/restaurant/73740/sale-type"}
{"id":"6765","name":"L'Auberge de la Diligence","address":{"address_locality":"Loiré","postal_code":"49440"},"stars":"1 étoile MICHELIN : une cuisine d’une grande finesse. Vaut l’étape !","link":"https://m.lafourchette.com/api/restaurant/6765/sale-type"}
{"id":"8685","name":"La Villa Archange","address":{"address_locality":"Le Cannet","postal_code":"06110"},"stars":"2 étoiles MICHELIN : une cuisine d’exception. Vaut le détour !","link":"https://m.lafourchette.com/api/restaurant/8685/sale-type"}
{"id":"8719","name":"Ô Saveurs","address":{"address_locality":"Rouffiac-Tolosan","postal_code":"31180"},"stars":"1 étoile MICHELIN : une cuisine d’une grande finesse. Vaut l’étape !","link":"https://m.lafourchette.com/api/restaurant/8719/sale-type"}
{"id":"9350","name":"Le Petit Nice Passedat - Gérald Passedat","address":{"address_locality":"Marseille","postal_code":"13007"},"stars":"3 étoiles MICHELIN : une cuisine unique. Vaut le voyage !","link":"https://m.lafourchette.com/api/restaurant/9350/sale-type"}
{"id":"2728","name":"L'Orangerie du Château","address":{"address_locality":"Blois","postal_code":"41000"},"stars":"1 étoile MICHELIN : une cuisine d’une grande finesse. Vaut l’étape !","link":"https://m.lafourchette.com/api/restaurant/2728/sale-type"}
{"id":"26460","name":"Ivan Vautier","address":{"address_locality":"Caen","postal_code":"14000"},"stars":"1 étoile MICHELIN : une cuisine d’une grande finesse. Vaut l’étape !","link":"https://m.lafourchette.com/api/restaurant/26460/sale-type"}
{"id":"21741","name":"Restaurant du Palais Royal","address":{"address_locality":"Paris","postal_code":"75001"},"stars":"1 étoile MICHELIN : une cuisine d’une grande finesse. Vaut l’étape !","link":"https://m.lafourchette.com/api/restaurant/21741/sale-type"}
{"id":"5649","name":"La Grand'Vigne - Hôtel Les Sources de Caudalie","address":{"address_locality":"Martillac","postal_code":"33650"},"stars":"2 étoiles MICHELIN : une cuisine d’exception. Vaut le détour !","link":"https://m.lafourchette.com/api/restaurant/5649/sale-type"}
{"id":"250","name":"Lasserre","address":{"address_locality":"Paris","postal_code":"75008"},"stars":"1 étoile MICHELIN : une cuisine d’une grande finesse. Vaut l’étape !","link":"https://m.lafourchette.com/api/restaurant/250/sale-type"}
{"id":"310829","name":"Dominique Bouchet","address":{"address_locality":"Paris","postal_code":"75008"},"stars":"1 étoile MICHELIN : une cuisine d’une grande finesse. Vaut l’étape !","link":"https://m.lafourchette.com/api/restaurant/310829/sale-type"}
{"id":"16314","name":"Les Fresques - Château des Vigiers","address":{"address_locality":"Monestier","postal_code":"24240"},"stars":"1 étoile MICHELIN : une cuisine d’une grande finesse. Vaut l’étape !","link":"https://m.lafourchette.com/api/restaurant/16314/sale-type"}
{"id":"15418","name":"Les Loges - Anthony Bonnet","address":{"address_locality":"Lyon","postal_code":"69005"},"stars":"1 étoile MICHELIN : une cuisine d’une grande finesse. Vaut l’étape !","link":"https://m.lafourchette.com/api/restaurant/15418/sale-type"}
{"id":"212971","name":"L'Odas","address":{"address_locality":"Rouen","postal_code":"76000"},"stars":"1 étoile MICHELIN : une cuisine d’une grande finesse. Vaut l’étape !","link":"https://m.lafourchette.com/api/restaurant/212971/sale-type"}
{"id":"28558","name":"Le Gourmet de Sèze - Bernard Mariller","address":{"address_locality":"Lyon","postal_code":"69006"},"stars":"1 étoile MICHELIN : une cuisine d’une grande finesse. Vaut l’étape !","link":"https://m.lafourchette.com/api/restaurant/28558/sale-type"}
{"id":"30379","name":"Jin","address":{"address_locality":"Paris","postal_code":"75001"},"stars":"1 étoile MICHELIN : une cuisine d’une grande finesse. Vaut l’étape !","link":"https://m.lafourchette.com/api/restaurant/30379/sale-type"}
{"id":"23303","name":"La Table de Nans - Auberge le Revestel","address":{"address_locality":"La Ciotat","postal_code":"13600"},"stars":"1 étoile MICHELIN : une cuisine d’une grande finesse. Vaut l’étape !","link":"https://m.lafourchette.com/api/restaurant/23303/sale-type"}
{"id":"2579","name":"L'Auberge de la Charme","address":{"address_locality":"Prenois","postal_code":"21370"},"stars":"1 étoile MICHELIN : une cuisine d’une grande finesse. Vaut l’étape !","link":"https://m.lafourchette.com/api/restaurant/2579/sale-type"}
{"id":"12601","name":"Hôtel Restaurant Le Cerf - Michel HUSSER","address":{"address_locality":"Marlenheim","postal_code":"67520"},"stars":"1 étoile MICHELIN : une cuisine d’une grande finesse. Vaut l’étape !","link":"https://m.lafourchette.com/api/restaurant/12601/sale-type"}
{"id":"347931","name":"Sept","address":{"address_locality":"Toulouse","postal_code":"31000"},"stars":"1 étoile MICHELIN : une cuisine d’une grande finesse. Vaut l’étape !","link":"https://m.lafourchette.com/api/restaurant/347931/sale-type"}
{"id":"272593","name":"MONTÉE","address":{"address_locality":"Paris","postal_code":"75014"},"stars":"1 étoile MICHELIN : une cuisine d’une grande finesse. Vaut l’étape !","link":"https://m.lafourchette.com/api/restaurant/272593/sale-type"}
{"id":"269585","name":"La Scène Thélème","address":{"address_locality":"Paris","postal_code":"75017"},"stars":"1 étoile MICHELIN : une cuisine d’une grande finesse. Vaut l’étape !","link":"https://m.lafourchette.com/api/restaurant/269585/sale-type"}
{"id":"53046","name":"Sur Mesure  par Thierry Marx - Mandarin Oriental, Paris","address":{"address_locality":"Paris","postal_code":"75001"},"stars":"2 étoiles MICHELIN : une cuisine d’exception. Vaut le détour !","link":"https://m.lafourchette.com/api/restaurant/53046/sale-type"}
{"id":"205419","name":"La Dame de Pic - Anne-Sophie PIC - Paris","address":{"address_locality":"Paris","postal_code":"75001"},"stars":"1 étoile MICHELIN : une cuisine d’une grande finesse. Vaut l’étape !","link":"https://m.lafourchette.com/api/restaurant/205419/sale-type"}
{"id":"4465","name":"Pur' - Jean-François Rouquette - Park Hyatt Paris-Vendôme","address":{"address_locality":"Paris","postal_code":"75002"},"stars":"1 étoile MICHELIN : une cuisine d’une grande finesse. Vaut l’étape !","link":"https://m.lafourchette.com/api/restaurant/4465/sale-type"}
{"id":"26494","name":"Restaurant La Barbacane","address":{"address_locality":"Carcassonne","postal_code":"11000"},"stars":"1 étoile MICHELIN : une cuisine d’une grande finesse. Vaut l’étape !","link":"https://m.lafourchette.com/api/restaurant/26494/sale-type"}
{"id":"46721","name":"Neige d'été","address":{"address_locality":"Paris","postal_code":"75015"},"stars":"1 étoile MICHELIN : une cuisine d’une grande finesse. Vaut l’étape !","link":"https://m.lafourchette.com/api/restaurant/46721/sale-type"}
{"id":"3931","name":"Restaurant William Frachot","address":{"address_locality":"Dijon","postal_code":"21000"},"stars":"2 étoiles MICHELIN : une cuisine d’exception. Vaut le détour !","link":"https://m.lafourchette.com/api/restaurant/3931/sale-type"}
{"id":"276169","name":"Ken Kawasaki","address":{"address_locality":"Paris","postal_code":"75018"},"stars":"1 étoile MICHELIN : une cuisine d’une grande finesse. Vaut l’étape !","link":"https://m.lafourchette.com/api/restaurant/276169/sale-type"}
{"id":"324443","name":"Maison Clovis","address":{"address_locality":"Lyon","postal_code":"69006"},"stars":"1 étoile MICHELIN : une cuisine d’une grande finesse. Vaut l’étape !","link":"https://m.lafourchette.com/api/restaurant/324443/sale-type"}
{"id":"7715","name":"Terre Mer","address":{"address_locality":"Auray","postal_code":"56400"},"stars":"1 étoile MICHELIN : une cuisine d’une grande finesse. Vaut l’étape !","link":"https://m.lafourchette.com/api/restaurant/7715/sale-type"}
{"id":"42187","name":"La Promenade","address":{"address_locality":"Verfeil","postal_code":"31590"},"stars":"1 étoile MICHELIN : une cuisine d’une grande finesse. Vaut l’étape !","link":"https://m.lafourchette.com/api/restaurant/42187/sale-type"}
{"id":"11295","name":"Qui Plume la Lune - Jacky Ribault","address":{"address_locality":"Paris","postal_code":"75011"},"stars":"1 étoile MICHELIN : une cuisine d’une grande finesse. Vaut l’étape !","link":"https://m.lafourchette.com/api/restaurant/11295/sale-type"}
{"id":"25901","name":"Hostellerie de l'Abbaye de la Celle","address":{"address_locality":"La Celle","postal_code":"83170"},"stars":"1 étoile MICHELIN : une cuisine d’une grande finesse. Vaut l’étape !","link":"https://m.lafourchette.com/api/restaurant/25901/sale-type"}
{"id":"1009","name":"Domaine des Séquoias","address":{"address_locality":"Ruy","postal_code":"38300"},"stars":"1 étoile MICHELIN : une cuisine d’une grande finesse. Vaut l’étape !","link":"https://m.lafourchette.com/api/restaurant/1009/sale-type"}
{"id":"8656","name":"Le Petit Pergolèse","address":{"address_locality":"Paris","postal_code":"75116"},"stars":"1 étoile MICHELIN : une cuisine d’une grande finesse. Vaut l’étape !","link":"https://m.lafourchette.com/api/restaurant/8656/sale-type"}
{"id":"3304","name":"Loiseau des Vignes","address":{"address_locality":"Beaune","postal_code":"21200"},"stars":"1 étoile MICHELIN : une cuisine d’une grande finesse. Vaut l’étape !","link":"https://m.lafourchette.com/api/restaurant/3304/sale-type"}
{"id":"1226","name":"Le Figuier de Saint-Esprit","address":{"address_locality":"Antibes","postal_code":"06600"},"stars":"1 étoile MICHELIN : une cuisine d’une grande finesse. Vaut l’étape !","link":"https://m.lafourchette.com/api/restaurant/1226/sale-type"}
{"id":"284489","name":"L'Archeste","address":{"address_locality":"Paris","postal_code":"75116"},"stars":"1 étoile MICHELIN : une cuisine d’une grande finesse. Vaut l’étape !","link":"https://m.lafourchette.com/api/restaurant/284489/sale-type"}
{"id":"13311","name":"Château de Mercuès","address":{"address_locality":"Mercuès","postal_code":"46090"},"stars":"1 étoile MICHELIN : une cuisine d’une grande finesse. Vaut l’étape !","link":"https://m.lafourchette.com/api/restaurant/13311/sale-type"}
{"id":"6437","name":"Atelier du Peintre","address":{"address_locality":"Colmar","postal_code":"68000"},"stars":"1 étoile MICHELIN : une cuisine d’une grande finesse. Vaut l’étape !","link":"https://m.lafourchette.com/api/restaurant/6437/sale-type"}
{"id":"61705","name":"Le Camelia","address":{"address_locality":"Bougival","postal_code":"78380"},"stars":"1 étoile MICHELIN : une cuisine d’une grande finesse. Vaut l’étape !","link":"https://m.lafourchette.com/api/restaurant/61705/sale-type"}
{"id":"21095","name":"Jérémy Galvan Restaurant","address":{"address_locality":"Lyon","postal_code":"69005"},"stars":"1 étoile MICHELIN : une cuisine d’une grande finesse. Vaut l’étape !","link":"https://m.lafourchette.com/api/restaurant/21095/sale-type"}
{"id":"60777","name":"1912","address":{"address_locality":"Trouville-sur-Mer","postal_code":"14360"},"stars":"1 étoile MICHELIN : une cuisine d’une grande finesse. Vaut l’étape !","link":"https://m.lafourchette.com/api/restaurant/60777/sale-type"}
{"id":"1310","name":"Le Phebus - Xavier Mathieu","address":{"address_locality":"Joucas","postal_code":"84220"},"stars":"1 étoile MICHELIN : une cuisine d’une grande finesse. Vaut l’étape !","link":"https://m.lafourchette.com/api/restaurant/1310/sale-type"}
{"id":"26352","name":"Le Moulin de l'Abbaye","address":{"address_locality":"Brantôme","postal_code":"24310"},"stars":"1 étoile MICHELIN : une cuisine d’une grande finesse. Vaut l’étape !","link":"https://m.lafourchette.com/api/restaurant/26352/sale-type"}
{"id":"7135","name":"Les Trois Rochers - La Villa Tri Men","address":{"address_locality":"Combrit","postal_code":"29120"},"stars":"1 étoile MICHELIN : une cuisine d’une grande finesse. Vaut l’étape !","link":"https://m.lafourchette.com/api/restaurant/7135/sale-type"}
{"id":"15802","name":"Cobéa - Philippe Bélissent","address":{"address_locality":"Paris","postal_code":"75014"},"stars":"1 étoile MICHELIN : une cuisine d’une grande finesse. Vaut l’étape !","link":"https://m.lafourchette.com/api/restaurant/15802/sale-type"}
{"id":"324473","name":"Le Faventia","address":{"address_locality":"Tourrettes","postal_code":"83440"},"stars":"1 étoile MICHELIN : une cuisine d’une grande finesse. Vaut l’étape !","link":"https://m.lafourchette.com/api/restaurant/324473/sale-type"}
{"id":"10889","name":"Septime","address":{"address_locality":"Paris","postal_code":"75011"},"stars":"1 étoile MICHELIN : une cuisine d’une grande finesse. Vaut l’étape !","link":"https://m.lafourchette.com/api/restaurant/10889/sale-type"}
{"id":"8838","name":"Henri et Joseph","address":{"address_locality":"Lorient","postal_code":"56100"},"stars":"1 étoile MICHELIN : une cuisine d’une grande finesse. Vaut l’étape !","link":"https://m.lafourchette.com/api/restaurant/8838/sale-type"}
{"id":"4697","name":"Les Terrasses de Lyon","address":{"address_locality":"Lyon","postal_code":"69005"},"stars":"1 étoile MICHELIN : une cuisine d’une grande finesse. Vaut l’étape !","link":"https://m.lafourchette.com/api/restaurant/4697/sale-type"}
{"id":"11743","name":"Briketenia","address":{"address_locality":"Guéthary","postal_code":"64210"},"stars":"1 étoile MICHELIN : une cuisine d’une grande finesse. Vaut l’étape !","link":"https://m.lafourchette.com/api/restaurant/11743/sale-type"}
{"id":"24272","name":"Saint James Paris","address":{"address_locality":"Paris","postal_code":"75116"},"stars":"1 étoile MICHELIN : une cuisine d’une grande finesse. Vaut l’étape !","link":"https://m.lafourchette.com/api/restaurant/24272/sale-type"}
{"id":"8760","name":"Saturne","address":{"address_locality":"Paris","postal_code":"75002"},"stars":"1 étoile MICHELIN : une cuisine d’une grande finesse. Vaut l’étape !","link":"https://m.lafourchette.com/api/restaurant/8760/sale-type"}
{"id":"6794","name":"La Mère Brazier - Mathieu Viannay","address":{"address_locality":"Lyon","postal_code":"69001"},"stars":"2 étoiles MICHELIN : une cuisine d’exception. Vaut le détour !","link":"https://m.lafourchette.com/api/restaurant/6794/sale-type"}
{"id":"2310","name":"Auberge du Cheval Blanc","address":{"address_locality":"Lembach","postal_code":"67510"},"stars":"2 étoiles MICHELIN : une cuisine d’exception. Vaut le détour !","link":"https://m.lafourchette.com/api/restaurant/2310/sale-type"}
{"id":"44919","name":"Miraflores","address":{"address_locality":"Lyon","postal_code":"69006"},"stars":"1 étoile MICHELIN : une cuisine d’une grande finesse. Vaut l’étape !","link":"https://m.lafourchette.com/api/restaurant/44919/sale-type"}
{"id":"289175","name":"La Petite Maison de Pierre","address":{"address_locality":"Bordeaux","postal_code":"33000"},"stars":"2 étoiles MICHELIN : une cuisine d’exception. Vaut le détour !","link":"https://m.lafourchette.com/api/restaurant/289175/sale-type"}
{"id":"214579","name":"L'Arcane","address":{"address_locality":"Paris","postal_code":"75018"},"stars":"1 étoile MICHELIN : une cuisine d’une grande finesse. Vaut l’étape !","link":"https://m.lafourchette.com/api/restaurant/214579/sale-type"}
{"id":"132","name":"Le Relais des Moines","address":{"address_locality":"Les Arcs","postal_code":"83460"},"stars":"1 étoile MICHELIN : une cuisine d’une grande finesse. Vaut l’étape !","link":"https://m.lafourchette.com/api/restaurant/132/sale-type"}
{"id":"204609","name":"Le Castellaras","address":{"address_locality":"Fayence","postal_code":"83440"},"stars":"1 étoile MICHELIN : une cuisine d’une grande finesse. Vaut l’étape !","link":"https://m.lafourchette.com/api/restaurant/204609/sale-type"}
{"id":"291345","name":"Le 114 Faubourg - Le Bristol Paris","address":{"address_locality":"Paris","postal_code":"75008"},"stars":"1 étoile MICHELIN : une cuisine d’une grande finesse. Vaut l’étape !","link":"https://m.lafourchette.com/api/restaurant/291345/sale-type"}
{"id":"60775","name":"La Table du Connétable","address":{"address_locality":"Chantilly","postal_code":"60500"},"stars":"1 étoile MICHELIN : une cuisine d’une grande finesse. Vaut l’étape !","link":"https://m.lafourchette.com/api/restaurant/60775/sale-type"}
{"id":"5603","name":"JY'S","address":{"address_locality":"Colmar","postal_code":"68000"},"stars":"2 étoiles MICHELIN : une cuisine d’exception. Vaut le détour !","link":"https://m.lafourchette.com/api/restaurant/5603/sale-type"}
{"id":"25985","name":"Copenhague","address":{"address_locality":"Paris","postal_code":"75008"},"stars":"1 étoile MICHELIN : une cuisine d’une grande finesse. Vaut l’étape !","link":"https://m.lafourchette.com/api/restaurant/25985/sale-type"}
{"id":"19211","name":"Le 1741","address":{"address_locality":"Strasbourg","postal_code":"67000"},"stars":"1 étoile MICHELIN : une cuisine d’une grande finesse. Vaut l’étape !","link":"https://m.lafourchette.com/api/restaurant/19211/sale-type"}
{"id":"3806","name":"L'Assiette Champenoise","address":{"address_locality":"Tinqueux","postal_code":"51430"},"stars":"3 étoiles MICHELIN : une cuisine unique. Vaut le voyage !","link":"https://m.lafourchette.com/api/restaurant/3806/sale-type"}
{"id":"58408","name":"La Table du 11","address":{"address_locality":"Versailles","postal_code":"78000"},"stars":"1 étoile MICHELIN : une cuisine d’une grande finesse. Vaut l’étape !","link":"https://m.lafourchette.com/api/restaurant/58408/sale-type"}
{"id":"2591","name":"La Table des Merville - Thierry Merville","address":{"address_locality":"Castanet-Tolosan","postal_code":"31320"},"stars":"1 étoile MICHELIN : une cuisine d’une grande finesse. Vaut l’étape !","link":"https://m.lafourchette.com/api/restaurant/2591/sale-type"}
{"id":"128","name":"Restaurant Hervé Busset","address":{"address_locality":"Conques","postal_code":"12320"},"stars":"1 étoile MICHELIN : une cuisine d’une grande finesse. Vaut l’étape !","link":"https://m.lafourchette.com/api/restaurant/128/sale-type"}
{"id":"71542","name":"Au Crocodile","address":{"address_locality":"Strasbourg","postal_code":"67000"},"stars":"1 étoile MICHELIN : une cuisine d’une grande finesse. Vaut l’étape !","link":"https://m.lafourchette.com/api/restaurant/71542/sale-type"}
{"id":"5623","name":"Le Corot - Hôtel Les Étangs de Corot","address":{"address_locality":"Ville-d'Avray","postal_code":"92410"},"stars":"1 étoile MICHELIN : une cuisine d’une grande finesse. Vaut l’étape !","link":"https://m.lafourchette.com/api/restaurant/5623/sale-type"}
{"id":"16982","name":"Château de Courban & Spa","address":{"address_locality":"Courban","postal_code":"21520"},"stars":"1 étoile MICHELIN : une cuisine d’une grande finesse. Vaut l’étape !","link":"https://m.lafourchette.com/api/restaurant/16982/sale-type"}
{"id":"6986","name":"Alexandre - Michel Kayser","address":{"address_locality":"Garons","postal_code":"30128"},"stars":"2 étoiles MICHELIN : une cuisine d’exception. Vaut le détour !","link":"https://m.lafourchette.com/api/restaurant/6986/sale-type"}
{"id":"38155","name":"Flaveur","address":{"address_locality":"Nice","postal_code":"06000"},"stars":"2 étoiles MICHELIN : une cuisine d’exception. Vaut le détour !","link":"https://m.lafourchette.com/api/restaurant/38155/sale-type"}
{"id":"46990","name":"RACKHAM","address":{"address_locality":"Roscoff","postal_code":"29680"},"stars":"1 étoile MICHELIN : une cuisine d’une grande finesse. Vaut l’étape !","link":"https://m.lafourchette.com/api/restaurant/46990/sale-type"}
{"id":"14529","name":"La Chassagnette","address":{"address_locality":"Arles","postal_code":"13200"},"stars":"1 étoile MICHELIN : une cuisine d’une grande finesse. Vaut l’étape !","link":"https://m.lafourchette.com/api/restaurant/14529/sale-type"}
{"id":"36448","name":"Penati Al Baretto - Alberico Penati","address":{"address_locality":"Paris","postal_code":"75008"},"stars":"1 étoile MICHELIN : une cuisine d’une grande finesse. Vaut l’étape !","link":"https://m.lafourchette.com/api/restaurant/36448/sale-type"}
{"id":"32118","name":"Le Musigny","address":{"address_locality":"Valenciennes","postal_code":"59300"},"stars":"1 étoile MICHELIN : une cuisine d’une grande finesse. Vaut l’étape !","link":"https://m.lafourchette.com/api/restaurant/32118/sale-type"}
{"id":"36884","name":"La Table d'Eugène","address":{"address_locality":"Paris","postal_code":"75018"},"stars":"1 étoile MICHELIN : une cuisine d’une grande finesse. Vaut l’étape !","link":"https://m.lafourchette.com/api/restaurant/36884/sale-type"}
{"id":"28453","name":"Le 1217","address":{"address_locality":"Bagnols","postal_code":"69620"},"stars":"1 étoile MICHELIN : une cuisine d’une grande finesse. Vaut l’étape !","link":"https://m.lafourchette.com/api/restaurant/28453/sale-type"}
{"id":"3401","name":"Le Bec Au Cauchois Restaurant Pierre Caillet","address":{"address_locality":"Valmont","postal_code":"76540"},"stars":"1 étoile MICHELIN : une cuisine d’une grande finesse. Vaut l’étape !","link":"https://m.lafourchette.com/api/restaurant/3401/sale-type"}
{"id":"3552","name":"Maison Lameloise","address":{"address_locality":"Chagny","postal_code":"71150"},"stars":"3 étoiles MICHELIN : une cuisine unique. Vaut le voyage !","link":"https://m.lafourchette.com/api/restaurant/3552/sale-type"}
{"id":"26327","name":"Elsa - Hôtel Monte-Carlo Beach","address":{"address_locality":"Roquebrune-Cap-Martin","postal_code":"06190"},"stars":"1 étoile MICHELIN : une cuisine d’une grande finesse. Vaut l’étape !","link":"https://m.lafourchette.com/api/restaurant/26327/sale-type"}
{"id":"35732","name":"Hôtel - Restaurant Anne De Bretagne","address":{"address_locality":"La Plaine-sur-Mer","postal_code":"44770"},"stars":"2 étoiles MICHELIN : une cuisine d’exception. Vaut le détour !","link":"https://m.lafourchette.com/api/restaurant/35732/sale-type"}
{"id":"3131","name":"Gordon Ramsay au Trianon","address":{"address_locality":"Versailles","postal_code":"78000"},"stars":"1 étoile MICHELIN : une cuisine d’une grande finesse. Vaut l’étape !","link":"https://m.lafourchette.com/api/restaurant/3131/sale-type"}
{"id":"3018","name":"Domaine d'Auriac","address":{"address_locality":"Carcassonne","postal_code":"11000"},"stars":"1 étoile MICHELIN : une cuisine d’une grande finesse. Vaut l’étape !","link":"https://m.lafourchette.com/api/restaurant/3018/sale-type"}
{"id":"2876","name":"Le Relais de la Poste","address":{"address_locality":"La Wantzenau","postal_code":"67610"},"stars":"1 étoile MICHELIN : une cuisine d’une grande finesse. Vaut l’étape !","link":"https://m.lafourchette.com/api/restaurant/2876/sale-type"}
{"id":"38024","name":"La Nouvelle Auberge","address":{"address_locality":"Wihr-au-Val","postal_code":"68230"},"stars":"1 étoile MICHELIN : une cuisine d’une grande finesse. Vaut l’étape !","link":"https://m.lafourchette.com/api/restaurant/38024/sale-type"}
{"id":"5632","name":"La Licorne Royale","address":{"address_locality":"Lyons-la-Forêt","postal_code":"27480"},"stars":"1 étoile MICHELIN : une cuisine d’une grande finesse. Vaut l’étape !","link":"https://m.lafourchette.com/api/restaurant/5632/sale-type"}
{"id":"24998","name":"Le Restaurant Des Rois","address":{"address_locality":"Beaulieu-sur-Mer","postal_code":"06310"},"stars":"1 étoile MICHELIN : une cuisine d’une grande finesse. Vaut l’étape !","link":"https://m.lafourchette.com/api/restaurant/24998/sale-type"}
{"id":"275457","name":"Emporio Armani Ristorante","address":{"address_locality":"Paris","postal_code":"75006"},"stars":"1 étoile MICHELIN : une cuisine d’une grande finesse. Vaut l’étape !","link":"https://m.lafourchette.com/api/restaurant/275457/sale-type"}
{"id":"44361","name":"Auberge au Boeuf","address":{"address_locality":"Sessenheim","postal_code":"67770"},"stars":"1 étoile MICHELIN : une cuisine d’une grande finesse. Vaut l’étape !","link":"https://m.lafourchette.com/api/restaurant/44361/sale-type"}
{"id":"323145","name":"Le Passe Temps","address":{"address_locality":"Lyon","postal_code":"69006"},"stars":"1 étoile MICHELIN : une cuisine d’une grande finesse. Vaut l’étape !","link":"https://m.lafourchette.com/api/restaurant/323145/sale-type"}
{"id":"79692","name":"ASSA","address":{"address_locality":"Blois","postal_code":"41000"},"stars":"1 étoile MICHELIN : une cuisine d’une grande finesse. Vaut l’étape !","link":"https://m.lafourchette.com/api/restaurant/79692/sale-type"}
{"id":"291337","name":"Epicure - Le Bristol Paris","address":{"address_locality":"Paris","postal_code":"75008"},"stars":"3 étoiles MICHELIN : une cuisine unique. Vaut le voyage !","link":"https://m.lafourchette.com/api/restaurant/291337/sale-type"}
{"id":"60859","name":"Nakatani","address":{"address_locality":"Paris","postal_code":"75007"},"stars":"1 étoile MICHELIN : une cuisine d’une grande finesse. Vaut l’étape !","link":"https://m.lafourchette.com/api/restaurant/60859/sale-type"}
{"id":"23454","name":"Helen","address":{"address_locality":"Paris","postal_code":"75008"},"stars":"1 étoile MICHELIN : une cuisine d’une grande finesse. Vaut l’étape !","link":"https://m.lafourchette.com/api/restaurant/23454/sale-type"}
{"id":"689","name":"Le Prieuré","address":{"address_locality":"Villeneuve-lès-Avignon","postal_code":"30400"},"stars":"1 étoile MICHELIN : une cuisine d’une grande finesse. Vaut l’étape !","link":"https://m.lafourchette.com/api/restaurant/689/sale-type"}
{"id":"60418","name":"Apicius","address":{"address_locality":"Paris","postal_code":"75008"},"stars":"1 étoile MICHELIN : une cuisine d’une grande finesse. Vaut l’étape !","link":"https://m.lafourchette.com/api/restaurant/60418/sale-type"}
{"id":"5109","name":"Le Magasin aux Vivres","address":{"address_locality":"Metz","postal_code":"57000"},"stars":"1 étoile MICHELIN : une cuisine d’une grande finesse. Vaut l’étape !","link":"https://m.lafourchette.com/api/restaurant/5109/sale-type"}
{"id":"330375","name":"Le Village","address":{"address_locality":"Marly-le-Roi","postal_code":"78160"},"stars":"1 étoile MICHELIN : une cuisine d’une grande finesse. Vaut l’étape !","link":"https://m.lafourchette.com/api/restaurant/330375/sale-type"}
{"id":"27058","name":"Initial","address":{"address_locality":"Caen","postal_code":"14000"},"stars":"1 étoile MICHELIN : une cuisine d’une grande finesse. Vaut l’étape !","link":"https://m.lafourchette.com/api/restaurant/27058/sale-type"}
{"id":"7876","name":"Mon Plaisir","address":{"address_locality":"Chamesol","postal_code":"25190"},"stars":"1 étoile MICHELIN : une cuisine d’une grande finesse. Vaut l’étape !","link":"https://m.lafourchette.com/api/restaurant/7876/sale-type"}
{"id":"68308","name":"Restaurant Thierry Drapeau","address":{"address_locality":"Saint-Sulpice-le-Verdon","postal_code":"85260"},"stars":"2 étoiles MICHELIN : une cuisine d’exception. Vaut le détour !","link":"https://m.lafourchette.com/api/restaurant/68308/sale-type"}
{"id":"8976","name":"L'Abeille - Shangri-La Hotel, Paris","address":{"address_locality":"Paris","postal_code":"75016"},"stars":"2 étoiles MICHELIN : une cuisine d’exception. Vaut le détour !","link":"https://m.lafourchette.com/api/restaurant/8976/sale-type"}
