{"name":"Les Terrasses de Lyon","stars":"1 étoile MICHELIN : une cuisine d’une grande finesse. Vaut l’étape !","address":{"thoroughfare":"25, montée Saint BArthelémy","postalcode":"69005","locality":"Lyon 05"}}
{"name":"Hostellerie de Plaisance","stars":"2 étoiles MICHELIN : une cuisine d’exception. Vaut le détour !","address":{"thoroughfare":"5 place du Clocher","postalcode":"33330","locality":"Saint-Emilion"}}
{"name":"La Table de Nans","stars":"1 étoile MICHELIN : une cuisine d’une grande finesse. Vaut l’étape !","address":{"thoroughfare":"corniche du Liouquet","postalcode":"13600","locality":"La Ciotat"}}
{"name":"Alcyone","stars":"1 étoile MICHELIN : une cuisine d’une grande finesse. Vaut l’étape !","address":{"thoroughfare":"1 Place Daviel","postalcode":"13002","locality":"MARSEILLE"}}
{"name":"Le Lido","stars":"1 étoile MICHELIN : une cuisine d’une grande finesse. Vaut l’étape !","address":{"thoroughfare":"42 av. Napoléon-III","postalcode":"20110","locality":"Propriano"}}
{"name":"La Nouvelle Auberge","stars":"1 étoile MICHELIN : une cuisine d’une grande finesse. Vaut l’étape !","address":{"thoroughfare":"9 route Nationale","postalcode":"68230","locality":"Wihr-au-Val"}}
{"name":"L'Escarbille","stars":"1 étoile MICHELIN : une cuisine d’une grande finesse. Vaut l’étape !","address":{"thoroughfare":"8 Rue de Vélizy","postalcode":"92190","locality":"Meudon"}}
{"name":"Les Loges","stars":"1 étoile MICHELIN : une cuisine d’une grande finesse. Vaut l’étape !","address":{"thoroughfare":"6 r. du Boeuf","postalcode":"69005","locality":"Lyon 05"}}
{"name":"Château d'Adoménil","stars":"1 étoile MICHELIN : une cuisine d’une grande finesse. Vaut l’étape !","address":{"thoroughfare":"","postalcode":"54300","locality":"Lunéville"}}
{"name":"Le Strasbourg","stars":"1 étoile MICHELIN : une cuisine d’une grande finesse. Vaut l’étape !","address":{"thoroughfare":"24 r. du Col. -Teyssier","postalcode":"57230","locality":"Bitche"}}
{"name":"Skab","stars":"1 étoile MICHELIN : une cuisine d’une grande finesse. Vaut l’étape !","address":{"thoroughfare":"7 Rue de la République","postalcode":"30000","locality":"nimes"}}
{"name":"La Table du Gourmet","stars":"1 étoile MICHELIN : une cuisine d’une grande finesse. Vaut l’étape !","address":{"thoroughfare":"5 rue 1ère Armée","postalcode":"68340","locality":"Riquewihr"}}
{"name":"114, Faubourg","stars":"1 étoile MICHELIN : une cuisine d’une grande finesse. Vaut l’étape !","address":{"thoroughfare":"114 r. Fg St-Honoré","postalcode":"75008","locality":"Paris 08"}}
{"name":"Le Gourmet de Sèze","stars":"1 étoile MICHELIN : une cuisine d’une grande finesse. Vaut l’étape !","address":{"thoroughfare":"125 Rue de Sèze","postalcode":"69006","locality":"Lyon"}}
{"name":"Le Saint-Martin","stars":"1 étoile MICHELIN : une cuisine d’une grande finesse. Vaut l’étape !","address":{"thoroughfare":"Avenue des Templiers","postalcode":"06140","locality":"Vence"}}
{"name":"Au Crocodile","stars":"1 étoile MICHELIN : une cuisine d’une grande finesse. Vaut l’étape !","address":{"thoroughfare":"10 rue de L'Outre","postalcode":"67000","locality":"STRASBOURG"}}
{"name":"La Côte Saint-Jacques","stars":"2 étoiles MICHELIN : une cuisine d’exception. Vaut le détour !","address":{"thoroughfare":"14 faubourg de Paris","postalcode":"89300","locality":"Joigny"}}
{"name":"Le Parc Les Crayères","stars":"2 étoiles MICHELIN : une cuisine d’exception. Vaut le détour !","address":{"thoroughfare":"64 Boulevard Henry Vasnier","postalcode":"51100","locality":"Reims"}}
{"name":"Maximilien","stars":"1 étoile MICHELIN : une cuisine d’une grande finesse. Vaut l’étape !","address":{"thoroughfare":"19a rte Ostheim","postalcode":"68340","locality":"Zellenberg"}}
{"name":"La Chèvre d'Or","stars":"2 étoiles MICHELIN : une cuisine d’exception. Vaut le détour !","address":{"thoroughfare":"r. du Barri","postalcode":"06360","locality":"Èze"}}
{"name":"Radio","stars":"1 étoile MICHELIN : une cuisine d’une grande finesse. Vaut l’étape !","address":{"thoroughfare":"43 av. P. et M.-Curie","postalcode":"63400","locality":"Chamalières"}}
{"name":"Domaine des Hauts de Loire","stars":"2 étoiles MICHELIN : une cuisine d’exception. Vaut le détour !","address":{"thoroughfare":"79 rue Gilbert Navard","postalcode":"41150","locality":"Onzain"}}
{"name":"Jin","stars":"1 étoile MICHELIN : une cuisine d’une grande finesse. Vaut l’étape !","address":{"thoroughfare":"6 Rue de la Sourdière","postalcode":"75001","locality":"Paris"}}
{"name":"Guy Savoy","stars":"3 étoiles MICHELIN : une cuisine unique. Vaut le voyage !","address":{"thoroughfare":"Monnaie de Paris11 Quai de Conti","postalcode":"75006","locality":"Paris"}}
{"name":"Le Haut-Allier","stars":"1 étoile MICHELIN : une cuisine d’une grande finesse. Vaut l’étape !","address":{"thoroughfare":"LE PONT D ALLEYRAS","postalcode":"43580","locality":"Alleyras"}}
{"name":"L'Amaryllis","stars":"1 étoile MICHELIN : une cuisine d’une grande finesse. Vaut l’étape !","address":{"thoroughfare":"chemin de Martorey","postalcode":"71100","locality":"Saint-Rémy"}}
{"name":"Le Castellaras","stars":"1 étoile MICHELIN : une cuisine d’une grande finesse. Vaut l’étape !","address":{"thoroughfare":"461 chemin Peymeyan","postalcode":"83440","locality":"Fayence"}}
{"name":"Hostellerie Jérôme","stars":"2 étoiles MICHELIN : une cuisine d’exception. Vaut le détour !","address":{"thoroughfare":"20 r. Comte de Cessole","postalcode":"06320","locality":"La Turbie"}}
{"name":"L'Arcane","stars":"1 étoile MICHELIN : une cuisine d’une grande finesse. Vaut l’étape !","address":{"thoroughfare":"39 Rue Lamarck","postalcode":"75018","locality":"Paris"}}
{"name":"Ed.Em","stars":"1 étoile MICHELIN : une cuisine d’une grande finesse. Vaut l’étape !","address":{"thoroughfare":"4 imp. Chenevottes","postalcode":"21190","locality":"Chassagne-Montrachet"}}
{"name":"L'Épuisette","stars":"1 étoile MICHELIN : une cuisine d’une grande finesse. Vaut l’étape !","address":{"thoroughfare":"158 Vallon-des-Auffes","postalcode":"13007","locality":"Marseille"}}
{"name":"Flocons de Sel","stars":"3 étoiles MICHELIN : une cuisine unique. Vaut le voyage !","address":{"thoroughfare":"1775 rte du Leutaz","postalcode":"74120","locality":"Megève"}}
{"name":"Quinsou","stars":"1 étoile MICHELIN : une cuisine d’une grande finesse. Vaut l’étape !","address":{"thoroughfare":"33 r. de l'Abbé-Grégoire","postalcode":"75006","locality":"Paris"}}
{"name":"L'Atelier de Gaztelur","stars":"1 étoile MICHELIN : une cuisine d’une grande finesse. Vaut l’étape !","address":{"thoroughfare":"Chemin de Gastelhur","postalcode":"64200","locality":"Arcangues"}}
{"name":"La Bastide St-Antoine","stars":"1 étoile MICHELIN : une cuisine d’une grande finesse. Vaut l’étape !","address":{"thoroughfare":"48 av. Henri-Dunant","postalcode":"06130","locality":"Grasse"}}
{"name":"La Lorraine","stars":"1 étoile MICHELIN : une cuisine d’une grande finesse. Vaut l’étape !","address":{"thoroughfare":"80 rue Principale","postalcode":"57330","locality":"Zoufftgen"}}
{"name":"Le Georges","stars":"1 étoile MICHELIN : une cuisine d’une grande finesse. Vaut l’étape !","address":{"thoroughfare":"22 pl. des Épars","postalcode":"28000","locality":"CHARTRES"}}
{"name":"Lucas Carton","stars":"1 étoile MICHELIN : une cuisine d’une grande finesse. Vaut l’étape !","address":{"thoroughfare":"9 pl. de la Madeleine","postalcode":"75008","locality":"Paris 08"}}
{"name":"Auberge Frankenbourg","stars":"1 étoile MICHELIN : une cuisine d’une grande finesse. Vaut l’étape !","address":{"thoroughfare":"13 r. Gén. de Gaulle","postalcode":"67730","locality":"La Vancelle"}}
{"name":"Le Carré d'Alethius","stars":"1 étoile MICHELIN : une cuisine d’une grande finesse. Vaut l’étape !","address":{"thoroughfare":"4 r. Paul-Bertois","postalcode":"07800","locality":"Charmes-sur-Rhône"}}
{"name":"Auberge à la Bonne Idée","stars":"1 étoile MICHELIN : une cuisine d’une grande finesse. Vaut l’étape !","address":{"thoroughfare":"3 rue des Meuniers","postalcode":"60350","locality":"SAINT-JEAN-AUX-BOIS"}}
{"name":"Maison Rostang","stars":"2 étoiles MICHELIN : une cuisine d’exception. Vaut le détour !","address":{"thoroughfare":"20 rue Rennequin","postalcode":"75017","locality":"Paris"}}
{"name":"Cobéa","stars":"1 étoile MICHELIN : une cuisine d’une grande finesse. Vaut l’étape !","address":{"thoroughfare":"11 r. Raymond Losserand","postalcode":"75014","locality":"Paris 14"}}
{"name":"Antoine","stars":"1 étoile MICHELIN : une cuisine d’une grande finesse. Vaut l’étape !","address":{"thoroughfare":"10 av. de New-York","postalcode":"75116","locality":"Paris 16"}}
{"name":"La Table de l'Alpaga","stars":"1 étoile MICHELIN : une cuisine d’une grande finesse. Vaut l’étape !","address":{"thoroughfare":"66 Allée des Marmousets","postalcode":"74120","locality":"Megève"}}
{"name":"Auberge du Pont d'Acigné","stars":"1 étoile MICHELIN : une cuisine d’une grande finesse. Vaut l’étape !","address":{"thoroughfare":"D392","postalcode":"35530","locality":"Noyal-sur-Vilaine"}}
{"name":"Le Bistro des Saveurs","stars":"1 étoile MICHELIN : une cuisine d’une grande finesse. Vaut l’étape !","address":{"thoroughfare":"35 Rue de Sélestat","postalcode":"67210","locality":"Obernai"}}
{"name":"La Marine","stars":"2 étoiles MICHELIN : une cuisine d’exception. Vaut le détour !","address":{"thoroughfare":"3 r. Marie-Lemonnier","postalcode":"85330","locality":"L'Herbaudière"}}
{"name":"Auberge de la Charme","stars":"1 étoile MICHELIN : une cuisine d’une grande finesse. Vaut l’étape !","address":{"thoroughfare":"12 r. de la Charme","postalcode":"21370","locality":"Prenois"}}
{"name":"Georges Blanc","stars":"3 étoiles MICHELIN : une cuisine unique. Vaut le voyage !","address":{"thoroughfare":"pl. du Marché","postalcode":"01540","locality":"Vonnas"}}
{"name":"Maison Decoret","stars":"1 étoile MICHELIN : une cuisine d’une grande finesse. Vaut l’étape !","address":{"thoroughfare":"15 rue du Parc","postalcode":"03200","locality":"Vichy"}}
{"name":"Auberge de la Tour","stars":"1 étoile MICHELIN : une cuisine d’une grande finesse. Vaut l’étape !","address":{"thoroughfare":"Place de la Fontaine","postalcode":"15220","locality":"MARCOLES"}}
{"name":"Lasserre","stars":"1 étoile MICHELIN : une cuisine d’une grande finesse. Vaut l’étape !","address":{"thoroughfare":"17 Avenue F. -D. -Roosevelt","postalcode":"75008","locality":"Paris 08"}}
{"name":"La Passagère","stars":"1 étoile MICHELIN : une cuisine d’une grande finesse. Vaut l’étape !","address":{"thoroughfare":"33 boulevard E. -Baudoin","postalcode":"06160","locality":"Juan-les-Pins"}}
{"name":"L'Arnsbourg","stars":"1 étoile MICHELIN : une cuisine d’une grande finesse. Vaut l’étape !","address":{"thoroughfare":"Untermuhlthal","postalcode":"57230","locality":"Baerenthal"}}
{"name":"Aux Anges","stars":"1 étoile MICHELIN : une cuisine d’une grande finesse. Vaut l’étape !","address":{"thoroughfare":"6 Place Georges Clemenceau","postalcode":"42300","locality":"Roanne"}}
{"name":"Kei","stars":"2 étoiles MICHELIN : une cuisine d’exception. Vaut le détour !","address":{"thoroughfare":"5 rue du Coq-Héron","postalcode":"75001","locality":"Paris 01"}}
{"name":"Le Pressoir d'Argent - Gordon Ramsay","stars":"2 étoiles MICHELIN : une cuisine d’exception. Vaut le détour !","address":{"thoroughfare":"2,5 Place de la Comédie","postalcode":"33000","locality":"Bordeaux"}}
{"name":"Les Terrasses d'Uriage","stars":"2 étoiles MICHELIN : une cuisine d’exception. Vaut le détour !","address":{"thoroughfare":"pl. Déesse-Hygie","postalcode":"38410","locality":"Uriage-les-Bains"}}
{"name":"Les Trois Soleils de Montal","stars":"1 étoile MICHELIN : une cuisine d’une grande finesse. Vaut l’étape !","address":{"thoroughfare":"St-Jean-Lespinasse","postalcode":"46400","locality":"Saint-Céré"}}
{"name":"Alain Ducasse au Plaza Athénée","stars":"3 étoiles MICHELIN : une cuisine unique. Vaut le voyage !","address":{"thoroughfare":"25 avenue Montaigne","postalcode":"75008","locality":"Paris"}}
{"name":"Takao Takano","stars":"2 étoiles MICHELIN : une cuisine d’exception. Vaut le détour !","address":{"thoroughfare":"33 Rue Malesherbes","postalcode":"69006","locality":"Lyon 06"}}
{"name":"Casadelmar","stars":"2 étoiles MICHELIN : une cuisine d’exception. Vaut le détour !","address":{"thoroughfare":"Route de la Plage de Palombaggia","postalcode":"20137","locality":"Porto-Vecchio"}}
{"name":"I Salti","stars":"1 étoile MICHELIN : une cuisine d’une grande finesse. Vaut l’étape !","address":{"thoroughfare":"route du Reginu","postalcode":"20226","locality":"Belgodère"}}
{"name":"Stéphane Carbone","stars":"1 étoile MICHELIN : une cuisine d’une grande finesse. Vaut l’étape !","address":{"thoroughfare":"14 r. de Courtonne","postalcode":"14000","locality":"Caen"}}
{"name":"La Maison des Bois - Marc Veyrat","stars":"3 étoiles MICHELIN : une cuisine unique. Vaut le voyage !","address":{"thoroughfare":"Chemin Rural de Manigod au Col de la Croix Fry","postalcode":"74230","locality":"Manigod"}}
{"name":"Le Beaulieu","stars":"1 étoile MICHELIN : une cuisine d’une grande finesse. Vaut l’étape !","address":{"thoroughfare":"34 Bis Place République","postalcode":"72000","locality":"Le Mans"}}
{"name":"Flaveurs","stars":"1 étoile MICHELIN : une cuisine d’une grande finesse. Vaut l’étape !","address":{"thoroughfare":"32 Grande-Rue","postalcode":"26000","locality":"Valence"}}
{"name":"Dan B. - La Table de Ventabren","stars":"1 étoile MICHELIN : une cuisine d’une grande finesse. Vaut l’étape !","address":{"thoroughfare":"r. F. -Mistral","postalcode":"13122","locality":"Ventabren"}}
{"name":"L'Esquisse","stars":"1 étoile MICHELIN : une cuisine d’une grande finesse. Vaut l’étape !","address":{"thoroughfare":"21 rue Royale","postalcode":"74000","locality":"Annecy"}}
{"name":"Aida","stars":"1 étoile MICHELIN : une cuisine d’une grande finesse. Vaut l’étape !","address":{"thoroughfare":"1 r. Pierre Leroux","postalcode":"75007","locality":"Paris 07"}}
{"name":"L'Axel","stars":"1 étoile MICHELIN : une cuisine d’une grande finesse. Vaut l’étape !","address":{"thoroughfare":"43 r. de France","postalcode":"77300","locality":"Fontainebleau"}}
{"name":"Auberge La Fenière","stars":"1 étoile MICHELIN : une cuisine d’une grande finesse. Vaut l’étape !","address":{"thoroughfare":"D943","postalcode":"84160","locality":"Cadenet"}}
{"name":"Maison Jeunet","stars":"2 étoiles MICHELIN : une cuisine d’exception. Vaut le détour !","address":{"thoroughfare":"9 r. de l'Hôtel-de-Ville","postalcode":"39600","locality":"Arbois"}}
{"name":"Une Île","stars":"1 étoile MICHELIN : une cuisine d’une grande finesse. Vaut l’étape !","address":{"thoroughfare":"9 r. Max-Richard","postalcode":"49000","locality":"Angers"}}
{"name":"L'Étang du Moulin","stars":"1 étoile MICHELIN : une cuisine d’une grande finesse. Vaut l’étape !","address":{"thoroughfare":"5 chemin de l'Etang du Moulin","postalcode":"25210","locality":"Bonnétage"}}
{"name":"Christopher Coutanceau","stars":"2 étoiles MICHELIN : une cuisine d’exception. Vaut le détour !","address":{"thoroughfare":"Promenade de la Concurrence","postalcode":"17000","locality":"La Rochelle"}}
{"name":"La Table du Connétable","stars":"1 étoile MICHELIN : une cuisine d’une grande finesse. Vaut l’étape !","address":{"thoroughfare":"4 Rue du Connétable","postalcode":"60500","locality":"Chantilly"}}
{"name":"Les Trois Rochers","stars":"1 étoile MICHELIN : une cuisine d’une grande finesse. Vaut l’étape !","address":{"thoroughfare":"16 rue du Phare","postalcode":"29120","locality":"Sainte-Marine"}}
{"name":"Pierre","stars":"1 étoile MICHELIN : une cuisine d’une grande finesse. Vaut l’étape !","address":{"thoroughfare":"7-9 rue Joseph Dufour","postalcode":"71000","locality":"Mâcon"}}
{"name":"Rackham","stars":"1 étoile MICHELIN : une cuisine d’une grande finesse. Vaut l’étape !","address":{"thoroughfare":"27 pl. Lacaze Duthiers rčs de l'église","postalcode":"29680","locality":"ROSCOFF"}}
{"name":"La Table Breizh Café","stars":"1 étoile MICHELIN : une cuisine d’une grande finesse. Vaut l’étape !","address":{"thoroughfare":"7 quai Thomas","postalcode":"35260","locality":"Cancale"}}
{"name":"Relais Louis XIII","stars":"1 étoile MICHELIN : une cuisine d’une grande finesse. Vaut l’étape !","address":{"thoroughfare":"8 Rue des Grands Augustins","postalcode":"75006","locality":"Paris"}}
{"name":"Le Musigny","stars":"1 étoile MICHELIN : une cuisine d’une grande finesse. Vaut l’étape !","address":{"thoroughfare":"90 Avenue de Liege","postalcode":"59300","locality":"Valenciennes"}}
{"name":"Le Bec au Cauchois","stars":"1 étoile MICHELIN : une cuisine d’une grande finesse. Vaut l’étape !","address":{"thoroughfare":"22 Rue André Fiquet","postalcode":"76540","locality":"Valmont"}}
{"name":"La Grignotière","stars":"1 étoile MICHELIN : une cuisine d’une grande finesse. Vaut l’étape !","address":{"thoroughfare":"6 Rue Jean Jaures","postalcode":"59590","locality":"Raismes"}}
{"name":"L'Arôme","stars":"1 étoile MICHELIN : une cuisine d’une grande finesse. Vaut l’étape !","address":{"thoroughfare":"3 rue St-Philippe-du-Roule","postalcode":"75008","locality":"Paris 08"}}
{"name":"La Vague d'Or","stars":"3 étoiles MICHELIN : une cuisine unique. Vaut le voyage !","address":{"thoroughfare":"Plage de Bouillabaisse","postalcode":"83990","locality":"Saint-Tropez"}}
{"name":"La Cachette","stars":"1 étoile MICHELIN : une cuisine d’une grande finesse. Vaut l’étape !","address":{"thoroughfare":"Rue des Cévennes","postalcode":"26000","locality":"Valence"}}
{"name":"La Matelote","stars":"1 étoile MICHELIN : une cuisine d’une grande finesse. Vaut l’étape !","address":{"thoroughfare":"80 Boulevard Ste Beuve","postalcode":"62200","locality":"BOULOGNE-SUR-MER"}}
{"name":"Le Prieuré","stars":"1 étoile MICHELIN : une cuisine d’une grande finesse. Vaut l’étape !","address":{"thoroughfare":"7, place du Chapitre","postalcode":"30400","locality":"Villeneuve-lès-Avignon"}}
{"name":"L'Atelier du Peintre","stars":"1 étoile MICHELIN : une cuisine d’une grande finesse. Vaut l’étape !","address":{"thoroughfare":"1 Rue Schongauer","postalcode":"68000","locality":"Colmar"}}
{"name":"Le Clair de la Plume","stars":"1 étoile MICHELIN : une cuisine d’une grande finesse. Vaut l’étape !","address":{"thoroughfare":"2 Place du Mail","postalcode":"26230","locality":"Grignan"}}
{"name":"La Table","stars":"1 étoile MICHELIN : une cuisine d’une grande finesse. Vaut l’étape !","address":{"thoroughfare":"32 Rue de la Barre","postalcode":"59000","locality":"Lille"}}
{"name":"Le Kléber","stars":"1 étoile MICHELIN : une cuisine d’une grande finesse. Vaut l’étape !","address":{"thoroughfare":"6 r. A. -Dumont","postalcode":"26400","locality":"Crest"}}
{"name":"Le France","stars":"1 étoile MICHELIN : une cuisine d’une grande finesse. Vaut l’étape !","address":{"thoroughfare":"8 place Cupillard","postalcode":"25130","locality":"VILLERS-LE-LAC"}}
{"name":"Stéphane Tournié - Les Jardins de l'Opéra","stars":"1 étoile MICHELIN : une cuisine d’une grande finesse. Vaut l’étape !","address":{"thoroughfare":"1 place du Capitole","postalcode":"31000","locality":"Toulouse"}}
{"name":"Chez Michèle","stars":"1 étoile MICHELIN : une cuisine d’une grande finesse. Vaut l’étape !","address":{"thoroughfare":"57 rue Principale","postalcode":"57810","locality":"Languimberg"}}
{"name":"Meurin","stars":"2 étoiles MICHELIN : une cuisine d’exception. Vaut le détour !","address":{"thoroughfare":"Rue de Lillers","postalcode":"62350","locality":"Busnes"}}
{"name":"La Bonne Étape","stars":"1 étoile MICHELIN : une cuisine d’une grande finesse. Vaut l’étape !","address":{"thoroughfare":"chemin du lac","postalcode":"04160","locality":"Château-Arnoux"}}
{"name":"Le Cerisier","stars":"1 étoile MICHELIN : une cuisine d’une grande finesse. Vaut l’étape !","address":{"thoroughfare":"3 rue de la Gare","postalcode":"62840","locality":"LAVENTIE"}}
{"name":"L'Auberge Basque","stars":"1 étoile MICHELIN : une cuisine d’une grande finesse. Vaut l’étape !","address":{"thoroughfare":"quartier Helbarron","postalcode":"64310","locality":"Saint-Pée-sur-Nivelle"}}
{"name":"Le Pavillon des Boulevards","stars":"1 étoile MICHELIN : une cuisine d’une grande finesse. Vaut l’étape !","address":{"thoroughfare":"120 r. Croix-de-Seguey","postalcode":"33000","locality":"Bordeaux"}}
{"name":"Château de Courban","stars":"1 étoile MICHELIN : une cuisine d’une grande finesse. Vaut l’étape !","address":{"thoroughfare":"7 rue du Lavoir","postalcode":"21520","locality":"Courban"}}
{"name":"Restaurant du Château","stars":"1 étoile MICHELIN : une cuisine d’une grande finesse. Vaut l’étape !","address":{"thoroughfare":"15 avenue des Reynats","postalcode":"24650","locality":"Chancelade"}}
{"name":"Pierre Gagnaire","stars":"3 étoiles MICHELIN : une cuisine unique. Vaut le voyage !","address":{"thoroughfare":"6 Rue Balzac","postalcode":"75008","locality":"Paris 08"}}
{"name":"Dyades au Domaine des Étangs","stars":"1 étoile MICHELIN : une cuisine d’une grande finesse. Vaut l’étape !","address":{"thoroughfare":"Les Etangs","postalcode":"16310","locality":"MASSIGNAC"}}
{"name":"L'Aparté","stars":"1 étoile MICHELIN : une cuisine d’une grande finesse. Vaut l’étape !","address":{"thoroughfare":"21 Rue de l’Europe","postalcode":"31850","locality":"MONTRABE"}}
{"name":"Alain Llorca","stars":"1 étoile MICHELIN : une cuisine d’une grande finesse. Vaut l’étape !","address":{"thoroughfare":"350 Route de Saint-Paul","postalcode":"06480","locality":"La Colle-sur-Loup"}}
{"name":"William Frachot","stars":"2 étoiles MICHELIN : une cuisine d’exception. Vaut le détour !","address":{"thoroughfare":"5 rue Michelet","postalcode":"21000","locality":"DIJON"}}
{"name":"Loiseau rive Gauche","stars":"1 étoile MICHELIN : une cuisine d’une grande finesse. Vaut l’étape !","address":{"thoroughfare":"5 rue de Bourgogne","postalcode":"75007","locality":"Paris 07"}}
{"name":"Entre Vigne et Garrigue","stars":"1 étoile MICHELIN : une cuisine d’une grande finesse. Vaut l’étape !","address":{"thoroughfare":"600 route de Saint Bruno","postalcode":"30131","locality":"Pujaut"}}
{"name":"La Chaumière","stars":"1 étoile MICHELIN : une cuisine d’une grande finesse. Vaut l’étape !","address":{"thoroughfare":"346 av. du Mar. -Juin","postalcode":"39100","locality":"Dole"}}
{"name":"Hostellerie la Montagne","stars":"1 étoile MICHELIN : une cuisine d’une grande finesse. Vaut l’étape !","address":{"thoroughfare":"10 rue Pisseloup","postalcode":"52330","locality":"COLOMBEY-LES-DEUX-EGLISES"}}
{"name":"Le Pergolèse","stars":"1 étoile MICHELIN : une cuisine d’une grande finesse. Vaut l’étape !","address":{"thoroughfare":"40 Rue Pergolèse","postalcode":"75116","locality":"Paris"}}
{"name":"Au Vieux Couvent","stars":"1 étoile MICHELIN : une cuisine d’une grande finesse. Vaut l’étape !","address":{"thoroughfare":"6 r. des Chanoines","postalcode":"67860","locality":"Rhinau"}}
{"name":"Le Bouche à Oreille","stars":"1 étoile MICHELIN : une cuisine d’une grande finesse. Vaut l’étape !","address":{"thoroughfare":"11 r. de la Chapelle","postalcode":"91150","locality":"Boutervilliers"}}
{"name":"Loiseau des Vignes","stars":"1 étoile MICHELIN : une cuisine d’une grande finesse. Vaut l’étape !","address":{"thoroughfare":"31 Rue Jean Francois Maufoux","postalcode":"21200","locality":"Beaune"}}
{"name":"Le Refuge des Gourmets","stars":"1 étoile MICHELIN : une cuisine d’une grande finesse. Vaut l’étape !","address":{"thoroughfare":"90 route des Framboises","postalcode":"74140","locality":"Machilly"}}
{"name":"Maximin Hellio","stars":"1 étoile MICHELIN : une cuisine d’une grande finesse. Vaut l’étape !","address":{"thoroughfare":"64 Rue Gambetta","postalcode":"14800","locality":"DEAUVILLE"}}
{"name":"Greuze","stars":"1 étoile MICHELIN : une cuisine d’une grande finesse. Vaut l’étape !","address":{"thoroughfare":"1 r. A. Thibaudet","postalcode":"71700","locality":"Tournus"}}
{"name":"Une Table au Sud","stars":"1 étoile MICHELIN : une cuisine d’une grande finesse. Vaut l’étape !","address":{"thoroughfare":"2 quai du Port","postalcode":"13002","locality":"Marseille"}}
{"name":"L'Oasis","stars":"2 étoiles MICHELIN : une cuisine d’exception. Vaut le détour !","address":{"thoroughfare":"6 rue Jean-Honoré Carle","postalcode":"06210","locality":"La Napoule"}}
{"name":"JAN","stars":"1 étoile MICHELIN : une cuisine d’une grande finesse. Vaut l’étape !","address":{"thoroughfare":"12 Rue Lascaris","postalcode":"06000","locality":"Nice"}}
{"name":"Hostellerie Les Gorges de Pennafort","stars":"1 étoile MICHELIN : une cuisine d’une grande finesse. Vaut l’étape !","address":{"thoroughfare":"8660 RD 25","postalcode":"83830","locality":"Callas"}}
{"name":"Le Corot","stars":"1 étoile MICHELIN : une cuisine d’une grande finesse. Vaut l’étape !","address":{"thoroughfare":"55 Rue de Versailles","postalcode":"92410","locality":"VILLE-D'AVRAY"}}
{"name":"Auberge La Pomme d'Api","stars":"1 étoile MICHELIN : une cuisine d’une grande finesse. Vaut l’étape !","address":{"thoroughfare":"49 r. Verderel","postalcode":"29250","locality":"Saint-Pol-de-Léon"}}
{"name":"Le Relais des Moines","stars":"1 étoile MICHELIN : une cuisine d’une grande finesse. Vaut l’étape !","address":{"thoroughfare":"route de Ste-Roseline","postalcode":"83460","locality":"Les Arcs"}}
{"name":"La Madeleine","stars":"1 étoile MICHELIN : une cuisine d’une grande finesse. Vaut l’étape !","address":{"thoroughfare":"1 Rue Alsace-Lorraine","postalcode":"89100","locality":"Sens"}}
{"name":"Cyril Attrazic","stars":"1 étoile MICHELIN : une cuisine d’une grande finesse. Vaut l’étape !","address":{"thoroughfare":"10 rte du Languedoc","postalcode":"48130","locality":"Aumont-Aubrac"}}
{"name":"La Coopérative","stars":"1 étoile MICHELIN : une cuisine d’une grande finesse. Vaut l’étape !","address":{"thoroughfare":"2A Route de Caladroy","postalcode":"66720","locality":"Bélesta"}}
{"name":"Le Clarence","stars":"2 étoiles MICHELIN : une cuisine d’exception. Vaut le détour !","address":{"thoroughfare":"31 Avenue Franklin Delano Roosevelt","postalcode":"75008","locality":"Paris 08"}}
{"name":"Pont de l'Ouysse","stars":"1 étoile MICHELIN : une cuisine d’une grande finesse. Vaut l’étape !","address":{"thoroughfare":"D23","postalcode":"46200","locality":"Lacave"}}
{"name":"Auberge des Templiers","stars":"1 étoile MICHELIN : une cuisine d’une grande finesse. Vaut l’étape !","address":{"thoroughfare":"D2007","postalcode":"45290","locality":"Les Bézards"}}
{"name":"Relais de la Poste","stars":"1 étoile MICHELIN : une cuisine d’une grande finesse. Vaut l’étape !","address":{"thoroughfare":"21 rue du Gén. -de-Gaulle","postalcode":"67610","locality":"LA-WANTZENAU"}}
{"name":"La Table de Patrick Raingeard","stars":"1 étoile MICHELIN : une cuisine d’une grande finesse. Vaut l’étape !","address":{"thoroughfare":"1312 av. Raymond-Poincaré","postalcode":"06360","locality":"EZE-BORD-DE-MER"}}
{"name":"Raphaël Vionnet","stars":"1 étoile MICHELIN : une cuisine d’une grande finesse. Vaut l’étape !","address":{"thoroughfare":"43 Avenue du Général Leclerc","postalcode":"74200","locality":"Thonon-les-Bains"}}
{"name":"Ô Flaveurs","stars":"1 étoile MICHELIN : une cuisine d’une grande finesse. Vaut l’étape !","address":{"thoroughfare":"Château de Chilly","postalcode":"74140","locality":"Douvaine"}}
{"name":"Ivan Vautier","stars":"1 étoile MICHELIN : une cuisine d’une grande finesse. Vaut l’étape !","address":{"thoroughfare":"3 avenue Henry-Chéron","postalcode":"14000","locality":"Caen"}}
{"name":"Yoann Conte","stars":"2 étoiles MICHELIN : une cuisine d’exception. Vaut le détour !","address":{"thoroughfare":"13 Vieille-Route-des-Pensières","postalcode":"74290","locality":"Veyrier-du-Lac"}}
{"name":"L'Atelier d'Edmond","stars":"2 étoiles MICHELIN : une cuisine d’exception. Vaut le détour !","address":{"thoroughfare":"au Fornet","postalcode":"73150","locality":"Val-d'Isère"}}
{"name":"Maison Clovis","stars":"1 étoile MICHELIN : une cuisine d’une grande finesse. Vaut l’étape !","address":{"thoroughfare":"19 bd Brotteaux","postalcode":"69006","locality":"Lyon"}}
{"name":"La Rotonde","stars":"1 étoile MICHELIN : une cuisine d’une grande finesse. Vaut l’étape !","address":{"thoroughfare":"200 avenue du Casino","postalcode":"69890","locality":"LA-TOUR-DE-SALVAGNY"}}
{"name":"Le Coquillage","stars":"1 étoile MICHELIN : une cuisine d’une grande finesse. Vaut l’étape !","address":{"thoroughfare":"Lieu-dit Le Buot","postalcode":"35350","locality":"Saint-Méloir-des-Ondes"}}
{"name":"Ithurria","stars":"1 étoile MICHELIN : une cuisine d’une grande finesse. Vaut l’étape !","address":{"thoroughfare":"pl. du Fronton","postalcode":"64250","locality":"Ainhoa"}}
{"name":"Le Bénaton","stars":"1 étoile MICHELIN : une cuisine d’une grande finesse. Vaut l’étape !","address":{"thoroughfare":"25 Rue du Faubourg-Bretonnière","postalcode":"21200","locality":"BEAUNE"}}
{"name":"L'Essentiel","stars":"1 étoile MICHELIN : une cuisine d’une grande finesse. Vaut l’étape !","address":{"thoroughfare":"29 Rue Mirabeau","postalcode":"14800","locality":"DEAUVILLE"}}
{"name":"Le Moulin de l'Abbaye","stars":"1 étoile MICHELIN : une cuisine d’une grande finesse. Vaut l’étape !","address":{"thoroughfare":"1 avenue Pierre de Bourdeilles","postalcode":"24310","locality":"BRANTOME"}}
{"name":"Relais de la Poste","stars":"2 étoiles MICHELIN : une cuisine d’exception. Vaut le détour !","address":{"thoroughfare":"24 avenue de Maremne","postalcode":"40140","locality":"Magescq"}}
{"name":"Logis de la Cadène","stars":"1 étoile MICHELIN : une cuisine d’une grande finesse. Vaut l’étape !","address":{"thoroughfare":"Place du Marche au Bois","postalcode":"33330","locality":"Saint Emilion"}}
{"name":"Apicius","stars":"1 étoile MICHELIN : une cuisine d’une grande finesse. Vaut l’étape !","address":{"thoroughfare":"Marché Saint Pierre 1 étage","postalcode":"63000","locality":"Clermont-Ferrand"}}
{"name":"Restaurant des Rois","stars":"1 étoile MICHELIN : une cuisine d’une grande finesse. Vaut l’étape !","address":{"thoroughfare":"5 Boulevard du Maréchal Leclerc","postalcode":"06310","locality":"Beaulieu-sur-Mer"}}
{"name":"Gordon Ramsay au Trianon","stars":"1 étoile MICHELIN : une cuisine d’une grande finesse. Vaut l’étape !","address":{"thoroughfare":"1 bd de la Reine","postalcode":"78000","locality":"Versailles"}}
{"name":"SEPT","stars":"1 étoile MICHELIN : une cuisine d’une grande finesse. Vaut l’étape !","address":{"thoroughfare":"7 pl. St-Sernin","postalcode":"31000","locality":"Toulouse"}}
{"name":"Les Voiles d'Or","stars":"1 étoile MICHELIN : une cuisine d’une grande finesse. Vaut l’étape !","address":{"thoroughfare":"2 chemin de la Falaise","postalcode":"76200","locality":"Dieppe"}}
{"name":"Jean-Claude Leclerc","stars":"1 étoile MICHELIN : une cuisine d’une grande finesse. Vaut l’étape !","address":{"thoroughfare":"12 rue St-Adjutor","postalcode":"63000","locality":"Clermont-Ferrand"}}
{"name":"L'Archeste","stars":"1 étoile MICHELIN : une cuisine d’une grande finesse. Vaut l’étape !","address":{"thoroughfare":"79 rue de la Tour","postalcode":"75116","locality":"Paris"}}
{"name":"La Pyramide-Patrick Henriroux","stars":"2 étoiles MICHELIN : une cuisine d’exception. Vaut le détour !","address":{"thoroughfare":"14 Boulevard Fernand Point","postalcode":"38200","locality":"Vienne"}}
{"name":"1741","stars":"1 étoile MICHELIN : une cuisine d’une grande finesse. Vaut l’étape !","address":{"thoroughfare":"22 Quai des Bateliers","postalcode":"67000","locality":"Strasbourg"}}
{"name":"Arpège","stars":"3 étoiles MICHELIN : une cuisine unique. Vaut le voyage !","address":{"thoroughfare":"84 Rue de Varenne","postalcode":"75007","locality":"Paris"}}
{"name":"Les Bories","stars":"1 étoile MICHELIN : une cuisine d’une grande finesse. Vaut l’étape !","address":{"thoroughfare":"rte de l'Abbaye de Sénanque","postalcode":"84220","locality":"Gordes"}}
{"name":"La Grange de Belle-Église","stars":"1 étoile MICHELIN : une cuisine d’une grande finesse. Vaut l’étape !","address":{"thoroughfare":"28 bd René-Aimé-Lagabrielle","postalcode":"60540","locality":"Belle-Église"}}
{"name":"Le Clocher des Pères","stars":"1 étoile MICHELIN : une cuisine d’une grande finesse. Vaut l’étape !","address":{"thoroughfare":"D213","postalcode":"73130","locality":"Saint-Martin-sur-la-Chambre"}}
{"name":"Toya","stars":"1 étoile MICHELIN : une cuisine d’une grande finesse. Vaut l’étape !","address":{"thoroughfare":"av. Jean-Monnet","postalcode":"57380","locality":"Faulquemont"}}
{"name":"Le Kintessence","stars":"2 étoiles MICHELIN : une cuisine d’exception. Vaut le détour !","address":{"thoroughfare":"Rue des Clarines","postalcode":"73120","locality":"Courchevel 1850"}}
{"name":"La Renaissance","stars":"1 étoile MICHELIN : une cuisine d’une grande finesse. Vaut l’étape !","address":{"thoroughfare":"20 av. 2e-Division-Blindée","postalcode":"61200","locality":"Argentan"}}
{"name":"Le Grand Cerf","stars":"1 étoile MICHELIN : une cuisine d’une grande finesse. Vaut l’étape !","address":{"thoroughfare":"50 rte Nationale","postalcode":"51500","locality":"Montchenot"}}
{"name":"Le Jardin de Benjamin","stars":"1 étoile MICHELIN : une cuisine d’une grande finesse. Vaut l’étape !","address":{"thoroughfare":"Route de Salernes","postalcode":"83510","locality":"Lorgues"}}
{"name":"Auberge Tiegezh","stars":"1 étoile MICHELIN : une cuisine d’une grande finesse. Vaut l’étape !","address":{"thoroughfare":"7 Place de la Gare","postalcode":"56380","locality":"Guer"}}
{"name":"La Grande Cascade","stars":"1 étoile MICHELIN : une cuisine d’une grande finesse. Vaut l’étape !","address":{"thoroughfare":"Bois de Boulogne, Carrefour de Longchamp","postalcode":"75016","locality":"Paris"}}
{"name":"Sylvestre","stars":"2 étoiles MICHELIN : une cuisine d’exception. Vaut le détour !","address":{"thoroughfare":"79 rue St-Dominique","postalcode":"75007","locality":"Paris"}}
{"name":"Villa Archange","stars":"2 étoiles MICHELIN : une cuisine d’exception. Vaut le détour !","address":{"thoroughfare":"Rue de l'Ouest","postalcode":"06110","locality":"Le Cannet"}}
{"name":"Auberge St-Walfrid","stars":"1 étoile MICHELIN : une cuisine d’une grande finesse. Vaut l’étape !","address":{"thoroughfare":"58 r. de Grosbliederstroff","postalcode":"57200","locality":"Sarreguemines"}}
{"name":"Clovis","stars":"1 étoile MICHELIN : une cuisine d’une grande finesse. Vaut l’étape !","address":{"thoroughfare":"21 Grand-Rue","postalcode":"06140","locality":"Tourrettes-sur-Loup"}}
{"name":"Le Pot d'Étain","stars":"1 étoile MICHELIN : une cuisine d’une grande finesse. Vaut l’étape !","address":{"thoroughfare":"4 av. de la République","postalcode":"90400","locality":"Danjoutin"}}
{"name":"Transparence \"La Table de Patrick Fréchin\"","stars":"1 étoile MICHELIN : une cuisine d’une grande finesse. Vaut l’étape !","address":{"thoroughfare":"28 r. Stanislas","postalcode":"54000","locality":"Nancy"}}
{"name":"Maison Crouzil et Hôtel L'Écrin","stars":"1 étoile MICHELIN : une cuisine d’une grande finesse. Vaut l’étape !","address":{"thoroughfare":"20 les Quais","postalcode":"22130","locality":"Plancoët"}}
{"name":"Château de Codignat","stars":"1 étoile MICHELIN : une cuisine d’une grande finesse. Vaut l’étape !","address":{"thoroughfare":"Bort l'Etang","postalcode":"63190","locality":"Bort-l'Étang"}}
{"name":"Étude","stars":"1 étoile MICHELIN : une cuisine d’une grande finesse. Vaut l’étape !","address":{"thoroughfare":"14 r. Bouquet-de-Longchamp","postalcode":"75016","locality":"Paris"}}
{"name":"L'Hysope","stars":"1 étoile MICHELIN : une cuisine d’une grande finesse. Vaut l’étape !","address":{"thoroughfare":"25 r. de l'Aurore","postalcode":"17220","locality":"La Jarrie"}}
{"name":"Allium","stars":"1 étoile MICHELIN : une cuisine d’une grande finesse. Vaut l’étape !","address":{"thoroughfare":"88 bd de Créac'h-Gwen","postalcode":"29000","locality":"Quimper"}}
{"name":"L'Aromate","stars":"1 étoile MICHELIN : une cuisine d’une grande finesse. Vaut l’étape !","address":{"thoroughfare":"2 r. Gustave Deloye","postalcode":"06000","locality":"Nice"}}
{"name":"Baumanière 1850","stars":"1 étoile MICHELIN : une cuisine d’une grande finesse. Vaut l’étape !","address":{"thoroughfare":"rte de Bellecôte","postalcode":"73120","locality":"Courchevel 1850"}}
{"name":"La Vieille Tour","stars":"1 étoile MICHELIN : une cuisine d’une grande finesse. Vaut l’étape !","address":{"thoroughfare":"75 r. de la Tour","postalcode":"22190","locality":"Plérin"}}
{"name":"Pages","stars":"1 étoile MICHELIN : une cuisine d’une grande finesse. Vaut l’étape !","address":{"thoroughfare":"4 r. Auguste-Vacquerie","postalcode":"75016","locality":"Paris"}}
{"name":"La Balette","stars":"1 étoile MICHELIN : une cuisine d’une grande finesse. Vaut l’étape !","address":{"thoroughfare":"rte de Port-Vendres","postalcode":"66190","locality":"Collioure"}}
{"name":"Albert 1er","stars":"2 étoiles MICHELIN : une cuisine d’exception. Vaut le détour !","address":{"thoroughfare":"38 rte du Bouchet","postalcode":"74400","locality":"Chamonix-Mont-Blanc"}}
{"name":"La Marine","stars":"1 étoile MICHELIN : une cuisine d’une grande finesse. Vaut l’étape !","address":{"thoroughfare":"11 r. de Paris","postalcode":"50270","locality":"Barneville-Carteret"}}
{"name":"Le St-Martin","stars":"1 étoile MICHELIN : une cuisine d’une grande finesse. Vaut l’étape !","address":{"thoroughfare":"1 r. du Gén.-Leclerc","postalcode":"25200","locality":"Montbéliard"}}
{"name":"Azimut","stars":"1 étoile MICHELIN : une cuisine d’une grande finesse. Vaut l’étape !","address":{"thoroughfare":"273 r. de la Madelon","postalcode":"73120","locality":"Courchevel-Saint-Bon"}}
{"name":"La Liégeoise","stars":"1 étoile MICHELIN : une cuisine d’une grande finesse. Vaut l’étape !","address":{"thoroughfare":"digue de mer","postalcode":"62930","locality":"Wimereux"}}
{"name":"L'Océan","stars":"1 étoile MICHELIN : une cuisine d’une grande finesse. Vaut l’étape !","address":{"thoroughfare":"43 bd Thiers","postalcode":"64500","locality":"Saint-Jean-de-Luz"}}
{"name":"Auberge de la Brie","stars":"1 étoile MICHELIN : une cuisine d’une grande finesse. Vaut l’étape !","address":{"thoroughfare":"14 av. Alphonse Boulingre","postalcode":"77860","locality":"Couilly-Pont-aux-Dames"}}
{"name":"Le Violon d'Ingres","stars":"1 étoile MICHELIN : une cuisine d’une grande finesse. Vaut l’étape !","address":{"thoroughfare":"135 Rue Saint-Dominique","postalcode":"75007","locality":"Paris"}}
{"name":"Serge Vieira","stars":"2 étoiles MICHELIN : une cuisine d’exception. Vaut le détour !","address":{"thoroughfare":"Château du Couffour","postalcode":"15110","locality":"Chaudes-Aigues"}}
{"name":"Le Vivier","stars":"1 étoile MICHELIN : une cuisine d’une grande finesse. Vaut l’étape !","address":{"thoroughfare":"800 cours F. Peyre (rte de Carpentras)","postalcode":"84800","locality":"L'Isle-sur-la-Sorgue"}}
{"name":"L'Atelier Yssoirien","stars":"1 étoile MICHELIN : une cuisine d’une grande finesse. Vaut l’étape !","address":{"thoroughfare":"39 Boulevard Triozon-Bayle","postalcode":"63500","locality":"Issoire"}}
{"name":"Quai des Saveurs","stars":"1 étoile MICHELIN : une cuisine d’une grande finesse. Vaut l’étape !","address":{"thoroughfare":"69 rue de la Gare","postalcode":"57300","locality":"Hagondange"}}
{"name":"Les Climats","stars":"1 étoile MICHELIN : une cuisine d’une grande finesse. Vaut l’étape !","address":{"thoroughfare":"41 rue de Lille","postalcode":"75007","locality":"Paris 07"}}
{"name":"Paloma","stars":"2 étoiles MICHELIN : une cuisine d’exception. Vaut le détour !","address":{"thoroughfare":"47 Avenue du Moulin de la Croix","postalcode":"06250","locality":"Mougins"}}
{"name":"Buerehiesel","stars":"1 étoile MICHELIN : une cuisine d’une grande finesse. Vaut l’étape !","address":{"thoroughfare":"dans le parc de l'Orangerie","postalcode":"67000","locality":"Strasbourg"}}
{"name":"Patrick Jeffroy","stars":"2 étoiles MICHELIN : une cuisine d’exception. Vaut le détour !","address":{"thoroughfare":"20 rue du Kelenn","postalcode":"29660","locality":"Carantec"}}
{"name":"Astrance","stars":"3 étoiles MICHELIN : une cuisine unique. Vaut le voyage !","address":{"thoroughfare":"4 r. Beethoven","postalcode":"75016","locality":"Paris"}}
{"name":"Le 7ème Continent","stars":"1 étoile MICHELIN : une cuisine d’une grande finesse. Vaut l’étape !","address":{"thoroughfare":"35 av. Gén. -de-Gaulle","postalcode":"68170","locality":"Rixheim"}}
{"name":"Passage 53","stars":"2 étoiles MICHELIN : une cuisine d’exception. Vaut le détour !","address":{"thoroughfare":"53 passage des Panoramas","postalcode":"75002","locality":"Paris"}}
{"name":"Au 14 Février","stars":"1 étoile MICHELIN : une cuisine d’une grande finesse. Vaut l’étape !","address":{"thoroughfare":"2 r. du Portail","postalcode":"36100","locality":"Saint-Valentin"}}
{"name":"Le Chabichou","stars":"2 étoiles MICHELIN : une cuisine d’exception. Vaut le détour !","address":{"thoroughfare":"90 Route des Chenus","postalcode":"73120","locality":"Courchevel 1850"}}
{"name":"Le Kaïku","stars":"1 étoile MICHELIN : une cuisine d’une grande finesse. Vaut l’étape !","address":{"thoroughfare":"17 r. de la République","postalcode":"64500","locality":"Saint-Jean-de-Luz"}}
{"name":"Le Saint-James","stars":"1 étoile MICHELIN : une cuisine d’une grande finesse. Vaut l’étape !","address":{"thoroughfare":"3 pl. Camille-Hostein","postalcode":"33270","locality":"BOULIAC"}}
{"name":"Mère Brazier","stars":"2 étoiles MICHELIN : une cuisine d’exception. Vaut le détour !","address":{"thoroughfare":"12 rue Royale","postalcode":"69001","locality":"LYON"}}
{"name":"La Table Saint-Crescent","stars":"1 étoile MICHELIN : une cuisine d’une grande finesse. Vaut l’étape !","address":{"thoroughfare":"route de Perpignan","postalcode":"11100","locality":"Narbonne"}}
{"name":"Le Moulin du Roc","stars":"1 étoile MICHELIN : une cuisine d’une grande finesse. Vaut l’étape !","address":{"thoroughfare":"Avenue Eugène Le Roy","postalcode":"24530","locality":"Champagnac-de-Belair"}}
{"name":"Château de Mirambeau","stars":"1 étoile MICHELIN : une cuisine d’une grande finesse. Vaut l’étape !","address":{"thoroughfare":"1 Avenue des Comtes Duchatel","postalcode":"17150","locality":"Mirambeau"}}
{"name":"Têtedoie","stars":"1 étoile MICHELIN : une cuisine d’une grande finesse. Vaut l’étape !","address":{"thoroughfare":"4 Rue Professeur Pierre Marion","postalcode":"69005","locality":"Lyon 05"}}
{"name":"Table des Frères Ibarboure","stars":"1 étoile MICHELIN : une cuisine d’une grande finesse. Vaut l’étape !","address":{"thoroughfare":"chemin Ttalienea","postalcode":"64210","locality":"Bidart"}}
{"name":"La Tour des Vents","stars":"1 étoile MICHELIN : une cuisine d’une grande finesse. Vaut l’étape !","address":{"thoroughfare":"Le Moulin de Malfourat","postalcode":"24240","locality":"Monbazillac"}}
{"name":"Py-r","stars":"1 étoile MICHELIN : une cuisine d’une grande finesse. Vaut l’étape !","address":{"thoroughfare":"19 descente de la Halle-aux-Poissons","postalcode":"31000","locality":"Toulouse"}}
{"name":"La Bastide de Capelongue","stars":"2 étoiles MICHELIN : une cuisine d’exception. Vaut le détour !","address":{"thoroughfare":"Chemin des Cabanes","postalcode":"84480","locality":"Bonnieux"}}
{"name":"Guy Lassausaie","stars":"2 étoiles MICHELIN : une cuisine d’exception. Vaut le détour !","address":{"thoroughfare":"r. de Belle-Sise","postalcode":"69380","locality":"Chasselay"}}
{"name":"Les Trois Dômes","stars":"1 étoile MICHELIN : une cuisine d’une grande finesse. Vaut l’étape !","address":{"thoroughfare":"20 quai Gailleton","postalcode":"69002","locality":"Lyon"}}
{"name":"Le Cloître","stars":"1 étoile MICHELIN : une cuisine d’une grande finesse. Vaut l’étape !","address":{"thoroughfare":"Le Cloitre","postalcode":"04300","locality":"Mane"}}
{"name":"La Grenouillère","stars":"2 étoiles MICHELIN : une cuisine d’exception. Vaut le détour !","address":{"thoroughfare":"19 r. de la Grenouillère","postalcode":"62170","locality":"La Madelaine-sous-Montreuil"}}
{"name":"Le Quinzième - Cyril Lignac","stars":"1 étoile MICHELIN : une cuisine d’une grande finesse. Vaut l’étape !","address":{"thoroughfare":"14 rue Cauchy","postalcode":"75015","locality":"Paris"}}
{"name":"Le George","stars":"1 étoile MICHELIN : une cuisine d’une grande finesse. Vaut l’étape !","address":{"thoroughfare":"31 Avenue George V","postalcode":"75008","locality":"Paris"}}
{"name":"L'Almandin","stars":"1 étoile MICHELIN : une cuisine d’une grande finesse. Vaut l’étape !","address":{"thoroughfare":"Boulevard de l'Almandin","postalcode":"66750","locality":"Saint-Cyprien"}}
{"name":"Sur Mesure par Thierry Marx","stars":"2 étoiles MICHELIN : une cuisine d’exception. Vaut le détour !","address":{"thoroughfare":"251 Rue Saint Honoré","postalcode":"75001","locality":"Paris"}}
{"name":"1217","stars":"1 étoile MICHELIN : une cuisine d’une grande finesse. Vaut l’étape !","address":{"thoroughfare":"le bourg","postalcode":"69620","locality":"Bagnols"}}
{"name":"Le Relais Bernard Loiseau","stars":"2 étoiles MICHELIN : une cuisine d’exception. Vaut le détour !","address":{"thoroughfare":"2, rue d'Argentine","postalcode":"21210","locality":"Saulieu"}}
{"name":"Hostellerie de l'Abbaye de la Celle","stars":"1 étoile MICHELIN : une cuisine d’une grande finesse. Vaut l’étape !","address":{"thoroughfare":"10 Place Général de Gaulle","postalcode":"83170","locality":"La Celle"}}
{"name":"La Table d'Olivier","stars":"1 étoile MICHELIN : une cuisine d’une grande finesse. Vaut l’étape !","address":{"thoroughfare":"3 r. St-Ambroise","postalcode":"19100","locality":"Brive-la-Gaillarde"}}
{"name":"Restaurant de Lauzun","stars":"1 étoile MICHELIN : une cuisine d’une grande finesse. Vaut l’étape !","address":{"thoroughfare":"3 bd de l'Esplanade","postalcode":"34150","locality":"Gignac"}}
{"name":"L'Atelier de Joël Robuchon - Étoile","stars":"1 étoile MICHELIN : une cuisine d’une grande finesse. Vaut l’étape !","address":{"thoroughfare":"133 av. des Champs-Élysées","postalcode":"75008","locality":"Paris"}}
{"name":"Alliance","stars":"1 étoile MICHELIN : une cuisine d’une grande finesse. Vaut l’étape !","address":{"thoroughfare":"5 Rue de Poissy","postalcode":"75005","locality":"Paris"}}
{"name":"Le Puits St-Jacques","stars":"2 étoiles MICHELIN : une cuisine d’exception. Vaut le détour !","address":{"thoroughfare":"av. Victor-Capoul","postalcode":"32600","locality":"Pujaudran"}}
{"name":"Hervé Busset","stars":"1 étoile MICHELIN : une cuisine d’une grande finesse. Vaut l’étape !","address":{"thoroughfare":"D901","postalcode":"12320","locality":"Conques"}}
{"name":"Le Belrose","stars":"1 étoile MICHELIN : une cuisine d’une grande finesse. Vaut l’étape !","address":{"thoroughfare":"Boulevard des Crêtes","postalcode":"83580","locality":"Gassin"}}
{"name":"Assiette Champenoise","stars":"3 étoiles MICHELIN : une cuisine unique. Vaut le voyage !","address":{"thoroughfare":"40 av. Paul Vaillant-Couturier","postalcode":"51430","locality":"Tinqueux"}}
{"name":"Les Prés d'Eugénie - Michel Guérard","stars":"3 étoiles MICHELIN : une cuisine unique. Vaut le voyage !","address":{"thoroughfare":"pl. de l'Impératrice","postalcode":"40320","locality":"Eugénie-les-Bains"}}
{"name":"Épicure","stars":"3 étoiles MICHELIN : une cuisine unique. Vaut le voyage !","address":{"thoroughfare":"112 r. Fg St-Honoré","postalcode":"75008","locality":"Paris 08"}}
{"name":"Le Taillevent","stars":"2 étoiles MICHELIN : une cuisine d’exception. Vaut le détour !","address":{"thoroughfare":"15 Rue Lamennais","postalcode":"75008","locality":"Paris"}}
{"name":"Ar Men Du","stars":"1 étoile MICHELIN : une cuisine d’une grande finesse. Vaut l’étape !","address":{"thoroughfare":"47 rue des îles","postalcode":"29920","locality":"Névez"}}
{"name":"Maison Lameloise","stars":"3 étoiles MICHELIN : une cuisine unique. Vaut le voyage !","address":{"thoroughfare":"36 pl. d'Armes","postalcode":"71150","locality":"Chagny"}}
{"name":"La Bergerie","stars":"1 étoile MICHELIN : une cuisine d’une grande finesse. Vaut l’étape !","address":{"thoroughfare":"D999","postalcode":"63490","locality":"Sarpoil"}}
{"name":"Penati al Baretto","stars":"1 étoile MICHELIN : une cuisine d’une grande finesse. Vaut l’étape !","address":{"thoroughfare":"9 rue Balzac","postalcode":"75008","locality":"Paris 08"}}
{"name":"Le Gindreau","stars":"2 étoiles MICHELIN : une cuisine d’exception. Vaut le détour !","address":{"thoroughfare":"D5","postalcode":"46150","locality":"Saint-Médard"}}
{"name":"Les Jardins de l'Espadon","stars":"1 étoile MICHELIN : une cuisine d’une grande finesse. Vaut l’étape !","address":{"thoroughfare":"15 place Vendôme","postalcode":"75001","locality":"Paris"}}
{"name":"Le Grand Véfour","stars":"2 étoiles MICHELIN : une cuisine d’exception. Vaut le détour !","address":{"thoroughfare":"17 rue de Beaujolais","postalcode":"75001","locality":"Paris"}}
{"name":"L'Orangerie","stars":"1 étoile MICHELIN : une cuisine d’une grande finesse. Vaut l’étape !","address":{"thoroughfare":"31 Avenue George-V","postalcode":"75008","locality":"Paris"}}
{"name":"Atmosphères","stars":"1 étoile MICHELIN : une cuisine d’une grande finesse. Vaut l’étape !","address":{"thoroughfare":"618 Route des Tournelles","postalcode":"73370","locality":"Le Bourget-du-Lac"}}
{"name":"Auberge de Clochemerle","stars":"1 étoile MICHELIN : une cuisine d’une grande finesse. Vaut l’étape !","address":{"thoroughfare":"Rue Gabriel-Chevallier","postalcode":"69460","locality":"VAUX-EN-BEAUJOLAIS"}}
{"name":"Armani Ristorante","stars":"1 étoile MICHELIN : une cuisine d’une grande finesse. Vaut l’étape !","address":{"thoroughfare":"149 Boulevard Saint-Germain","postalcode":"75006","locality":"Paris"}}
{"name":"La Galinette","stars":"1 étoile MICHELIN : une cuisine d’une grande finesse. Vaut l’étape !","address":{"thoroughfare":"23 r. Jean Payra","postalcode":"66000","locality":"Perpignan"}}
{"name":"Ken Kawasaki","stars":"1 étoile MICHELIN : une cuisine d’une grande finesse. Vaut l’étape !","address":{"thoroughfare":"15 r. Caulaincourt","postalcode":"75018","locality":"Paris"}}
{"name":"Thierry Drapeau","stars":"2 étoiles MICHELIN : une cuisine d’exception. Vaut le détour !","address":{"thoroughfare":"La Chabotterie","postalcode":"85260","locality":"Saint-Sulpice-le-Verdon"}}
{"name":"Pierre Reboul","stars":"1 étoile MICHELIN : une cuisine d’une grande finesse. Vaut l’étape !","address":{"thoroughfare":"260 r. Guillaume-du-Vair","postalcode":"13546","locality":"Aix-en-Provence"}}
{"name":"Hostellerie de Levernois","stars":"1 étoile MICHELIN : une cuisine d’une grande finesse. Vaut l’étape !","address":{"thoroughfare":"15 r. du Golf","postalcode":"21200","locality":"Levernois"}}
{"name":"Le Puits du Trésor","stars":"1 étoile MICHELIN : une cuisine d’une grande finesse. Vaut l’étape !","address":{"thoroughfare":"21 rte des Quatre-Châteaux","postalcode":"11600","locality":"Lastours"}}
{"name":"La Table de Chaintré","stars":"1 étoile MICHELIN : une cuisine d’une grande finesse. Vaut l’étape !","address":{"thoroughfare":"72 pl. du Luminaire","postalcode":"71570","locality":"Chaintré"}}
{"name":"Le Grand Cap","stars":"1 étoile MICHELIN : une cuisine d’une grande finesse. Vaut l’étape !","address":{"thoroughfare":"chemin du Phare","postalcode":"11370","locality":"Leucate"}}
{"name":"Jérôme Feck","stars":"1 étoile MICHELIN : une cuisine d’une grande finesse. Vaut l’étape !","address":{"thoroughfare":"19 pl. Mgr-Tissier","postalcode":"51000","locality":"Châlons-en-Champagne"}}
{"name":"Au Déjeuner de Sousceyrac","stars":"1 étoile MICHELIN : une cuisine d’une grande finesse. Vaut l’étape !","address":{"thoroughfare":"r. Pierre-Benoit","postalcode":"46190","locality":"Sousceyrac"}}
{"name":"Akrame","stars":"1 étoile MICHELIN : une cuisine d’une grande finesse. Vaut l’étape !","address":{"thoroughfare":"7 r. Tronchet","postalcode":"75008","locality":"Paris"}}
{"name":"Le Chiquito","stars":"1 étoile MICHELIN : une cuisine d’une grande finesse. Vaut l’étape !","address":{"thoroughfare":"3 r. de l'Oise, La Bonneville","postalcode":"95540","locality":"Méry-sur-Oise"}}
{"name":"Le Bistrot de Lagarde","stars":"1 étoile MICHELIN : une cuisine d’une grande finesse. Vaut l’étape !","address":{"thoroughfare":"rte d'Apt","postalcode":"84400","locality":"Lagarde-d'Apt"}}
{"name":"Le Cercle","stars":"1 étoile MICHELIN : une cuisine d’une grande finesse. Vaut l’étape !","address":{"thoroughfare":"44 bd Lahitolle","postalcode":"18000","locality":"Bourges"}}
{"name":"Le Gambetta","stars":"1 étoile MICHELIN : une cuisine d’une grande finesse. Vaut l’étape !","address":{"thoroughfare":"12 r. Gambetta","postalcode":"49400","locality":"Saumur"}}
{"name":"Rodolphe","stars":"1 étoile MICHELIN : une cuisine d’une grande finesse. Vaut l’étape !","address":{"thoroughfare":"35 r. Percière","postalcode":"76000","locality":"Rouen"}}
{"name":"La Closerie","stars":"1 étoile MICHELIN : une cuisine d’une grande finesse. Vaut l’étape !","address":{"thoroughfare":"bd des Platanes","postalcode":"84240","locality":"Ansouis"}}
{"name":"La Merise","stars":"1 étoile MICHELIN : une cuisine d’une grande finesse. Vaut l’étape !","address":{"thoroughfare":"7 r. d'Eschbach","postalcode":"67580","locality":"Laubach"}}
{"name":"Cayola","stars":"1 étoile MICHELIN : une cuisine d’une grande finesse. Vaut l’étape !","address":{"thoroughfare":"76 promenade de Cayola","postalcode":"85180","locality":"Talmont-Saint-Hilaire"}}
{"name":"Sushi B","stars":"1 étoile MICHELIN : une cuisine d’une grande finesse. Vaut l’étape !","address":{"thoroughfare":"5 r. Rameau","postalcode":"75002","locality":"Paris"}}
{"name":"Pertica","stars":"1 étoile MICHELIN : une cuisine d’une grande finesse. Vaut l’étape !","address":{"thoroughfare":"15 pl. de la République","postalcode":"41100","locality":"Vendôme"}}
{"name":"Le Skiff Club","stars":"1 étoile MICHELIN : une cuisine d’une grande finesse. Vaut l’étape !","address":{"thoroughfare":"1 av. Louis-Gaume","postalcode":"33260","locality":"La Teste-de-Buch"}}
{"name":"Au Souper Fin","stars":"1 étoile MICHELIN : une cuisine d’une grande finesse. Vaut l’étape !","address":{"thoroughfare":"1 rte de Clères","postalcode":"76690","locality":"Frichemesnil"}}
{"name":"Michel Trama","stars":"2 étoiles MICHELIN : une cuisine d’exception. Vaut le détour !","address":{"thoroughfare":"52 r. Royale","postalcode":"47270","locality":"Puymirol"}}
{"name":"Ima","stars":"1 étoile MICHELIN : une cuisine d’une grande finesse. Vaut l’étape !","address":{"thoroughfare":"20 bd de la Tour-d'Auvergne","postalcode":"35000","locality":"Rennes"}}
{"name":"L'Auberge de Bagatelle","stars":"1 étoile MICHELIN : une cuisine d’une grande finesse. Vaut l’étape !","address":{"thoroughfare":"489 av. Bollée","postalcode":"72000","locality":"Le Mans"}}
{"name":"Jean Chauvel","stars":"1 étoile MICHELIN : une cuisine d’une grande finesse. Vaut l’étape !","address":{"thoroughfare":"33 av. Général-Leclerc","postalcode":"92100","locality":"Boulogne-Billancourt"}}
{"name":"La Ribaudière","stars":"1 étoile MICHELIN : une cuisine d’une grande finesse. Vaut l’étape !","address":{"thoroughfare":"2 pl. du Port","postalcode":"16200","locality":"Bourg-Charente"}}
{"name":"L'Essentiel","stars":"1 étoile MICHELIN : une cuisine d’une grande finesse. Vaut l’étape !","address":{"thoroughfare":"8 r. de la Clarté","postalcode":"24000","locality":"Périgueux"}}
{"name":"Le Lièvre Gourmand","stars":"1 étoile MICHELIN : une cuisine d’une grande finesse. Vaut l’étape !","address":{"thoroughfare":"28 quai du Châtelet","postalcode":"45000","locality":"Orléans"}}
{"name":"Divellec","stars":"1 étoile MICHELIN : une cuisine d’une grande finesse. Vaut l’étape !","address":{"thoroughfare":"18 r. Fabert","postalcode":"75007","locality":"Paris"}}
{"name":"L'Émulsion","stars":"1 étoile MICHELIN : une cuisine d’une grande finesse. Vaut l’étape !","address":{"thoroughfare":"57 rte de Lyon","postalcode":"38080","locality":"Saint-Alban-de-Roche"}}
{"name":"Comice","stars":"1 étoile MICHELIN : une cuisine d’une grande finesse. Vaut l’étape !","address":{"thoroughfare":"31 av. de Versailles","postalcode":"75016","locality":"Paris"}}
{"name":"La Table de la Ferme","stars":"1 étoile MICHELIN : une cuisine d’une grande finesse. Vaut l’étape !","address":{"thoroughfare":"Vallée de l'Ortolo","postalcode":"20100","locality":"Sartène"}}
{"name":"Meulien","stars":"1 étoile MICHELIN : une cuisine d’une grande finesse. Vaut l’étape !","address":{"thoroughfare":"1 bis av. des Alpes","postalcode":"71700","locality":"Tournus"}}
{"name":"La Table d'Hôtes - Le Quatrième Mur","stars":"1 étoile MICHELIN : une cuisine d’une grande finesse. Vaut l’étape !","address":{"thoroughfare":"2 pl. de la Comédie","postalcode":"33000","locality":"Bordeaux"}}
{"name":"Montée","stars":"1 étoile MICHELIN : une cuisine d’une grande finesse. Vaut l’étape !","address":{"thoroughfare":"9 r. Léopold-Robert","postalcode":"75014","locality":"Paris"}}
{"name":"Qui plume la Lune","stars":"1 étoile MICHELIN : une cuisine d’une grande finesse. Vaut l’étape !","address":{"thoroughfare":"50 r. Amelot","postalcode":"75011","locality":"Paris 11"}}
{"name":"Racine","stars":"1 étoile MICHELIN : une cuisine d’une grande finesse. Vaut l’étape !","address":{"thoroughfare":"6 pl. Godinot","postalcode":"51100","locality":"Reims"}}
{"name":"Château de Vauchoux","stars":"1 étoile MICHELIN : une cuisine d’une grande finesse. Vaut l’étape !","address":{"thoroughfare":"","postalcode":"70170","locality":"Vauchoux"}}
{"name":"Septime","stars":"1 étoile MICHELIN : une cuisine d’une grande finesse. Vaut l’étape !","address":{"thoroughfare":"80 r. de Charonne","postalcode":"75011","locality":"Paris"}}
{"name":"Le Pousse-Pied","stars":"1 étoile MICHELIN : une cuisine d’une grande finesse. Vaut l’étape !","address":{"thoroughfare":"84 bd des Vendéens","postalcode":"85360","locality":"La Tranche-sur-Mer"}}
{"name":"Le Clos St-Pierre","stars":"1 étoile MICHELIN : une cuisine d’une grande finesse. Vaut l’étape !","address":{"thoroughfare":"pl. de la Mairie","postalcode":"06650","locality":"Le Rouret"}}
{"name":"Garopapilles","stars":"1 étoile MICHELIN : une cuisine d’une grande finesse. Vaut l’étape !","address":{"thoroughfare":"62 r. Abbé-de-L'Epée","postalcode":"33000","locality":"Bordeaux"}}
{"name":"Jean Sulpice","stars":"2 étoiles MICHELIN : une cuisine d’exception. Vaut le détour !","address":{"thoroughfare":"303 rte du Port","postalcode":"74290","locality":"Talloires"}}
{"name":"Auberge du Paradis","stars":"1 étoile MICHELIN : une cuisine d’une grande finesse. Vaut l’étape !","address":{"thoroughfare":"Le Plâtre-Durand","postalcode":"71570","locality":"Saint-Amour-Bellevue"}}
{"name":"Garance","stars":"1 étoile MICHELIN : une cuisine d’une grande finesse. Vaut l’étape !","address":{"thoroughfare":"34 r. St-Dominique","postalcode":"75007","locality":"Paris"}}
{"name":"Le Marcq","stars":"1 étoile MICHELIN : une cuisine d’une grande finesse. Vaut l’étape !","address":{"thoroughfare":"944 av. de la République","postalcode":"59700","locality":"Marcq-en-Barœul"}}
{"name":"U Santa Marina","stars":"1 étoile MICHELIN : une cuisine d’une grande finesse. Vaut l’étape !","address":{"thoroughfare":"Marina di Santa Giulia","postalcode":"20137","locality":"Porto-Vecchio"}}
{"name":"Pèir","stars":"1 étoile MICHELIN : une cuisine d’une grande finesse. Vaut l’étape !","address":{"thoroughfare":"r. de la Combe","postalcode":"84220","locality":"Gordes"}}
{"name":"Le Chateaubriand","stars":"1 étoile MICHELIN : une cuisine d’une grande finesse. Vaut l’étape !","address":{"thoroughfare":"129 av. Parmentier","postalcode":"75011","locality":"Paris"}}
{"name":"Palm Beach","stars":"1 étoile MICHELIN : une cuisine d’une grande finesse. Vaut l’étape !","address":{"thoroughfare":"route des Iles Sanguinaires","postalcode":"20000","locality":"Ajaccio"}}
{"name":"Le Pavillon","stars":"1 étoile MICHELIN : une cuisine d’une grande finesse. Vaut l’étape !","address":{"thoroughfare":"av. du Verger","postalcode":"62520","locality":"Le Touquet-Paris-Plage"}}
{"name":"La Table du 11","stars":"1 étoile MICHELIN : une cuisine d’une grande finesse. Vaut l’étape !","address":{"thoroughfare":"8 rue de la chancellerie","postalcode":"78000","locality":"Versailles"}}
{"name":"La Chassagnette","stars":"1 étoile MICHELIN : une cuisine d’une grande finesse. Vaut l’étape !","address":{"thoroughfare":"route du Sambuc","postalcode":"13200","locality":"Arles"}}
{"name":"Maison Christian Étienne","stars":"1 étoile MICHELIN : une cuisine d’une grande finesse. Vaut l’étape !","address":{"thoroughfare":"10 Rue de Mons","postalcode":"84000","locality":"Avignon"}}
{"name":"Le Champ des Lunes","stars":"1 étoile MICHELIN : une cuisine d’une grande finesse. Vaut l’étape !","address":{"thoroughfare":"route de Roquefraîche","postalcode":"84360","locality":"Lauris"}}
{"name":"Prairial","stars":"1 étoile MICHELIN : une cuisine d’une grande finesse. Vaut l’étape !","address":{"thoroughfare":"11 Rue Chavanne","postalcode":"69001","locality":"Lyon"}}
{"name":"Pertinence","stars":"1 étoile MICHELIN : une cuisine d’une grande finesse. Vaut l’étape !","address":{"thoroughfare":"29 r. de l'Exposition","postalcode":"75007","locality":"Paris"}}
{"name":"La Bonne Auberge","stars":"1 étoile MICHELIN : une cuisine d’une grande finesse. Vaut l’étape !","address":{"thoroughfare":"15 r. Nationale","postalcode":"57350","locality":"Stiring-Wendel"}}
{"name":"La Table by La Villa","stars":"1 étoile MICHELIN : une cuisine d’une grande finesse. Vaut l’étape !","address":{"thoroughfare":"chemin de Notre-Dame-de-la-Serra","postalcode":"20260","locality":"Calvi"}}
{"name":"Apicius","stars":"1 étoile MICHELIN : une cuisine d’une grande finesse. Vaut l’étape !","address":{"thoroughfare":"20 r. d'Artois","postalcode":"75008","locality":"Paris"}}
{"name":"Château de la Treyne","stars":"1 étoile MICHELIN : une cuisine d’une grande finesse. Vaut l’étape !","address":{"thoroughfare":"","postalcode":"46200","locality":"Lacave"}}
{"name":"Saturne","stars":"1 étoile MICHELIN : une cuisine d’une grande finesse. Vaut l’étape !","address":{"thoroughfare":"17 r. N.-D.-des-Victoires","postalcode":"75002","locality":"Paris"}}
{"name":"Intuition","stars":"1 étoile MICHELIN : une cuisine d’une grande finesse. Vaut l’étape !","address":{"thoroughfare":"1 r. Alsace-Lorraine","postalcode":"50000","locality":"Saint-Lô"}}
{"name":"Gaya Rive Gauche par Pierre Gagnaire","stars":"1 étoile MICHELIN : une cuisine d’une grande finesse. Vaut l’étape !","address":{"thoroughfare":"44 r. du Bac","postalcode":"75007","locality":"Paris"}}
{"name":"Les Tables de Gaspard","stars":"1 étoile MICHELIN : une cuisine d’une grande finesse. Vaut l’étape !","address":{"thoroughfare":"r. Principale","postalcode":"05600","locality":"St-Crépin"}}
{"name":"Mickaël Féval","stars":"1 étoile MICHELIN : une cuisine d’une grande finesse. Vaut l’étape !","address":{"thoroughfare":"11 Petite-Rue-St-Jean","postalcode":"13100","locality":"Aix-en-Provence"}}
{"name":"Le Neuvième Art","stars":"2 étoiles MICHELIN : une cuisine d’exception. Vaut le détour !","address":{"thoroughfare":"173 r. Cuvier","postalcode":"69006","locality":"Lyon"}}
{"name":"Gavroche","stars":"1 étoile MICHELIN : une cuisine d’une grande finesse. Vaut l’étape !","address":{"thoroughfare":"4 r. Klein","postalcode":"67000","locality":"Strasbourg"}}
{"name":"Le Montgomerie","stars":"2 étoiles MICHELIN : une cuisine d’exception. Vaut le détour !","address":{"thoroughfare":"356 rte de l'Altiport","postalcode":"73120","locality":"Courchevel 1850"}}
{"name":"Le Château de Sable","stars":"1 étoile MICHELIN : une cuisine d’une grande finesse. Vaut l’étape !","address":{"thoroughfare":"38 r. de l'Europe","postalcode":"29840","locality":"Porspoder"}}
{"name":"St-James Paris","stars":"1 étoile MICHELIN : une cuisine d’une grande finesse. Vaut l’étape !","address":{"thoroughfare":"43 av. Bugeaud","postalcode":"75116","locality":"Paris"}}
{"name":"L'Amphitryon","stars":"1 étoile MICHELIN : une cuisine d’une grande finesse. Vaut l’étape !","address":{"thoroughfare":"chemin de Gramont","postalcode":"31770","locality":"Colomiers"}}
{"name":"Laurent","stars":"1 étoile MICHELIN : une cuisine d’une grande finesse. Vaut l’étape !","address":{"thoroughfare":"41 av. Gabriel","postalcode":"75008","locality":"Paris"}}
{"name":"Le Jardin des Plumes","stars":"1 étoile MICHELIN : une cuisine d’une grande finesse. Vaut l’étape !","address":{"thoroughfare":"1 Rue du Milieu","postalcode":"27620","locality":"Giverny"}}
{"name":"L'Atelier de Jean-Luc Rabanel","stars":"2 étoiles MICHELIN : une cuisine d’exception. Vaut le détour !","address":{"thoroughfare":"7 r. des Carmes","postalcode":"13200","locality":"Arles"}}
{"name":"L'Impertinent","stars":"1 étoile MICHELIN : une cuisine d’une grande finesse. Vaut l’étape !","address":{"thoroughfare":"5, rue d'Alsace","postalcode":"64200","locality":"Biarritz"}}
{"name":"La Maison d'à Côté","stars":"1 étoile MICHELIN : une cuisine d’une grande finesse. Vaut l’étape !","address":{"thoroughfare":"17 rue de Chambord","postalcode":"41350","locality":"Montlivault"}}
{"name":"Assa","stars":"1 étoile MICHELIN : une cuisine d’une grande finesse. Vaut l’étape !","address":{"thoroughfare":"189 Quai Ulysse Besnard","postalcode":"41000","locality":"Blois"}}
{"name":"Le Figuier de St-Esprit","stars":"1 étoile MICHELIN : une cuisine d’une grande finesse. Vaut l’étape !","address":{"thoroughfare":"7, Promenade Amiral de Grasse","postalcode":"06600","locality":"Antibes"}}
{"name":"Le Farçon","stars":"1 étoile MICHELIN : une cuisine d’une grande finesse. Vaut l’étape !","address":{"thoroughfare":"immeuble la Kalinka","postalcode":"73125","locality":"La Tania"}}
{"name":"Kasbür","stars":"1 étoile MICHELIN : une cuisine d’une grande finesse. Vaut l’étape !","address":{"thoroughfare":"8 Rue de Dettwiller","postalcode":"67700","locality":"Monswiller"}}
{"name":"Il Cortile","stars":"1 étoile MICHELIN : une cuisine d’une grande finesse. Vaut l’étape !","address":{"thoroughfare":"11 r. des Franciscains","postalcode":"68100","locality":"Mulhouse"}}
{"name":"Le Domaine de la Corniche","stars":"1 étoile MICHELIN : une cuisine d’une grande finesse. Vaut l’étape !","address":{"thoroughfare":"5 rte de la Corniche","postalcode":"78270","locality":"Rolleboise"}}
{"name":"Lamartine","stars":"1 étoile MICHELIN : une cuisine d’une grande finesse. Vaut l’étape !","address":{"thoroughfare":"Route du Tunnel du Chat","postalcode":"73370","locality":"Le Bourget du Lac"}}
{"name":"Jérôme Nutile - Le Mas de Boudan","stars":"1 étoile MICHELIN : une cuisine d’une grande finesse. Vaut l’étape !","address":{"thoroughfare":"351 Chemin du Mas de Boudan","postalcode":"30000","locality":"Nîmes"}}
{"name":"Le Raisin","stars":"1 étoile MICHELIN : une cuisine d’une grande finesse. Vaut l’étape !","address":{"thoroughfare":"2 pl. M. -Poisat","postalcode":"01190","locality":"Pont-de-Vaux"}}
{"name":"Les Fresques","stars":"1 étoile MICHELIN : une cuisine d’une grande finesse. Vaut l’étape !","address":{"thoroughfare":"13 Avenue des Mateirons","postalcode":"74500","locality":"Évian-les-Bains"}}
{"name":"L'O des Vignes","stars":"1 étoile MICHELIN : une cuisine d’une grande finesse. Vaut l’étape !","address":{"thoroughfare":"r. du Bourg","postalcode":"71960","locality":"Fuissé"}}
{"name":"Les Ducs de Lorraine","stars":"1 étoile MICHELIN : une cuisine d’une grande finesse. Vaut l’étape !","address":{"thoroughfare":"5 av. Provence","postalcode":"88000","locality":"Épinal"}}
{"name":"Les Clefs d'Argent","stars":"1 étoile MICHELIN : une cuisine d’une grande finesse. Vaut l’étape !","address":{"thoroughfare":"333 Avenue des Martyrs de la Résistance","postalcode":"40000","locality":"Mont-de-Marsan"}}
{"name":"Le Saint-Estève","stars":"1 étoile MICHELIN : une cuisine d’une grande finesse. Vaut l’étape !","address":{"thoroughfare":"2250 route cézanne D17","postalcode":"13100","locality":"Le Tholonet"}}
{"name":"La Table de Franck Putelat","stars":"2 étoiles MICHELIN : une cuisine d’exception. Vaut le détour !","address":{"thoroughfare":"80 chemin des Anglais","postalcode":"11000","locality":"Carcassonne"}}
{"name":"Restaurant du Palais Royal","stars":"1 étoile MICHELIN : une cuisine d’une grande finesse. Vaut l’étape !","address":{"thoroughfare":"110 Galerie de Valois - Jardin du Palais Royal","postalcode":"75001","locality":"Paris 01"}}
{"name":"Le Restaurant","stars":"1 étoile MICHELIN : une cuisine d’une grande finesse. Vaut l’étape !","address":{"thoroughfare":"13 rue des Beaux-Arts","postalcode":"75006","locality":"Paris 06"}}
{"name":"Fanny Rey & Jonathan Wahid","stars":"1 étoile MICHELIN : une cuisine d’une grande finesse. Vaut l’étape !","address":{"thoroughfare":"12, boulevard Mirabeau","postalcode":"13210","locality":"SAINT REMY DE PROVENCE"}}
{"name":"Les Tablettes de Jean-Louis Nomicos","stars":"1 étoile MICHELIN : une cuisine d’une grande finesse. Vaut l’étape !","address":{"thoroughfare":"16 Avenue Bugeaud","postalcode":"75016","locality":"Paris"}}
{"name":"Paul Bocuse","stars":"3 étoiles MICHELIN : une cuisine unique. Vaut le voyage !","address":{"thoroughfare":"40 Quai de la Plage","postalcode":"69660","locality":"Collonges-au-Mont-d'Or"}}
{"name":"Le Grand Bleu","stars":"1 étoile MICHELIN : une cuisine d’une grande finesse. Vaut l’étape !","address":{"thoroughfare":"43 av. de la Gare","postalcode":"24200","locality":"Sarlat-la-Canéda"}}
{"name":"Le Vieux Logis","stars":"1 étoile MICHELIN : une cuisine d’une grande finesse. Vaut l’étape !","address":{"thoroughfare":"Le Bourg","postalcode":"24510","locality":"Trémolat"}}
{"name":"La Réserve Rimbaud","stars":"1 étoile MICHELIN : une cuisine d’une grande finesse. Vaut l’étape !","address":{"thoroughfare":"820 Avenue de Saint-Maur","postalcode":"34000","locality":"Montpellier"}}
{"name":"La Ferme de l'Hospital","stars":"1 étoile MICHELIN : une cuisine d’une grande finesse. Vaut l’étape !","address":{"thoroughfare":"rte du golf","postalcode":"74160","locality":"Bossey"}}
{"name":"La Grande Maison de Bernard Magrez","stars":"2 étoiles MICHELIN : une cuisine d’exception. Vaut le détour !","address":{"thoroughfare":"10 Rue Labottière","postalcode":"33000","locality":"Bordeaux"}}
{"name":"Le Pré du Moulin","stars":"1 étoile MICHELIN : une cuisine d’une grande finesse. Vaut l’étape !","address":{"thoroughfare":"rte de Ste-Cécile-les-Vignes","postalcode":"84830","locality":"Sérignan-du-Comtat"}}
{"name":"1912","stars":"1 étoile MICHELIN : une cuisine d’une grande finesse. Vaut l’étape !","address":{"thoroughfare":"bd de la Cahotte","postalcode":"14360","locality":"Trouville-sur-Mer"}}
{"name":"Initial","stars":"1 étoile MICHELIN : une cuisine d’une grande finesse. Vaut l’étape !","address":{"thoroughfare":"24 Rue Saint-Manvieu","postalcode":"14000","locality":"Caen"}}
{"name":"Pierre Orsi","stars":"1 étoile MICHELIN : une cuisine d’une grande finesse. Vaut l’étape !","address":{"thoroughfare":"Place Kléber","postalcode":"69006","locality":"Lyon 06"}}
{"name":"La Villa Madie","stars":"2 étoiles MICHELIN : une cuisine d’exception. Vaut le détour !","address":{"thoroughfare":"av. du Revestel","postalcode":"13260","locality":"Cassis"}}
{"name":"Hostellerie du Rosenmeer","stars":"1 étoile MICHELIN : une cuisine d’une grande finesse. Vaut l’étape !","address":{"thoroughfare":"45 avenue de la Gare","postalcode":"67560","locality":"ROSHEIM"}}
{"name":"Château de Sully","stars":"1 étoile MICHELIN : une cuisine d’une grande finesse. Vaut l’étape !","address":{"thoroughfare":"D6","postalcode":"14400","locality":"Sully"}}
{"name":"La Licorne Royale","stars":"1 étoile MICHELIN : une cuisine d’une grande finesse. Vaut l’étape !","address":{"thoroughfare":"27 Place Isaac Benserade","postalcode":"27480","locality":"Lyons-la-Forêt"}}
{"name":"L'Auberge de la Pomme","stars":"1 étoile MICHELIN : une cuisine d’une grande finesse. Vaut l’étape !","address":{"thoroughfare":"44 rue de l' eure","postalcode":"27340","locality":"Les Damps"}}
{"name":"Domaine de Clairefontaine","stars":"1 étoile MICHELIN : une cuisine d’une grande finesse. Vaut l’étape !","address":{"thoroughfare":"chemin des Fontanettes","postalcode":"38121","locality":"Chonas-l'Amballan"}}
{"name":"Faventia","stars":"1 étoile MICHELIN : une cuisine d’une grande finesse. Vaut l’étape !","address":{"thoroughfare":"3100 route de Bagnols-en-Forêt","postalcode":"83440","locality":"Tourrettes"}}
{"name":"Julien Binz","stars":"1 étoile MICHELIN : une cuisine d’une grande finesse. Vaut l’étape !","address":{"thoroughfare":"7 Rue des Cigognes","postalcode":"68770","locality":"Ammerschwihr"}}
{"name":"Les Morainières","stars":"2 étoiles MICHELIN : une cuisine d’exception. Vaut le détour !","address":{"thoroughfare":"route de Marétel","postalcode":"73170","locality":"Jongieux"}}
{"name":"L'Ekrin by Laurent Azoulay","stars":"1 étoile MICHELIN : une cuisine d’une grande finesse. Vaut l’étape !","address":{"thoroughfare":"Route de la Montée","postalcode":"73550","locality":"MERIBEL"}}
{"name":"Le M","stars":"1 étoile MICHELIN : une cuisine d’une grande finesse. Vaut l’étape !","address":{"thoroughfare":"22 r. du Cdt-Drogou","postalcode":"29200","locality":"Brest"}}
{"name":"Alléno Paris au Pavillon Ledoyen","stars":"3 étoiles MICHELIN : une cuisine unique. Vaut le voyage !","address":{"thoroughfare":"8 avenue Dutuit","postalcode":"75008","locality":"Paris"}}
{"name":"Le Clos des Sens","stars":"2 étoiles MICHELIN : une cuisine d’exception. Vaut le détour !","address":{"thoroughfare":"13 r. J. -Mermoz","postalcode":"74940","locality":"Annecy"}}
{"name":"Le Chantecler","stars":"2 étoiles MICHELIN : une cuisine d’exception. Vaut le détour !","address":{"thoroughfare":"37 Promenade des Anglais","postalcode":"06000","locality":"NICE"}}
{"name":"Le Prince Noir - Vivien Durand","stars":"1 étoile MICHELIN : une cuisine d’une grande finesse. Vaut l’étape !","address":{"thoroughfare":"1 rue du Prince Noir","postalcode":"33310","locality":"Lormont"}}
{"name":"Aux Pesked","stars":"1 étoile MICHELIN : une cuisine d’une grande finesse. Vaut l’étape !","address":{"thoroughfare":"59 Rue du Légué","postalcode":"22000","locality":"Saint-Brieuc"}}
{"name":"Le Baudelaire","stars":"1 étoile MICHELIN : une cuisine d’une grande finesse. Vaut l’étape !","address":{"thoroughfare":"8 rue Duphot","postalcode":"75001","locality":"Paris 01"}}
{"name":"Le Moulin de la Gorce","stars":"1 étoile MICHELIN : une cuisine d’une grande finesse. Vaut l’étape !","address":{"thoroughfare":"D17","postalcode":"87800","locality":"La Roche-l'Abeille"}}
{"name":"La Bastide de Moustiers","stars":"1 étoile MICHELIN : une cuisine d’une grande finesse. Vaut l’étape !","address":{"thoroughfare":"Parc naturel régional du Verdon, Chemin de Quinson","postalcode":"04360","locality":"Moustiers-Sainte-Marie"}}
{"name":"Il Carpaccio","stars":"1 étoile MICHELIN : une cuisine d’une grande finesse. Vaut l’étape !","address":{"thoroughfare":"37 avenue Hoche","postalcode":"75008","locality":"Paris 08"}}
{"name":"En Marge","stars":"1 étoile MICHELIN : une cuisine d’une grande finesse. Vaut l’étape !","address":{"thoroughfare":"1204 route de la Croix-Falgarde","postalcode":"31320","locality":"AUREVILLE"}}
{"name":"Le Carmin","stars":"1 étoile MICHELIN : une cuisine d’une grande finesse. Vaut l’étape !","address":{"thoroughfare":"4B Place Carnot","postalcode":"21200","locality":"Beaune"}}
{"name":"La Maison de Bournissac","stars":"1 étoile MICHELIN : une cuisine d’une grande finesse. Vaut l’étape !","address":{"thoroughfare":"montée d'Eyragues","postalcode":"13550","locality":"Les Paluds-des-Noves"}}
{"name":"Auberge du Vieux Puits","stars":"3 étoiles MICHELIN : une cuisine unique. Vaut le voyage !","address":{"thoroughfare":"5 Avenue Saint-Victor","postalcode":"11360","locality":"Fontjoncouse"}}
{"name":"L'Oustau de Baumanière","stars":"2 étoiles MICHELIN : une cuisine d’exception. Vaut le détour !","address":{"thoroughfare":"Village des Baux-de-Provence","postalcode":"13520","locality":"Les Baux-de-Provence"}}
{"name":"Les Fresques","stars":"1 étoile MICHELIN : une cuisine d’une grande finesse. Vaut l’étape !","address":{"thoroughfare":"D18","postalcode":"24240","locality":"Monestier"}}
{"name":"Domaine d'Auriac","stars":"1 étoile MICHELIN : une cuisine d’une grande finesse. Vaut l’étape !","address":{"thoroughfare":"Route de Saint-Hilaire","postalcode":"11000","locality":"Carcassonne"}}
{"name":"Bruno","stars":"1 étoile MICHELIN : une cuisine d’une grande finesse. Vaut l’étape !","address":{"thoroughfare":"2350 route des Arcs, Campagne Mariette","postalcode":"83510","locality":"Lorgues"}}
{"name":"Numéro 3","stars":"1 étoile MICHELIN : une cuisine d’une grande finesse. Vaut l’étape !","address":{"thoroughfare":"3 rue du Général de Gaulle","postalcode":"78490","locality":"Le Tremblay-sur-Mauldre"}}
{"name":"Le Brittany","stars":"1 étoile MICHELIN : une cuisine d’une grande finesse. Vaut l’étape !","address":{"thoroughfare":"bd Ste-Barbe","postalcode":"29681","locality":"Roscoff"}}
{"name":"Auberge du Bon Laboureur","stars":"1 étoile MICHELIN : une cuisine d’une grande finesse. Vaut l’étape !","address":{"thoroughfare":"6 r. Dr Bretonneau","postalcode":"37150","locality":"Chenonceaux"}}
{"name":"Les Bacchanales","stars":"1 étoile MICHELIN : une cuisine d’une grande finesse. Vaut l’étape !","address":{"thoroughfare":"247 avenue de Provence","postalcode":"06140","locality":"VENCE"}}
{"name":"Le Quincangrogne","stars":"1 étoile MICHELIN : une cuisine d’une grande finesse. Vaut l’étape !","address":{"thoroughfare":"7 Rue de l'Abreuvoir","postalcode":"77400","locality":"Dampmart"}}
{"name":"1920","stars":"2 étoiles MICHELIN : une cuisine d’exception. Vaut le détour !","address":{"thoroughfare":"373 chemin des follières","postalcode":"74120","locality":"Megève"}}
{"name":"Les Bas-Rupts","stars":"1 étoile MICHELIN : une cuisine d’une grande finesse. Vaut l’étape !","address":{"thoroughfare":"181 rte de la Bresse","postalcode":"88400","locality":"Bas-Rupts"}}
{"name":"J.-M. Pérochon","stars":"1 étoile MICHELIN : une cuisine d’une grande finesse. Vaut l’étape !","address":{"thoroughfare":"63 avenue de la Grand'Roche","postalcode":"85470","locality":"Brétignolles-sur-Mer"}}
{"name":"Le Petit Nice","stars":"3 étoiles MICHELIN : une cuisine unique. Vaut le voyage !","address":{"thoroughfare":"Anse de Maldormé - Corniche J. F. Kennedy","postalcode":"13007","locality":"Marseille 07"}}
{"name":"Au Trou Gascon","stars":"1 étoile MICHELIN : une cuisine d’une grande finesse. Vaut l’étape !","address":{"thoroughfare":"40 rue Taine","postalcode":"75012","locality":"Paris"}}
{"name":"Hostellerie Bérard","stars":"1 étoile MICHELIN : une cuisine d’une grande finesse. Vaut l’étape !","address":{"thoroughfare":"Avenue Gabriel-Péri","postalcode":"83740","locality":"LA-CADIERE-D'AZUR"}}
{"name":"Le Chiberta","stars":"1 étoile MICHELIN : une cuisine d’une grande finesse. Vaut l’étape !","address":{"thoroughfare":"3 Rue Arsène Houssaye","postalcode":"75008","locality":"Paris 08"}}
{"name":"Stéphane Derbord","stars":"1 étoile MICHELIN : une cuisine d’une grande finesse. Vaut l’étape !","address":{"thoroughfare":"10 Place du Président Wilson","postalcode":"21000","locality":"Dijon"}}
{"name":"La Barbacane","stars":"1 étoile MICHELIN : une cuisine d’une grande finesse. Vaut l’étape !","address":{"thoroughfare":"Place Auguste-Pierre-Pont","postalcode":"11000","locality":"Carcassonne"}}
{"name":"Dominique Bouchet","stars":"1 étoile MICHELIN : une cuisine d’une grande finesse. Vaut l’étape !","address":{"thoroughfare":"11 Rue Treilhard","postalcode":"75008","locality":"Paris"}}
{"name":"Le Fanal","stars":"1 étoile MICHELIN : une cuisine d’une grande finesse. Vaut l’étape !","address":{"thoroughfare":"17 Avenue du Fontaulé","postalcode":"66650","locality":"Banyuls-sur-Mer"}}
{"name":"Le Hittau","stars":"1 étoile MICHELIN : une cuisine d’une grande finesse. Vaut l’étape !","address":{"thoroughfare":"1 rue du Nouaou","postalcode":"40230","locality":"SAINT-VINCENT-DE-TYROSSE"}}
{"name":"G.a. au Manoir de Rétival","stars":"1 étoile MICHELIN : une cuisine d’une grande finesse. Vaut l’étape !","address":{"thoroughfare":"2 rue St. Clair","postalcode":"76490","locality":"Caudebec-en-Caux"}}
{"name":"Carré des Feuillants","stars":"2 étoiles MICHELIN : une cuisine d’exception. Vaut le détour !","address":{"thoroughfare":"14 rue de Castiglione","postalcode":"75001","locality":"Paris 01"}}
{"name":"Le Magasin aux Vivres","stars":"1 étoile MICHELIN : une cuisine d’une grande finesse. Vaut l’étape !","address":{"thoroughfare":"5 Avenue Ney","postalcode":"57000","locality":"Metz"}}
{"name":"La Dame de Pic","stars":"1 étoile MICHELIN : une cuisine d’une grande finesse. Vaut l’étape !","address":{"thoroughfare":"20 Rue du Louvre","postalcode":"75001","locality":"Paris 01"}}
{"name":"La Marelle","stars":"1 étoile MICHELIN : une cuisine d’une grande finesse. Vaut l’étape !","address":{"thoroughfare":"1593 av. de Lyon","postalcode":"01960","locality":"Péronnas"}}
{"name":"Lou Cigalon-Maison Martin","stars":"1 étoile MICHELIN : une cuisine d’une grande finesse. Vaut l’étape !","address":{"thoroughfare":"6 bd Carnot","postalcode":"06560","locality":"Valbonne"}}
{"name":"Le Pressoir","stars":"1 étoile MICHELIN : une cuisine d’une grande finesse. Vaut l’étape !","address":{"thoroughfare":"7 r. de l'Hôpital","postalcode":"56890","locality":"Saint-Avé"}}
{"name":"Gill","stars":"2 étoiles MICHELIN : une cuisine d’exception. Vaut le détour !","address":{"thoroughfare":"9 quai de la Bourse","postalcode":"76000","locality":"Rouen"}}
{"name":"Mirazur","stars":"2 étoiles MICHELIN : une cuisine d’exception. Vaut le détour !","address":{"thoroughfare":"30, Avenue Aristide Briand","postalcode":"06500","locality":"Menton"}}
{"name":"Le Pêché Gourmand","stars":"1 étoile MICHELIN : une cuisine d’une grande finesse. Vaut l’étape !","address":{"thoroughfare":"2 rte de Gap","postalcode":"05100","locality":"Briançon"}}
{"name":"La Fourchette du Printemps","stars":"1 étoile MICHELIN : une cuisine d’une grande finesse. Vaut l’étape !","address":{"thoroughfare":"30 r. du Printemps","postalcode":"75017","locality":"Paris"}}
{"name":"La Roya","stars":"1 étoile MICHELIN : une cuisine d’une grande finesse. Vaut l’étape !","address":{"thoroughfare":"plage de la Roya","postalcode":"20217","locality":"Saint-Florent"}}
{"name":"Auberge Le Prieuré","stars":"1 étoile MICHELIN : une cuisine d’une grande finesse. Vaut l’étape !","address":{"thoroughfare":"4 Grand'Rue","postalcode":"47310","locality":"Moirax"}}
{"name":"La Robe","stars":"1 étoile MICHELIN : une cuisine d’une grande finesse. Vaut l’étape !","address":{"thoroughfare":"3 pl. Reveillère-Lepeaux","postalcode":"85600","locality":"Montaigu"}}
{"name":"À Contre Sens","stars":"1 étoile MICHELIN : une cuisine d’une grande finesse. Vaut l’étape !","address":{"thoroughfare":"8-10 r. des Croisiers","postalcode":"14000","locality":"Caen"}}
{"name":"Table - Bruno Verjus","stars":"1 étoile MICHELIN : une cuisine d’une grande finesse. Vaut l’étape !","address":{"thoroughfare":"3 r. de Prague","postalcode":"75012","locality":"Paris"}}
{"name":"Château Blanchard","stars":"1 étoile MICHELIN : une cuisine d’une grande finesse. Vaut l’étape !","address":{"thoroughfare":"36 rte de St-Galmier","postalcode":"42140","locality":"Chazelles-sur-Lyon"}}
{"name":"ES","stars":"1 étoile MICHELIN : une cuisine d’une grande finesse. Vaut l’étape !","address":{"thoroughfare":"91 r. de Grenelle","postalcode":"75007","locality":"Paris"}}
{"name":"Le Sérac","stars":"1 étoile MICHELIN : une cuisine d’une grande finesse. Vaut l’étape !","address":{"thoroughfare":"22 r. de la Comtesse","postalcode":"74170","locality":"Saint-Gervais-les-Bains"}}
{"name":"Haut Bonheur de la Table","stars":"1 étoile MICHELIN : une cuisine d’une grande finesse. Vaut l’étape !","address":{"thoroughfare":"18 Grand-Place","postalcode":"59670","locality":"Cassel"}}
{"name":"Val d'Auge","stars":"1 étoile MICHELIN : une cuisine d’une grande finesse. Vaut l’étape !","address":{"thoroughfare":"805 av. du Gén.-de-Gaulle","postalcode":"59910","locality":"Bondues"}}
{"name":"L'Éveil des Sens","stars":"1 étoile MICHELIN : une cuisine d’une grande finesse. Vaut l’étape !","address":{"thoroughfare":"429 bd Paul-Lintier","postalcode":"53100","locality":"Mayenne"}}
{"name":"Au 14 Février","stars":"2 étoiles MICHELIN : une cuisine d’exception. Vaut le détour !","address":{"thoroughfare":"Le Plâtre-Durand","postalcode":"71570","locality":"Saint-Amour-Bellevue"}}
{"name":"Le Moulin des Quatre Saisons","stars":"1 étoile MICHELIN : une cuisine d’une grande finesse. Vaut l’étape !","address":{"thoroughfare":"r. Gallieni","postalcode":"72200","locality":"La Flèche"}}
{"name":"L'Aquarelle","stars":"1 étoile MICHELIN : une cuisine d’une grande finesse. Vaut l’étape !","address":{"thoroughfare":"71 A rte du Montil","postalcode":"17920","locality":"Breuillet"}}
{"name":"L'Orée de la Forêt","stars":"1 étoile MICHELIN : une cuisine d’une grande finesse. Vaut l’étape !","address":{"thoroughfare":"255 r. de la Forêt","postalcode":"60600","locality":"Étouy"}}
{"name":"Les Chênes Verts","stars":"1 étoile MICHELIN : une cuisine d’une grande finesse. Vaut l’étape !","address":{"thoroughfare":"rte de Villecroze","postalcode":"83690","locality":"Tourtour"}}
{"name":"Avel Vor","stars":"1 étoile MICHELIN : une cuisine d’une grande finesse. Vaut l’étape !","address":{"thoroughfare":"25 r. de Locmalo","postalcode":"56290","locality":"Port-Louis"}}
{"name":"L'Alchémille","stars":"1 étoile MICHELIN : une cuisine d’une grande finesse. Vaut l’étape !","address":{"thoroughfare":"53 rte de Lapoutroie","postalcode":"68240","locality":"Kaysersberg"}}
{"name":"Maison Prévôt","stars":"1 étoile MICHELIN : une cuisine d’une grande finesse. Vaut l’étape !","address":{"thoroughfare":"353 av. de Verdun","postalcode":"84300","locality":"Cavaillon"}}
{"name":"La Tour","stars":"1 étoile MICHELIN : une cuisine d’une grande finesse. Vaut l’étape !","address":{"thoroughfare":"31 Nouvelle-Place","postalcode":"18300","locality":"Sancerre"}}
{"name":"La Table des Blot - Auberge du Château","stars":"1 étoile MICHELIN : une cuisine d’une grande finesse. Vaut l’étape !","address":{"thoroughfare":"1 Grande-Rue","postalcode":"78720","locality":"Dampierre-en-Yvelines"}}
{"name":"Ze Kitchen Galerie","stars":"1 étoile MICHELIN : une cuisine d’une grande finesse. Vaut l’étape !","address":{"thoroughfare":"4 r. des Grands-Augustins","postalcode":"75006","locality":"Paris"}}
{"name":"SaQuaNa","stars":"2 étoiles MICHELIN : une cuisine d’exception. Vaut le détour !","address":{"thoroughfare":"22 pl. Hamelin","postalcode":"14600","locality":"Honfleur"}}
{"name":"La Petite Maison de Cucuron","stars":"1 étoile MICHELIN : une cuisine d’une grande finesse. Vaut l’étape !","address":{"thoroughfare":"pl. de l'Étang","postalcode":"84160","locality":"Cucuron"}}
{"name":"La Promenade","stars":"1 étoile MICHELIN : une cuisine d’une grande finesse. Vaut l’étape !","address":{"thoroughfare":"2 promenade Jean-Jaurès","postalcode":"31590","locality":"Verfeil"}}
{"name":"Mariottat","stars":"1 étoile MICHELIN : une cuisine d’une grande finesse. Vaut l’étape !","address":{"thoroughfare":"25 r. L.-Vivent","postalcode":"47000","locality":"Agen"}}
{"name":"Roscanvec","stars":"1 étoile MICHELIN : une cuisine d’une grande finesse. Vaut l’étape !","address":{"thoroughfare":"17 r. des Halles","postalcode":"56000","locality":"Vannes"}}
{"name":"L'Atelier de Joël Robuchon - St-Germain","stars":"2 étoiles MICHELIN : une cuisine d’exception. Vaut le détour !","address":{"thoroughfare":"5 r. de Montalembert","postalcode":"75007","locality":"Paris"}}
{"name":"En Pleine Nature","stars":"1 étoile MICHELIN : une cuisine d’une grande finesse. Vaut l’étape !","address":{"thoroughfare":"6 pl. de la Mairie","postalcode":"31130","locality":"Fonsegrives"}}
{"name":"Umami","stars":"1 étoile MICHELIN : une cuisine d’une grande finesse. Vaut l’étape !","address":{"thoroughfare":"8 r. des Dentelles","postalcode":"67000","locality":"Strasbourg"}}
{"name":"L'Auberge des Glazicks","stars":"2 étoiles MICHELIN : une cuisine d’exception. Vaut le détour !","address":{"thoroughfare":"7 rue de la Plage","postalcode":"29550","locality":"PLOMODIERN"}}
{"name":"L'Ambroisie","stars":"3 étoiles MICHELIN : une cuisine unique. Vaut le voyage !","address":{"thoroughfare":"9 Place des Vosges","postalcode":"75004","locality":"Paris"}}
{"name":"Auberge de l'Ill","stars":"3 étoiles MICHELIN : une cuisine unique. Vaut le voyage !","address":{"thoroughfare":"2 rue de Collonges-au-Mont d'Or","postalcode":"68970","locality":"Illhaeusern"}}
{"name":"Maison Kieny","stars":"1 étoile MICHELIN : une cuisine d’une grande finesse. Vaut l’étape !","address":{"thoroughfare":"7 Rue du Général de Gaulle","postalcode":"68400","locality":"Riedisheim"}}
{"name":"La Grand'Vigne","stars":"2 étoiles MICHELIN : une cuisine d’exception. Vaut le détour !","address":{"thoroughfare":"chemin de Smith-Haut-Lafitte","postalcode":"33650","locality":"Martillac"}}
{"name":"Michel Chabran - La Grande Table","stars":"1 étoile MICHELIN : une cuisine d’une grande finesse. Vaut l’étape !","address":{"thoroughfare":"29 Avenue du Quarante-Cinquième Parallèle","postalcode":"26600","locality":"Pont-de-l'Isère"}}
{"name":"La Table des Merville","stars":"1 étoile MICHELIN : une cuisine d’une grande finesse. Vaut l’étape !","address":{"thoroughfare":"3 place Richard","postalcode":"31320","locality":"Castanet-Tolosan"}}
{"name":"Helen","stars":"1 étoile MICHELIN : une cuisine d’une grande finesse. Vaut l’étape !","address":{"thoroughfare":"3 r.Berryer","postalcode":"75008","locality":"Paris"}}
{"name":"Pic","stars":"3 étoiles MICHELIN : une cuisine unique. Vaut le voyage !","address":{"thoroughfare":"285 avenue Victor Hugo","postalcode":"26000","locality":"Valence"}}
{"name":"Le Vivarais","stars":"1 étoile MICHELIN : une cuisine d’une grande finesse. Vaut l’étape !","address":{"thoroughfare":"5 avenue Expilly","postalcode":"07600","locality":"VALS-LES-BAINS"}}
{"name":"Le St-Placide","stars":"1 étoile MICHELIN : une cuisine d’une grande finesse. Vaut l’étape !","address":{"thoroughfare":"6 place du poncel","postalcode":"35400","locality":"Saint-Malo"}}
{"name":"Origine","stars":"1 étoile MICHELIN : une cuisine d’une grande finesse. Vaut l’étape !","address":{"thoroughfare":"26 Rampe Cauchoise","postalcode":"76000","locality":"Rouen"}}
{"name":"Auberge du Cheval Blanc","stars":"2 étoiles MICHELIN : une cuisine d’exception. Vaut le détour !","address":{"thoroughfare":"4 Route de Wissembourg","postalcode":"67510","locality":"Lembach"}}
{"name":"Jérôme Brochot","stars":"1 étoile MICHELIN : une cuisine d’une grande finesse. Vaut l’étape !","address":{"thoroughfare":"Place Beaubernard","postalcode":"71300","locality":"Montceau-les-Mines"}}
{"name":"Le Gabriel","stars":"2 étoiles MICHELIN : une cuisine d’exception. Vaut le détour !","address":{"thoroughfare":"42 Avenue Gabriel","postalcode":"75008","locality":"Paris"}}
{"name":"L'Odas","stars":"1 étoile MICHELIN : une cuisine d’une grande finesse. Vaut l’étape !","address":{"thoroughfare":"Passage Maurice Lenfant","postalcode":"76000","locality":"Rouen"}}
{"name":"Chapelle Saint-Martin","stars":"1 étoile MICHELIN : une cuisine d’une grande finesse. Vaut l’étape !","address":{"thoroughfare":"33, Saint Martin du Fault","postalcode":"87510","locality":"Nieul"}}
{"name":"La Palme d'Or","stars":"2 étoiles MICHELIN : une cuisine d’exception. Vaut le détour !","address":{"thoroughfare":"73 Boulevard de la Croisette","postalcode":"06400","locality":"Cannes"}}
{"name":"La Scène Thélème","stars":"1 étoile MICHELIN : une cuisine d’une grande finesse. Vaut l’étape !","address":{"thoroughfare":"18 Rue Troyon","postalcode":"75017","locality":"PARIS"}}
{"name":"Le Bois sans Feuilles","stars":"3 étoiles MICHELIN : une cuisine unique. Vaut le voyage !","address":{"thoroughfare":"728 Route de Villerest","postalcode":"42155","locality":"Ouches"}}
{"name":"Le P'tit Polyte","stars":"1 étoile MICHELIN : une cuisine d’une grande finesse. Vaut l’étape !","address":{"thoroughfare":"2 Rue de la Chapelle","postalcode":"38860","locality":"Les Deux Alpes"}}
{"name":"Neige d'Été","stars":"1 étoile MICHELIN : une cuisine d’une grande finesse. Vaut l’étape !","address":{"thoroughfare":"12 Rue de l'Amiral Roussin","postalcode":"75015","locality":"Paris 15"}}
{"name":"Régis et Jacques Marcon","stars":"3 étoiles MICHELIN : une cuisine unique. Vaut le voyage !","address":{"thoroughfare":"Larsiallas","postalcode":"43290","locality":"SAINT-BONNET-LE-FROID"}}
{"name":"Ô Saveurs","stars":"1 étoile MICHELIN : une cuisine d’une grande finesse. Vaut l’étape !","address":{"thoroughfare":"8 place Ormeaux au village","postalcode":"31180","locality":"ROUFFIAC-TOLOSAN"}}
{"name":"Auberge de la Diligence","stars":"1 étoile MICHELIN : une cuisine d’une grande finesse. Vaut l’étape !","address":{"thoroughfare":"4 r. de la Libération","postalcode":"49440","locality":"Loiré"}}
{"name":"Pur' - Jean-François Rouquette","stars":"1 étoile MICHELIN : une cuisine d’une grande finesse. Vaut l’étape !","address":{"thoroughfare":"5 r. de la Paix","postalcode":"75002","locality":"Paris 02"}}
{"name":"Le Candille","stars":"1 étoile MICHELIN : une cuisine d’une grande finesse. Vaut l’étape !","address":{"thoroughfare":"bd C. Rebuffel","postalcode":"06250","locality":"Mougins"}}
{"name":"L'Abeille","stars":"2 étoiles MICHELIN : une cuisine d’exception. Vaut le détour !","address":{"thoroughfare":"10 Avenue d'Iéna","postalcode":"75016","locality":"Paris 16"}}
{"name":"La Table de La Butte","stars":"1 étoile MICHELIN : une cuisine d’une grande finesse. Vaut l’étape !","address":{"thoroughfare":"10 rue de la Mer","postalcode":"29260","locality":"PLOUIDER"}}
{"name":"64° Le Restaurant","stars":"2 étoiles MICHELIN : une cuisine d’exception. Vaut le détour !","address":{"thoroughfare":"9-13 Rue du Général de Gaulle","postalcode":"68240","locality":"Kaysersberg"}}
{"name":"La Mare aux Oiseaux","stars":"1 étoile MICHELIN : une cuisine d’une grande finesse. Vaut l’étape !","address":{"thoroughfare":"223 RUE DU CHEF DE L'ILE Fedrun","postalcode":"44720","locality":"Saint-Joachim"}}
{"name":"Hélène Darroze","stars":"1 étoile MICHELIN : une cuisine d’une grande finesse. Vaut l’étape !","address":{"thoroughfare":"4 rue d'Assas","postalcode":"75006","locality":"Paris 06"}}
{"name":"Le Roc Alto","stars":"1 étoile MICHELIN : une cuisine d’une grande finesse. Vaut l’étape !","address":{"thoroughfare":"Quartier La Ville","postalcode":"05350","locality":"SAINT-VERAN"}}
{"name":"Le Bon Accueil","stars":"1 étoile MICHELIN : une cuisine d’une grande finesse. Vaut l’étape !","address":{"thoroughfare":"32 Grande-Rue","postalcode":"25160","locality":"Malbuisson"}}
{"name":"La Coquerie","stars":"1 étoile MICHELIN : une cuisine d’une grande finesse. Vaut l’étape !","address":{"thoroughfare":"1 chemin du Cimetière-Marin","postalcode":"34200","locality":"Sète"}}
{"name":"Le Camélia","stars":"1 étoile MICHELIN : une cuisine d’une grande finesse. Vaut l’étape !","address":{"thoroughfare":"7 quai Georges Clemenceau","postalcode":"78380","locality":"Bougival"}}
{"name":"La Rastègue","stars":"1 étoile MICHELIN : une cuisine d’une grande finesse. Vaut l’étape !","address":{"thoroughfare":"48 bd du Levant","postalcode":"83230","locality":"Bormes-les-Mimosas"}}
{"name":"La Table d'Eugène","stars":"1 étoile MICHELIN : une cuisine d’une grande finesse. Vaut l’étape !","address":{"thoroughfare":"18 r. Eugène-Sue","postalcode":"75018","locality":"Paris"}}
{"name":"Auberge du Dun","stars":"1 étoile MICHELIN : une cuisine d’une grande finesse. Vaut l’étape !","address":{"thoroughfare":"3 rte de Dieppe","postalcode":"76740","locality":"Le Bourg-Dun"}}
{"name":"Le Favre d'Anne","stars":"1 étoile MICHELIN : une cuisine d’une grande finesse. Vaut l’étape !","address":{"thoroughfare":"21 bd du Mar.-Foch","postalcode":"49000","locality":"Angers"}}
{"name":"Le Village","stars":"1 étoile MICHELIN : une cuisine d’une grande finesse. Vaut l’étape !","address":{"thoroughfare":"3 Grande-Rue","postalcode":"78160","locality":"Marly-le-Roi"}}
{"name":"Miraflores","stars":"1 étoile MICHELIN : une cuisine d’une grande finesse. Vaut l’étape !","address":{"thoroughfare":"60 r. Garibaldi","postalcode":"69006","locality":"Lyon"}}
{"name":"La Marande","stars":"1 étoile MICHELIN : une cuisine d’une grande finesse. Vaut l’étape !","address":{"thoroughfare":"lieu-dit Mirande","postalcode":"71260","locality":"Montbellet"}}
{"name":"Le Park 45","stars":"1 étoile MICHELIN : une cuisine d’une grande finesse. Vaut l’étape !","address":{"thoroughfare":"45 bd de la Croisette","postalcode":"06400","locality":"Cannes"}}
{"name":"La Gloire","stars":"1 étoile MICHELIN : une cuisine d’une grande finesse. Vaut l’étape !","address":{"thoroughfare":"74 av. du Gén.-de-Gaulle","postalcode":"45200","locality":"Montargis"}}
{"name":"Le Millénaire","stars":"1 étoile MICHELIN : une cuisine d’une grande finesse. Vaut l’étape !","address":{"thoroughfare":"4 rue Bertin","postalcode":"51100","locality":"Reims"}}
{"name":"Vieux Pont","stars":"1 étoile MICHELIN : une cuisine d’une grande finesse. Vaut l’étape !","address":{"thoroughfare":"","postalcode":"12390","locality":"Belcastel"}}
{"name":"1131","stars":"1 étoile MICHELIN : une cuisine d’une grande finesse. Vaut l’étape !","address":{"thoroughfare":"D 33","postalcode":"21360","locality":"La Bussière-sur-Ouche"}}
{"name":"Manoir de la Boulaie","stars":"2 étoiles MICHELIN : une cuisine d’exception. Vaut le détour !","address":{"thoroughfare":"33 rue Chapelle St-Martin","postalcode":"44115","locality":"HAUTE-GOULAINE"}}
{"name":"Auberge St-Jean","stars":"1 étoile MICHELIN : une cuisine d’une grande finesse. Vaut l’étape !","address":{"thoroughfare":"8 r. du Pont","postalcode":"33420","locality":"Saint-Jean-de-Blaignac"}}
{"name":"Shang Palace","stars":"1 étoile MICHELIN : une cuisine d’une grande finesse. Vaut l’étape !","address":{"thoroughfare":"10 Avenue d'Iéna","postalcode":"75016","locality":"Paris 16"}}
{"name":"L'Amphitryon","stars":"1 étoile MICHELIN : une cuisine d’une grande finesse. Vaut l’étape !","address":{"thoroughfare":"127 r. du Col. -Müller","postalcode":"56100","locality":"Lorient"}}
{"name":"Loiseau des Ducs","stars":"1 étoile MICHELIN : une cuisine d’une grande finesse. Vaut l’étape !","address":{"thoroughfare":"3 Rue Vauban","postalcode":"21000","locality":"Dijon"}}
{"name":"Jean-Luc Tartarin","stars":"2 étoiles MICHELIN : une cuisine d’exception. Vaut le détour !","address":{"thoroughfare":"Square Saint-Roch","postalcode":"76600","locality":"Le Havre"}}
{"name":"Le Sénéchal","stars":"1 étoile MICHELIN : une cuisine d’une grande finesse. Vaut l’étape !","address":{"thoroughfare":"Sauveterre de Rouergue","postalcode":"12800","locality":"Sauveterre-de-Rouergue"}}
{"name":"Frédéric Simonin","stars":"1 étoile MICHELIN : une cuisine d’une grande finesse. Vaut l’étape !","address":{"thoroughfare":"25 rue Bayen","postalcode":"75017","locality":"Paris"}}
{"name":"Flaveur","stars":"2 étoiles MICHELIN : une cuisine d’exception. Vaut le détour !","address":{"thoroughfare":"25 Rue Gubernatis","postalcode":"06000","locality":"Nice"}}
{"name":"Mavrommatis","stars":"1 étoile MICHELIN : une cuisine d’une grande finesse. Vaut l’étape !","address":{"thoroughfare":"42 rue Daubenton","postalcode":"75005","locality":"Paris 05"}}
{"name":"Le Belvédère","stars":"1 étoile MICHELIN : une cuisine d’une grande finesse. Vaut l’étape !","address":{"thoroughfare":"11 rte du Maquis-Jean-Pierre","postalcode":"12340","locality":"Bozouls"}}
{"name":"David Toutain","stars":"1 étoile MICHELIN : une cuisine d’une grande finesse. Vaut l’étape !","address":{"thoroughfare":"29 r. Surcouf","postalcode":"75007","locality":"Paris"}}
{"name":"Au 14 Février","stars":"1 étoile MICHELIN : une cuisine d’une grande finesse. Vaut l’étape !","address":{"thoroughfare":"36 r. du Bœuf","postalcode":"","locality":"Lyon 05"}}
{"name":"Château du Mont Joly","stars":"1 étoile MICHELIN : une cuisine d’une grande finesse. Vaut l’étape !","address":{"thoroughfare":"6 r. du Mont-Joly","postalcode":"39100","locality":"Sampans"}}
{"name":"Étincelles - La Gentilhommière","stars":"1 étoile MICHELIN : une cuisine d’une grande finesse. Vaut l’étape !","address":{"thoroughfare":"","postalcode":"24440","locality":"Sainte-Sabine"}}
{"name":"Le Moulin d'Alotz","stars":"1 étoile MICHELIN : une cuisine d’une grande finesse. Vaut l’étape !","address":{"thoroughfare":"chemin Alotz-Errota","postalcode":"64200","locality":"Alotz"}}
{"name":"L'Aubergade","stars":"1 étoile MICHELIN : une cuisine d’une grande finesse. Vaut l’étape !","address":{"thoroughfare":"78 rte Nationale","postalcode":"80480","locality":"Dury"}}
{"name":"Le Cerf","stars":"1 étoile MICHELIN : une cuisine d’une grande finesse. Vaut l’étape !","address":{"thoroughfare":"30 r. du Gén.-de-Gaulle","postalcode":"67520","locality":"Marlenheim"}}
{"name":"La Table des Cordeliers","stars":"1 étoile MICHELIN : une cuisine d’une grande finesse. Vaut l’étape !","address":{"thoroughfare":"1 r. des Cordeliers","postalcode":"32100","locality":"Condom"}}
{"name":"Mon Plaisir","stars":"1 étoile MICHELIN : une cuisine d’une grande finesse. Vaut l’étape !","address":{"thoroughfare":"22 lieu-dit Journal","postalcode":"25190","locality":"Chamesol"}}
{"name":"Le Pily","stars":"1 étoile MICHELIN : une cuisine d’une grande finesse. Vaut l’étape !","address":{"thoroughfare":"39 Grande-Rue","postalcode":"50100","locality":"Cherbourg-en-Cotentin"}}
{"name":"Le Jules Verne","stars":"1 étoile MICHELIN : une cuisine d’une grande finesse. Vaut l’étape !","address":{"thoroughfare":"2<E>ème</E> étage Tour Eiffel","postalcode":"75007","locality":"Paris"}}
{"name":"L'Atlantide 1874 - Maison Guého","stars":"1 étoile MICHELIN : une cuisine d’une grande finesse. Vaut l’étape !","address":{"thoroughfare":"5 r. de l'Hermitage","postalcode":"44100","locality":"Nantes"}}
{"name":"Côté Jardin","stars":"1 étoile MICHELIN : une cuisine d’une grande finesse. Vaut l’étape !","address":{"thoroughfare":"14 rte de Bourges","postalcode":"45500","locality":"Gien"}}
{"name":"Tour d'Argent","stars":"1 étoile MICHELIN : une cuisine d’une grande finesse. Vaut l’étape !","address":{"thoroughfare":"15 quai de la Tournelle","postalcode":"75005","locality":"Paris"}}
{"name":"Jérémy Galvan","stars":"1 étoile MICHELIN : une cuisine d’une grande finesse. Vaut l’étape !","address":{"thoroughfare":"Rue du Boeuf","postalcode":"69005","locality":"Lyon 05"}}
{"name":"La Ville Blanche","stars":"1 étoile MICHELIN : une cuisine d’une grande finesse. Vaut l’étape !","address":{"thoroughfare":"La Ville Blanche","postalcode":"22300","locality":"Rospez"}}
{"name":"Le Prieuré","stars":"1 étoile MICHELIN : une cuisine d’une grande finesse. Vaut l’étape !","address":{"thoroughfare":"r. de la Mairie","postalcode":"42820","locality":"Ambierle"}}
{"name":"La Promenade","stars":"1 étoile MICHELIN : une cuisine d’une grande finesse. Vaut l’étape !","address":{"thoroughfare":"11 rue du Savoureulx","postalcode":"37350","locality":"Le Petit-Pressigny"}}
{"name":"La Table de la Bergerie","stars":"1 étoile MICHELIN : une cuisine d’une grande finesse. Vaut l’étape !","address":{"thoroughfare":"La Bergerie","postalcode":"49380","locality":"Champ-sur-Layon"}}
{"name":"Auberge de l'Abbaye","stars":"1 étoile MICHELIN : une cuisine d’une grande finesse. Vaut l’étape !","address":{"thoroughfare":"47 place des anciens Combattants","postalcode":"01500","locality":"Ambronay"}}
{"name":"La Gourmandière - La Table d'Olivier","stars":"1 étoile MICHELIN : une cuisine d’une grande finesse. Vaut l’étape !","address":{"thoroughfare":"D126","postalcode":"56000","locality":"Vannes"}}
{"name":"Les Rosiers","stars":"1 étoile MICHELIN : une cuisine d’une grande finesse. Vaut l’étape !","address":{"thoroughfare":"32 av. Beau Soleil","postalcode":"64200","locality":"Biarritz"}}
{"name":"Le Domaine du Colombier","stars":"1 étoile MICHELIN : une cuisine d’une grande finesse. Vaut l’étape !","address":{"thoroughfare":"270 Chemin de Malombre","postalcode":"26780","locality":"Malataverne"}}
{"name":"Les Explorateurs","stars":"1 étoile MICHELIN : une cuisine d’une grande finesse. Vaut l’étape !","address":{"thoroughfare":"place du Slalom","postalcode":"73440","locality":"VAL THORENS"}}
{"name":"La Table de l'Espadon","stars":"2 étoiles MICHELIN : une cuisine d’exception. Vaut le détour !","address":{"thoroughfare":"15 Place Vendôme","postalcode":"75001","locality":"Paris"}}
{"name":"Le Carrousel","stars":"1 étoile MICHELIN : une cuisine d’une grande finesse. Vaut l’étape !","address":{"thoroughfare":"14 rue du Pont de Morge","postalcode":"63350","locality":"MARINGUES"}}
{"name":"La Gouesnière","stars":"1 étoile MICHELIN : une cuisine d’une grande finesse. Vaut l’étape !","address":{"thoroughfare":"1 Le Limonay","postalcode":"35350","locality":"Saint-Méloir-des-Ondes"}}
{"name":"MaSa","stars":"1 étoile MICHELIN : une cuisine d’une grande finesse. Vaut l’étape !","address":{"thoroughfare":"112 avenue Victor-Hugo","postalcode":"92100","locality":"Boulogne-Billancourt"}}
{"name":"Anne de Bretagne","stars":"2 étoiles MICHELIN : une cuisine d’exception. Vaut le détour !","address":{"thoroughfare":"163, Boulevard de la Tara","postalcode":"44770","locality":"La Plaine-sur-Mer"}}
{"name":"Domaine de Rochevilaine","stars":"1 étoile MICHELIN : une cuisine d’une grande finesse. Vaut l’étape !","address":{"thoroughfare":"à la Pointe de Pen Lan","postalcode":"56190","locality":"Billiers"}}
{"name":"La Scène","stars":"1 étoile MICHELIN : une cuisine d’une grande finesse. Vaut l’étape !","address":{"thoroughfare":"33 Avenue George V","postalcode":"75008","locality":"Paris"}}
{"name":"Villa René Lalique","stars":"2 étoiles MICHELIN : une cuisine d’exception. Vaut le détour !","address":{"thoroughfare":"18 Rue Bellevue","postalcode":"67290","locality":"Wingen-sur-Moder"}}
{"name":"Auberge Grand'Maison","stars":"1 étoile MICHELIN : une cuisine d’une grande finesse. Vaut l’étape !","address":{"thoroughfare":"1 r. Léon-le-Cerf","postalcode":"22530","locality":"Mûr-de-Bretagne"}}
{"name":"Auberge des Saints Pères","stars":"1 étoile MICHELIN : une cuisine d’une grande finesse. Vaut l’étape !","address":{"thoroughfare":"212 av. de Nonneville","postalcode":"93600","locality":"Aulnay-sous-Bois"}}
{"name":"Le Pré - Xavier Beaudiment","stars":"2 étoiles MICHELIN : une cuisine d’exception. Vaut le détour !","address":{"thoroughfare":"3 Route de la Baraque","postalcode":"63830","locality":"Durtol"}}
{"name":"Alan Geaam","stars":"1 étoile MICHELIN : une cuisine d’une grande finesse. Vaut l’étape !","address":{"thoroughfare":"19 Rue Lauriston","postalcode":"75016","locality":"Paris"}}
{"name":"Le Pavé d'Auge","stars":"1 étoile MICHELIN : une cuisine d’une grande finesse. Vaut l’étape !","address":{"thoroughfare":"D49","postalcode":"14430","locality":"Beuvron-en-Auge"}}
{"name":"Elsa","stars":"1 étoile MICHELIN : une cuisine d’une grande finesse. Vaut l’étape !","address":{"thoroughfare":"Monte-Carlo Beach - Avenue Princesse Grace","postalcode":"06190","locality":"Roquebrune Cap-Martin"}}
{"name":"Le Colombier","stars":"1 étoile MICHELIN : une cuisine d’une grande finesse. Vaut l’étape !","address":{"thoroughfare":"r. Loucheur","postalcode":"76550","locality":"Offranville"}}
{"name":"Xavier Mathieu","stars":"1 étoile MICHELIN : une cuisine d’une grande finesse. Vaut l’étape !","address":{"thoroughfare":"Route de Murs","postalcode":"84220","locality":"Joucas"}}
{"name":"Auberge de la Mine","stars":"1 étoile MICHELIN : une cuisine d’une grande finesse. Vaut l’étape !","address":{"thoroughfare":"le Gué-Plat","postalcode":"61450","locality":"La Ferrière-aux-Étangs"}}
{"name":"La Fourchette des Ducs","stars":"2 étoiles MICHELIN : une cuisine d’exception. Vaut le détour !","address":{"thoroughfare":"6 r. de la Gare","postalcode":"67210","locality":"Obernai"}}
{"name":"Yam'Tcha","stars":"1 étoile MICHELIN : une cuisine d’une grande finesse. Vaut l’étape !","address":{"thoroughfare":"121 r. St-Honoré","postalcode":"75001","locality":"Paris"}}
{"name":"Henri et Joseph","stars":"1 étoile MICHELIN : une cuisine d’une grande finesse. Vaut l’étape !","address":{"thoroughfare":"4 r. Léo-le-Bourgo","postalcode":"56100","locality":"Lorient"}}
{"name":"Le Cap","stars":"1 étoile MICHELIN : une cuisine d’une grande finesse. Vaut l’étape !","address":{"thoroughfare":"71 Boulevard du Général-de-Gaulle","postalcode":"06230","locality":"SAINT-JEAN-CAP-FERRAT"}}
{"name":"Likoké","stars":"1 étoile MICHELIN : une cuisine d’une grande finesse. Vaut l’étape !","address":{"thoroughfare":"7 rte de Païolive","postalcode":"07140","locality":"Les Vans"}}
{"name":"Palégrié","stars":"1 étoile MICHELIN : une cuisine d’une grande finesse. Vaut l’étape !","address":{"thoroughfare":"Les Ritons","postalcode":"38250","locality":"Corrençon-en-Vercors"}}
{"name":"Le Saison","stars":"1 étoile MICHELIN : une cuisine d’une grande finesse. Vaut l’étape !","address":{"thoroughfare":"1 imp. du Vieux-Bourg","postalcode":"35760","locality":"Saint-Grégoire"}}
{"name":"L'Orangerie du Château","stars":"1 étoile MICHELIN : une cuisine d’une grande finesse. Vaut l’étape !","address":{"thoroughfare":"1 Avenue du Docteur Jean Laigret","postalcode":"41000","locality":"Blois"}}
{"name":"Le Patio","stars":"1 étoile MICHELIN : une cuisine d’une grande finesse. Vaut l’étape !","address":{"thoroughfare":"10 bd de la Plage","postalcode":"33120","locality":"Arcachon"}}
{"name":"La Maison dans le Parc","stars":"1 étoile MICHELIN : une cuisine d’une grande finesse. Vaut l’étape !","address":{"thoroughfare":"3 r. Ste-Catherine","postalcode":"54000","locality":"Nancy"}}
{"name":"La Palmeraie","stars":"1 étoile MICHELIN : une cuisine d’une grande finesse. Vaut l’étape !","address":{"thoroughfare":"81 Boulevard de Gigaro","postalcode":"83420","locality":"La Croix-Valmer"}}
{"name":"JY'S","stars":"2 étoiles MICHELIN : une cuisine d’exception. Vaut le détour !","address":{"thoroughfare":"17 r. de la Poissonnerie","postalcode":"68000","locality":"Colmar"}}
{"name":"Les Cèdres","stars":"2 étoiles MICHELIN : une cuisine d’exception. Vaut le détour !","address":{"thoroughfare":"25 Rue Henri MACHON","postalcode":"26600","locality":"Granges-les-Beaumont"}}
{"name":"Copenhague","stars":"1 étoile MICHELIN : une cuisine d’une grande finesse. Vaut l’étape !","address":{"thoroughfare":"142 AVENUE DES CHAMPS ELYSEES","postalcode":"75008","locality":"PARIS"}}
{"name":"Christophe Bacquié","stars":"3 étoiles MICHELIN : une cuisine unique. Vaut le voyage !","address":{"thoroughfare":"Hotel du Castellet Route des Hauts du Camp","postalcode":"83330","locality":"Le Castellet"}}
{"name":"Le Petit Hôtel du Grand Large","stars":"1 étoile MICHELIN : une cuisine d’une grande finesse. Vaut l’étape !","address":{"thoroughfare":"11 quai St-Ivy","postalcode":"56510","locality":"Portivy"}}
{"name":"Le 39V","stars":"1 étoile MICHELIN : une cuisine d’une grande finesse. Vaut l’étape !","address":{"thoroughfare":"39 Avenue George V","postalcode":"75008","locality":"Paris 08"}}
{"name":"Auberge St-Laurent","stars":"1 étoile MICHELIN : une cuisine d’une grande finesse. Vaut l’étape !","address":{"thoroughfare":"1 rue Fontaine","postalcode":"68510","locality":"Sierentz"}}
{"name":"L'Écrin","stars":"1 étoile MICHELIN : une cuisine d’une grande finesse. Vaut l’étape !","address":{"thoroughfare":"10 place de la Concorde","postalcode":"75008","locality":"Paris"}}
{"name":"Le Mascaret","stars":"1 étoile MICHELIN : une cuisine d’une grande finesse. Vaut l’étape !","address":{"thoroughfare":"1 r. de Bas","postalcode":"50560","locality":"Blainville-sur-Mer"}}
{"name":"La Table d'Uzès","stars":"1 étoile MICHELIN : une cuisine d’une grande finesse. Vaut l’étape !","address":{"thoroughfare":"18 rue du Docteur Blanchard","postalcode":"30700","locality":"Uzès"}}
{"name":"La Table de Manville","stars":"1 étoile MICHELIN : une cuisine d’une grande finesse. Vaut l’étape !","address":{"thoroughfare":"Domaine de Manville - D27","postalcode":"13520","locality":"LES-BAUX-DE-PROVENCE"}}
{"name":"AM par Alexandre Mazzia","stars":"1 étoile MICHELIN : une cuisine d’une grande finesse. Vaut l’étape !","address":{"thoroughfare":"9 rue François Rocca","postalcode":"13008","locality":"Marseille"}}
{"name":"Le Pré Catelan","stars":"3 étoiles MICHELIN : une cuisine unique. Vaut le voyage !","address":{"thoroughfare":"Route de Suresnes","postalcode":"75016","locality":"Paris"}}
{"name":"Les Pêcheurs","stars":"1 étoile MICHELIN : une cuisine d’une grande finesse. Vaut l’étape !","address":{"thoroughfare":"10 boulevard du Maréchal-Juin","postalcode":"06600","locality":"Antibes"}}
{"name":"Fontevraud Le Restaurant","stars":"1 étoile MICHELIN : une cuisine d’une grande finesse. Vaut l’étape !","address":{"thoroughfare":"38 rue St-Jean-de-l'Habit","postalcode":"49590","locality":"FONTEVRAUD-L'ABBAYE"}}
{"name":"Auberge du Cellier","stars":"1 étoile MICHELIN : une cuisine d’une grande finesse. Vaut l’étape !","address":{"thoroughfare":"1 Rue de Sainte-Eugénie","postalcode":"66720","locality":"Montner"}}
{"name":"Le 1947","stars":"3 étoiles MICHELIN : une cuisine unique. Vaut le voyage !","address":{"thoroughfare":"Cheval Blanc Courchevel - Le Jardin Alpin","postalcode":"73120","locality":"Courchevel 1850"}}
{"name":"Louison","stars":"1 étoile MICHELIN : une cuisine d’une grande finesse. Vaut l’étape !","address":{"thoroughfare":"2750 route de la cride","postalcode":"13610","locality":"Le Puy-Sainte-Réparade"}}
{"name":"La Voile","stars":"1 étoile MICHELIN : une cuisine d’une grande finesse. Vaut l’étape !","address":{"thoroughfare":"chemin de la Quessine","postalcode":"83350","locality":"Ramatuelle"}}
{"name":"Les Hautes Roches","stars":"1 étoile MICHELIN : une cuisine d’une grande finesse. Vaut l’étape !","address":{"thoroughfare":"86 quai de Loire","postalcode":"37210","locality":"Rochecorbon"}}
{"name":"L'Olivier","stars":"1 étoile MICHELIN : une cuisine d’une grande finesse. Vaut l’étape !","address":{"thoroughfare":"25 Route des Carles","postalcode":"83990","locality":"Saint-Tropez"}}
{"name":"Les Pyrénées","stars":"1 étoile MICHELIN : une cuisine d’une grande finesse. Vaut l’étape !","address":{"thoroughfare":"19 pl. Ch.-de-Gaulle","postalcode":"64220","locality":"Saint-Jean-Pied-de-Port"}}
{"name":"Benoit","stars":"1 étoile MICHELIN : une cuisine d’une grande finesse. Vaut l’étape !","address":{"thoroughfare":"20 Rue St-Martin","postalcode":"75004","locality":"Paris 04"}}
{"name":"Les Genêts","stars":"1 étoile MICHELIN : une cuisine d’une grande finesse. Vaut l’étape !","address":{"thoroughfare":"21 bis Rue de l'Océan","postalcode":"85470","locality":"Brem-sur-Mer"}}
{"name":"Restaurant H","stars":"1 étoile MICHELIN : une cuisine d’une grande finesse. Vaut l’étape !","address":{"thoroughfare":"13 r. Jean-Beausire","postalcode":"75004","locality":"Paris"}}
{"name":"Auguste","stars":"1 étoile MICHELIN : une cuisine d’une grande finesse. Vaut l’étape !","address":{"thoroughfare":"54 r. Bourgogne","postalcode":"75007","locality":"Paris 07"}}
{"name":"Le Grand Restaurant - Jean-François Piège","stars":"2 étoiles MICHELIN : une cuisine d’exception. Vaut le détour !","address":{"thoroughfare":"7 r. d'Aguesseau","postalcode":"75008","locality":"Paris"}}
{"name":"Le Passe Temps","stars":"1 étoile MICHELIN : une cuisine d’une grande finesse. Vaut l’étape !","address":{"thoroughfare":"52 Rue Tronchet","postalcode":"69006","locality":"Lyon"}}
{"name":"Château Cordeillan-Bages","stars":"1 étoile MICHELIN : une cuisine d’une grande finesse. Vaut l’étape !","address":{"thoroughfare":"Route des châteaux","postalcode":"33250","locality":"Pauillac"}}
{"name":"Le Jardin des Remparts","stars":"1 étoile MICHELIN : une cuisine d’une grande finesse. Vaut l’étape !","address":{"thoroughfare":"10 rue Hôtel-Dieu","postalcode":"21200","locality":"Beaune"}}
{"name":"Dominique Bucaille","stars":"1 étoile MICHELIN : une cuisine d’une grande finesse. Vaut l’étape !","address":{"thoroughfare":"715 av. des Savels","postalcode":"04100","locality":"Manosque"}}
{"name":"Grand Hôtel du Lion d'Or","stars":"1 étoile MICHELIN : une cuisine d’une grande finesse. Vaut l’étape !","address":{"thoroughfare":"69 r. Clemenceau","postalcode":"41200","locality":"Romorantin-Lanthenay"}}
{"name":"Agapé","stars":"1 étoile MICHELIN : une cuisine d’une grande finesse. Vaut l’étape !","address":{"thoroughfare":"51 Rue Jouffroy-d'Abbans","postalcode":"75017","locality":"Paris 17"}}
{"name":"Les Berceaux","stars":"1 étoile MICHELIN : une cuisine d’une grande finesse. Vaut l’étape !","address":{"thoroughfare":"13 rue des Berceaux","postalcode":"51200","locality":"Épernay"}}
{"name":"Frédéric Doucet","stars":"1 étoile MICHELIN : une cuisine d’une grande finesse. Vaut l’étape !","address":{"thoroughfare":"2 avenue de la Libération","postalcode":"71120","locality":"Charolles"}}
{"name":"Aigue Marine","stars":"1 étoile MICHELIN : une cuisine d’une grande finesse. Vaut l’étape !","address":{"thoroughfare":"5 r. M. -Berthelot","postalcode":"22220","locality":"Tréguier"}}
{"name":"Auberge de l'Île Barbe","stars":"1 étoile MICHELIN : une cuisine d’une grande finesse. Vaut l’étape !","address":{"thoroughfare":"1 Place Notre-Dame","postalcode":"69009","locality":"Lyon 09"}}
{"name":"Nakatani","stars":"1 étoile MICHELIN : une cuisine d’une grande finesse. Vaut l’étape !","address":{"thoroughfare":"27 Rue Pierre Leroux","postalcode":"75007","locality":"PARIS"}}
{"name":"Château de Mercuès","stars":"1 étoile MICHELIN : une cuisine d’une grande finesse. Vaut l’étape !","address":{"thoroughfare":"Route du Château","postalcode":"46090","locality":"Mercuès"}}
{"name":"Auberge au Boeuf","stars":"1 étoile MICHELIN : une cuisine d’une grande finesse. Vaut l’étape !","address":{"thoroughfare":"Rue de l'Eglise","postalcode":"67770","locality":"Sessenheim"}}
{"name":"René et Maxime Meilleur","stars":"3 étoiles MICHELIN : une cuisine unique. Vaut le voyage !","address":{"thoroughfare":"Saint Marcel","postalcode":"73440","locality":"Saint-Martin-de-Belleville"}}
{"name":"Brikéténia","stars":"1 étoile MICHELIN : une cuisine d’une grande finesse. Vaut l’étape !","address":{"thoroughfare":"142 r. de l'Église","postalcode":"64210","locality":"Guéthary"}}
{"name":"Auberge du Vert Mont","stars":"1 étoile MICHELIN : une cuisine d’une grande finesse. Vaut l’étape !","address":{"thoroughfare":"1318 r. du Mont-Noir","postalcode":"59299","locality":"Boeschepe"}}
{"name":"Le Foch","stars":"1 étoile MICHELIN : une cuisine d’une grande finesse. Vaut l’étape !","address":{"thoroughfare":"37 bd Foch","postalcode":"51100","locality":"Reims"}}
{"name":"Le Mas du Langoustier","stars":"1 étoile MICHELIN : une cuisine d’une grande finesse. Vaut l’étape !","address":{"thoroughfare":"","postalcode":"83400","locality":"Hyères"}}
{"name":"Michel Sarran","stars":"2 étoiles MICHELIN : une cuisine d’exception. Vaut le détour !","address":{"thoroughfare":"21 bd A.-Duportal","postalcode":"31000","locality":"Toulouse"}}
{"name":"Terre-Mer","stars":"1 étoile MICHELIN : une cuisine d’une grande finesse. Vaut l’étape !","address":{"thoroughfare":"16 r. du Jeu-de-Paume","postalcode":"56400","locality":"Auray"}}
{"name":"Girardin","stars":"1 étoile MICHELIN : une cuisine d’une grande finesse. Vaut l’étape !","address":{"thoroughfare":"19 Rue des Têtes","postalcode":"68000","locality":"Colmar"}}
{"name":"Le Meurice Alain Ducasse","stars":"2 étoiles MICHELIN : une cuisine d’exception. Vaut le détour !","address":{"thoroughfare":"228 Rue de Rivoli","postalcode":"75001","locality":"Paris"}}
{"name":"Domaine des Séquoias","stars":"1 étoile MICHELIN : une cuisine d’une grande finesse. Vaut l’étape !","address":{"thoroughfare":"54 Vie-de-Boussieu","postalcode":"38300","locality":"Ruy"}}
{"name":"Le Cinq","stars":"3 étoiles MICHELIN : une cuisine unique. Vaut le voyage !","address":{"thoroughfare":"31 av. George V","postalcode":"75008","locality":"Paris 08"}}
{"name":"Le Manoir du Lys","stars":"1 étoile MICHELIN : une cuisine d’une grande finesse. Vaut l’étape !","address":{"thoroughfare":"D235","postalcode":"61140","locality":"Bagnoles-de-l'Orne"}}
{"name":"Les Terraillers","stars":"1 étoile MICHELIN : une cuisine d’une grande finesse. Vaut l’étape !","address":{"thoroughfare":"11 Route Chemin-Neuf","postalcode":"06410","locality":"Biot"}}
{"name":"Château de Pray","stars":"1 étoile MICHELIN : une cuisine d’une grande finesse. Vaut l’étape !","address":{"thoroughfare":"Rue du Cèdre","postalcode":"37400","locality":"Amboise"}}
{"name":"Le Jasmin","stars":"1 étoile MICHELIN : une cuisine d’une grande finesse. Vaut l’étape !","address":{"thoroughfare":"Lieu-dit Lalande","postalcode":"47140","locality":"Saint-Sylvestre-sur-Lot"}}
{"name":"Alexandre","stars":"2 étoiles MICHELIN : une cuisine d’exception. Vaut le détour !","address":{"thoroughfare":"2 rue Xavier Tronc","postalcode":"30128","locality":"Garons"}}
{"name":"Aux Terrasses","stars":"1 étoile MICHELIN : une cuisine d’une grande finesse. Vaut l’étape !","address":{"thoroughfare":"18 av. du 23-Janvier","postalcode":"71700","locality":"Tournus"}}
